no,name,address,province,phone_numbers,faxes,emails,website_or_facebook,mailbox,department_name,major
1,សាកលវិទ្យាល័យភូមិន្ទភ្នំពេញ,មហាវិថីសហព័ន្ធរុស្សី សង្កាត់ទឹកល្អក់ ខណ្ឌទួលគោក រាជធានីភ្នំពេញ,រាជធានីភ្នំពេញ,០២៣ ៨៨៣ ៦៤០; ០២៣ ៨៨៤ ១៥៤; ០២៣ ៨៨៥ ៤១៩,០២៣ ៨៨០ ១១៦; ០២៣ ៨៨៤ ១៥៤,secretary@rupp.edu.kh,www.rupp.edu.kh; www.facebook.com/rupp.edu.kh,,១. មហាវិទ្យាល័យ​សង្គមសាស្រ្ត និងមនុស្សសាស្រ្ត,អក្សរសាស្រ្តខ្មែរ
,,,,,,,,,,ប្រវត្តិវិទ្យា
,,,,,,,,,,ទស្សនវិជ្ជា
,,,,,,,,,,ភូមិវិទ្យា
,,,,,,,,,,សង្គមវិទ្យា
,,,,,,,,,,ចិត្តវិទ្យា
,,,,,,,,,,ទេសចរណ៍
,,,,,,,,,,សង្គមកិច្ចវិទ្យា
,,,,,,,,,,គ្រប់គ្រងពាណិជ្ជកម្មអន្តរជាតិ
,,,,,,,,,,ប្រព័ន្ធផ្សព្វផ្សាយ និងសារគមនាគមន៍
,,,,,,,,,២.មហាវិទ្យាល័យ​វិទ្យាសាស្រ្ត,គណិតវិទ្យា
,,,,,,,,,,គីមីវិទ្យា
,,,,,,,,,,ព័ត៌មានវិទ្យា
,,,,,,,,,,រូបវិទ្យា
,,,,,,,,,,ជីវវិទ្យា
,,,,,,,,,,បរិស្ថាន
,,,,,,,,,៣.មហាវិទ្យាល័យ​វិស្វកម្ម,វិស្វកម្មជីវសាស្ត្រ
,,,,,,,,,,វិស្វកម្មបច្ចេកវិទ្យាព័ត៌មាន
,,,,,,,,,,វិស្វកម្មទូរគមនាគមន៍ និង អេឡិចត្រូនិច
,,,,,,,,,៤.មហាវិទ្យាល័យសិក្សាអភិវឌ្ឍន៍,អភិវឌ្ឍសេដ្ឋកិច្ច
,,,,,,,,,,អភិវឌ្ឍសហគមន៍
,,,,,,,,,,គ្រប់គ្រងនិង អភិវឌ្ឍធនធានមនុស្ស
,,,,,,,,,៥.វិទ្យាស្ថានភាសាបរទេស,ភាសាអង់គ្លេស
,,,,,,,,,,ភាសាបារាំង​
,,,,,,,,,,ភាសាជប៉ុន
,,,,,,,,,,ភាសាកូរ៉េ
,,,,,,,,,,ភាសាថៃ
,,,,,,,,,,ភាសាចិន
,,,,,,,,,,សិក្សាអន្តរជាតិ
2,សាកលវិទ្យាល័យភូមិន្ទកសិកម្ម,សង្កាត់ដង្កោ ខណ្ឌដង្កោ រាជធានីភ្នំពេញ ,រាជធានីភ្នំពេញ,០២៣ ២១៩ ៨២៩; ០២៣ ២១៩ ៧៥៣,០២៣​ ២១៩ ៦៩០; ០២៣ ២១៩ ៧៥៣,RUA@forum.org.kh; rua@camnet.com.kh,www.rupp.edu.kh ,2696,១. មហាវិទ្យាល័យវិទ្យាសាស្ត្រកសិកម្ម,ក្សេត្រសាស្ត្រ
,,,,,,,,,២. មហាវិទ្យាល័យវិទ្យាសាស្ត្រសត្វ,វិទ្យាសាស្ត្រសត្វ
,,,,,,,,,៣. មហាវិទ្យាល័យវិជ្ជសាស្ត្រសត្វ,វេជ្ជសាស្ត្រសត្វ
,,,,,,,,,៤. មហាវិទ្យាល័យវិទ្យាសាស្ត្រព្រៃឈើ,វិទ្យាសាស្ត្រព្រៃឈើ
,,,,,,,,,៥. មហាវិទ្យាល័យវិទ្យាសាស្ត្រជលផល,វិទ្យាសាស្ត្រជលផល
,,,,,,,,,៦. មហាវិទ្យាល័យវិស្វកម្មកសិកម្ម,វិស្វកម្មកសិកម្ម
,,,,,,,,,៧. មហាវិទ្យាល័យកសិឧស្សាហកម្ម,កសិឧស្សាហកម្ម
,,,,,,,,,៨. មហាវិទ្យាល័យ រៀបចំដែនដី និង រដ្ឋបាល,ដីធ្លីរៀបចំដែនដី និង រដ្ឋបាលដីធ្លី
,,,,,,,,,៩. មហាវិទ្យាល័យវិទ្យាសាស្ត្រកៅស៊ូ,វិទ្យាសាស្ត្រកៅស៊ូ
,,,,,,,,,១០. មហាវិទ្យាល័យសេដ្ឋកិច្ចកសិកម្ម និង អភិវឌ្ឍជនបទ,សេដ្ឋកិច្ចកសិកម្ម និង អភិវឌ្ឍជនបទ
3,សាកលវិទ្យាល័យភូមិន្ទនិតិសាស្ត្រ និង វិទ្យាសាស្ត្រសេដ្ឋកិច្ច,មហាវិថីព្រះមុនីវង្ស សង្កាត់ទន្លេបាសាក់ ខណ្ឌចំការមន រាជធានីភ្នំពេញ,រាជធានីភ្នំពេញ,០២៣​ ៣៦២ ៦០៧;  ០២៣ ២១៤ ៩៥៣,០២៣ ២១៤ ៩៥៣,rector@rule.edu.kh,www.rule.edu.kh,,១.មហាវិទ្យាល័យនិតិសាស្ត្រ,និតិសាស្ត្រ
,,,,,,,,,២.មហាវិទ្យាល័យសេដ្ឋកិច្ចព័ត៌មានវិទ្យា,សេដ្ឋកិច្ចព័ត៌មានវិទ្យា
,,,,,,,,,៣. មហាវិទ្យាល័យរដ្ឋបាលសាធារណៈ,រដ្ឋបាលសាធារណៈ
,,,,,,,,,,ទំនាក់ទំនងអន្តរជាតិ
,,,,,,,,,៤.មហាវិទ្យាល័យ វិទ្យាសាស្ត្រ សេដ្ឋកិច្ច និងគ្រប់គ្រង,គណនេយ្យ
,,,,,,,,,,ធនាគារនិងហិរញ្ញវត្ថុ
,,,,,,,,,,គ្រប់គ្រងធុរកិច្ច
,,,,,,,,,,សេដ្ឋកិច្ចអភិវឌ្ឍន៍
,,,,,,,,,,គ្រប់គ្រងទេសចរណ៍ និង បដិសណ្ឋារកិច្ច
,,,,,,,,,,សេដ្ឋកិច្ច និងគ្រប់គ្រង
4,សាកលវិទ្យាល័យជាតិគ្រប់គ្រង,ផ្លូវលេខ ៩៦ សង្កាត់វត្តភ្នំ ខណ្ឌដូនពេញ រាជធានីភ្នំពេញ,រាជធានីភ្នំពេញ,០២៣ ៤២៨ ១២០; ០១២ ៨៨៩ ៤៩៥ ,០២៣ ៤២៧ ១០៥,sengbunthoeun@num.edu.kh,www.num.edu.kh https://facebook.com/num.edu.kh,,១.មហាវិទ្យាល័យគ្រប់គ្រង,គ្រប់គ្រង
,,,,,,,,,,ម៉ាឃីធីង
,,,,,,,,,,សហគ្រិនភាព
,,,,,,,,,២.មហាវិទ្យាល័យទេសចរណ៍ និង បដិសណ្ឋារកិច្ច,ទេសចរណ៍
,,,,,,,,,,បដិសណ្ឋារកិច្ច
,,,,,,,,,,គ្រប់គ្រងព្រឹត្តិការណ៍ទេសចរណ៍
,,,,,,,,,,ភាសាអង់គ្លេស
,,,,,,,,,៣.មហាវិទ្យាល័យសេដ្ឋកិច្ច,សេដ្ឋកិច្ចពាណិជ្ជកម្ម
,,,,,,,,,,សេដ្ឋកិច្ចអភិវឌ្ឍន៍
,,,,,,,,,៤.មហាវិទ្យាល័យនីតិសាស្ត្រ,នីតិសាធារណៈ
,,,,,,,,,,នីតិជន
,,,,,,,,,៥.មហាវិទ្យាល័យព័ត៌មានវិទ្យា,ព័ត៌មានវិទ្យា
,,,,,,,,,,ព័ត៌មានវិទ្យាពាណិជ្ជកម្ម
,,,,,,,,,៦. កម្មវិធីអន្តរជាតិ,ពាណិជ្ជកម្មអន្តរជាតិ
,,,,,,,,,,បច្ចេកវិទ្យាកែច្នៃ
,,,,,,,,,៧.មហាវិទ្យាល័យ គណនេយ្យ និង ហិរញ្ញវត្ថុ,គណនេយ្យ
,,,,,,,,,,គណនេយ្យ និង ពន្ឋដារ
,,,,,,,,,,គណនេយ្យ និង សេវនកម្ម
,,,,,,,,,,ហិរញ្ញវត្ថុ និងធនាគារ
,,,,,,,,,,ហិរញ្ញវត្ថុ និងទីផ្សារមូលបត្រ
,,,,,,,,,,ហិរញ្ញវត្ថុ និង ធានារ៉ាប់រង
5,សាកលវិទ្យាល័យវិទ្យាសាស្ត្រសុខាភិបាល,មហាវិថីព្រះមុនីវង្ស សង្កាត់ស្រះចក ខណ្ឌដូនពេញ រាជធានីភ្នំពេញ,រាជធានីភ្នំពេញ,០២៣ ៤៣០ ៥៥៦; ០២៣ ៤៣០ ៥៩១,,uhsc@univ-sante.edu.kh,www.univ-sante.edu.kh,,១.មហាវិជ្ជសាស្ត្រ,វេជ្ជសាស្ត្រ
,,,,,,,,,២.មហាវិទ្យាល័យ ឱសថសាស្ត្រ,ឱសថសាស្ត្រ
,,,,,,,,,៣.មហាវិទ្យាល័យ ទន្តសាស្ត្រ,ទន្តសាស្ត្រ
,,,,,,,,,៤.មហាវិទ្យាល័យបច្ចេកទេសថែទាំវេជ្ជសាស្ត្រ,គិលានុបដ្ឋាក
,,,,,,,,,,ឆ្មប
,,,,,,,,,,បច្ចេកទេសមន្ទីរពិសោធន៍
,,,,,,,,,,ព្យាបាលដោយចលនា
,,,,,,,,,,បច្ចេកទេសវិទ្យុសាស្ត្រ
6,សាកលវិទ្យាល័យភូមិន្ទវិចិត្រសិល្បៈ,អគារលេខ ៧២ កាច់ជ្រុងផ្លូវព្រះអង្គយុគន្ឋរ(លេខ១៩) និងផ្លូវមគ្គវ័ន សង្កាត់ជ័យជំនះ ខណ្ឌដូនពេញ រាជធានី,រាជធានីភ្នំពេញ,០២៣ ៩៨៦ ៤១៧ ,០២៣​ ៩៨៦៤១៧,rufa@camnet.com.kh,www.rufa.edu.kh,,១.មហាវិទ្យាល័យបុរាណវិទ្យា,បុរាណវិទ្យា
,,,,,,,,,,មគ្គុទេសក៍បេតិកភណ្ឌវប្បធម៌
,,,,,,,,,២.មហាវិទ្យាល័យ     ស្ថាបត្យកម្ម និង នគរូបនីយកម្មវិទ្យា,ស្ថាបត្យកម្ម និង នគរូបនីយកម្មវិទ្យា
,,,,,,,,,៣.មហាវិទ្យាល័យ  តូរ្យតន្ត្រី,និពន្ឋតន្ត្រី
,,,,,,,,,,ចម្រៀង(បុរាណ និង ជាពូក)
,,,,,,,,,,ឧបករណ៍តន្ត្រី (បុរាណ និងសម័យ)
,,,,,,,,,,បញ្ញាវង់ភ្លេង
,,,,,,,,,,តន្ត្រីវិទ្យា
,,,,,,,,,៤.មហាវិទ្យាល័យសិល្បះសូនរូប,វិចិត្រកម្ម
,,,,,,,,,,ចម្លាក់ទំនើប
,,,,,,,,,,គំនូរសារគមនាគមន៍
,,,,,,,,,,តុបតែងលម្អនៃស្ថាបត្យកម្ម
,,,,,,,,,៥.មហាវិទ្យាល័យសិល្បះនាដសាស្ត្រ,ដឹកនាំរឿង ល្ខោនក្បាច់បុរាណ
,,,,,,,,,,ដឹកនាំរឿង ល្ខោនយីកេ
,,,,,,,,,,ដឹកនាំរឿង ល្ខោនមហោរី
,,,,,,,,,,ដឹកនាំរឿង ល្ខោនកំណាព្យ
,,,,,,,,,,ដឹកនាំរឿង ល្ខោនស្រមោលស្បែកធំ
,,,,,,,,,,ដឹកនាំរឿង ល្ខោននិយាយ
,,,,,,,,,,ដឹកនាំរឿង ល្ខោនបាសាក់
,,,,,,,,,,ដឹកនាំរឿង ល្ខោនខោល
,,,,,,,,,,ដឹកនាំរឿង ល្ខោនអាប៉េ
,,,,,,,,,,ដឹកនាំរឿង របាំប្រពៃណី និង សៀក
7,ពុទ្វិកសាកលវិទ្យាល័យព្រះសីហនុរាជ,ផ្លូវលេខ ៣៩៣​ តិរវិថីព្រះស៊ីសុត្ថិ​ សង្កាត់ជ័យជំនះ ខណ្ឌដូនពេញ រាជធានីភ្នំពេញ,រាជធានីភ្នំពេញ,០១២ ៨៤៤ ៩២១,,sbu@yahoo.com,www.sbu.edu.kh,,១.មហាវិទ្យាល័យ ទស្សនវិជ្ជា និង សាសនា,ទស្សនវិជ្ជាពុទ្ធសាសសនា
,,,,,,,,,,សង្គមវិទ្យា
,,,,,,,,,២.មហាវិទ្យាល័យវិទ្យាសាស្ដ្រអប់រំ​ នឹងព័ត៌មាន,គ្រប់គ្រងទូរទៅ
,,,,,,,,,,រដ្ឋបាលអប់រំ
,,,,,,,,,៣.មហាវិទ្យាល័យអក្សរសាស្ដ្រ,អក្សរសាស្រ្តខ្មែរ
,,,,,,,,,,បរិស្ថានវិទ្យា
,,,,,,,,,៤.មហាវិទ្យាបាលី-សំស្ក្រឺក​ នឹងភាសាបរទេស,ភាសាបាលី
,,,,,,,,,,អក្សរសាស្ដ្រអង់គ្លេស
,,,,,,,,,.មជ្ឍមណ្ឌលគរុកោល្យ,ភាសាបាលី
,,,,,,,,,,ទស្សនវិជ្ជា
8,សាកលវិទ្យាល័យបាត់ដំបង,ជាប់ផ្លូវជាតិលេខ៥ ភូមិអូរខ្ជាយ សង្គាត់ព្រែកស្ដេច ក្រុងបាត់ដំបង ខេត្តបាត់ដំបង,បាត់ដំបង,០៥៣ ៩៥២​ ៩០៥; ០៥៣ ០៥២ ៩២០,,info@ubb.edu.kh,www.ubb.edu.kh,,១.មហាវិទ្យាល័យយគ្រប់គ្រងពាណិជ្ជកម្ម,គ្រប់គ្រង
,,,,,,,,,,គណនេយ្យ
,,,,,,,,,,ទីផ្សារ
,,,,,,,,,,ធនាគារ នឹងហិរញ្ញវត្ថុ
,,,,,,,,,,ទេសចរណ៍
,,,,,,,,,២.មហាវិទ្យាល័យសង្គមសាស្ត្រ នឹងអភិវឌ្ឍន៏,វិទ្យាសាស្ដ្រសេដ្ខកិច្ច
,,,,,,,,,,នីតិសាស្ត្រ
,,,,,,,,,,កសិកពាណិជ្ជកម្ម
,,,,,,,,,,អភិវឌ្ឍន៏ជនបទ
,,,,,,,,,៣.មហាវិទ្យាល័យកសិកម្ម នឹងកែច្នៃអាហារ,បសុពេទ្យ​ នឹងវិទ្យាសាស្ត្រសព្វ
,,,,,,,,,,ក្សេត្រសាស្ត្រ
,,,,,,,,,,កែច្នៃអាហារ
,,,,,,,,,,វារីប្បកម្ម
,,,,,,,,,៤.មហាវិទ្យាល័យសិល្បះមនុស្សសាស្ត្រនឹងអប់រំ,អក្សរសាស្ត្រខ្មែរ
,,,,,,,,,៥.មហាវិទ្យាល័យវិទ្យាសាស្ត្រ នឹងបច្ចកទេស,បច្ចេកវិទ្យាព័ត៏មានវិទ្យា
,,,,,,,,,,វិស្វកម្មនុយក្លេអ៊ែរ
,,,,,,,,,,គីមីវិទ្យា
,,,,,,,,,,ជីវវិទ្យា
,,,,,,,,,៦.វិទ្យាស្ថានភាសាបរទេស,ភាសាអង់គ្លេស
,,,,,,,,,,ភាសាកូរ៉េ
,,,,,,,,,,វិស្វកម្មសំណង់ស៊ីវិល
,,,,,,,,,,គណិតវិទ្យា
,,,,,,,,,,រូបវិទ្យា
,,,,,,,,,,មីក្រូវិទ្យា
9,សាកលវិទ្យាល័យមានជ័យ,ដងផ្លូវជាតិលេខ៥​ ភូមិបាណយ ឃុំទឹកថ្លា ក្រុងសេរីសោភ័ណ ខេត្តបន្ទាយមានជ័យ,បន្ទាយមានជ័យ,០១២ ៩២១ ​៩៧៦; ០៩២ ៣៩៨ 00៨; ០៩៧ ៧៧៧ ០៧៧៤,,oryarath@yahoo.com;  sokmadynov@yahoo.com,www.mcu.edu.kh,,១.មហាវិទ្យាល័យសិល្បះ​ មនុស្សសាស្ដ្រ នឹងភាសា,អក្សរសាស្ដ្រខ្មែរ
,,,,,,,,,,អក្សរសាស្ដ្រអង់គ្លេស
,,,,,,,,,,អក្សរសាស្ដ្រកូរ៉េ
,,,,,,,,,,អក្សរសាស្ដ្រចិន
,,,,,,,,,២.មហាវិទ្យាល័យកសិកម្ម នឹងកែច្នៃអាហារ,កសិឧស្សាហកម្ម
,,,,,,,,,,ក្សេត្រសាស្ត្រ
,,,,,,,,,,បសុពេទ្យ​
,,,,,,,,,,គ្រឿងយន្ដកសិកម្ម
,,,,,,,,,៣.មហាវិទ្យាល័យវិទ្យាសាស្ដ្រ​ នឹងបច្ចេកវិទ្យា,ព័ត៏មានវិទ្យា
,,,,,,,,,៤.មហាវិទ្យាល័យសង្គមសាស្រ្ត និងអភិវឌ្ឍន៍សហគមន៍,អភិវឌ្ឍន៍សហគមន៍
,,,,,,,,,៥.មហាវិទ្យាល័យគ្រប់គ្រងពាណិជ្ជកម្ម និងទេសចរណ៍,គ្រប់គ្រងពាណិជ្ជកម្ម
,,,,,,,,,,ធនាគារ-ហិរញ្ញវត្ថុ
10,សាកលវិទ្យាល័យស្វាយរៀង,ភូមិចំបក់ សង្កាត់ចេក ក្រុងស្វាយរៀង ខេត្តស្វាយរៀង,ស្វាយរៀង,០៤៤ ៧១៥ ៧៧៨,០៤៤ ៧១៥ ៧៧៨,info@sru.edu.kh,www.sru.edu.kh,,១.មហាវិទ្យាល័យគ្រប់គ្រងពាណិជ្ជកម្ម,គ្រប់គ្រង
,,,,,,,,,,គណនេយ្យ
,,,,,,,,,,ទីផ្សារ
,,,,,,,,,,ហិរញ្ញវត្ថុ និង ធនាគារ
,,,,,,,,,២.មហាវិទ្យាល័យកសិកម្ម,ក្សេត្រសាស្ត្រ
,,,,,,,,,,អភិវឌ្ឍន៍ជនបទ
,,,,,,,,,,វិទ្យាសាស្ត្រ និងវេជ្ជសាស្ត្រសត្វ
,,,,,,,,,៣.មហាវិទ្យាល័យវិទ្យាសាស្ត្រ និង បច្ចេកវិទ្យា,គណិតវិទ្យា
,,,,,,,,,,វិទ្យាសាស្ត្រកុំព្យូទ័រ
,,,,,,,,,៤.មហាវិទ្យាល័យសិល្បះ មនុស្សសាស្ត្រ និងភាសាបរទេស,អក្សរសាស្ត្រអង់គ្លេស
,,,,,,,,,,បកប្រែភាសាអង់គ្លេស
,,,,,,,,,៥.មហាវិទ្យាល័យសង្គមសាស្ត្រ,រដ្ឋបាលសាធារណៈ
11,សាកលវិទ្យាល័យជាស៊ីម កំចាយមារ,គីឡូម៉ែត្រលេខ ១១០ ផ្លូវជាតិលេខ ១៨ ភូមិថ្នល់កែង ឃុំស្មោងខាងជើង ស្រុកកំចាយមារ ខេត្ត ព្រៃវែង,ព្រៃវែង,០១២ ២៩៩ ៥៧០;  ០១២ ៧៩៩ ៥៨៧;  ០៩៨ ៦២៦ ៣២៧ ,,info@csuk.edu.kh,www.csuk.edu.kh,,១. មហាវិទ្យាល័យសិល្បះ មនុស្សសាស្ត្រ និងភាសា,ភាសាអង់គ្លេសសម្រាប់ការអប់រំ
,,,,,,,,,,ភាសាអង់គ្លេសសម្រាប់ការបកប្រែ
,,,,,,,,,,ភាសាអង់គ្លេសទំនាក់ទំនង
,,,,,,,,,២. មហាវិទ្យាល័យវិទ្យាសាស្ត្រនិងគណិតសាស្ត្រ,ការងាររដ្ឋបាល
,,,,,,,,,,ការងារជួសជុល
,,,,,,,,,,គណិតវិទ្យា
,,,,,,,,,,គីមីវិទ្យា
,,,,,,,,,,ជីវវិទ្យា
,,,,,,,,,៣.មហាវិទ្យាល័យវិទ្យាសាស្ត្រសង្គម,សេដ្ឋកិច្ច
,,,,,,,,,,អភិវឌ្ឍន៍ជនបទ
,,,,,,,,,,ទេសចរណ៍ និងបដិសណ្ឋារកិច្ច
,,,,,,,,,៤.មហាវិទ្យាល័យគ្រប់គ្រង,ទីផ្សារ
,,,,,,,,,,គណនេយ្យ
,,,,,,,,,,ធនាគារនិងហិរញ្ញវត្ថុ
,,,,,,,,,,គ្រប់គ្រងធនធានមនុស្ស
,,,,,,,,,៥. មហាវិទ្យាល័យ កសិកម្ម,ក្សេត្រសាស្ត្រ
,,,,,,,,,,គ្រប់គ្រងធនធានធម្មជាតិ
,,,,,,,,,,ផលិតកម្មសត្វ និងបសុព្យាបាល
,,,,,,,,,៦.វិទ្យាស្ថានអភិវឌ្ឍន៍សហគមន៍,ក្សេត្រសាស្ត្រ
,,,,,,,,,,មេកានិច
,,,,,,,,,,អេឡិចត្រូនិច
,,,,,,,,,,អគ្គិសនី
,,,,,,,,,,គ្រឿងយន្ដកសិកម្ម
,,,,,,,,,,គណនេយ្យ
,,,,,,,,,,ស្រាវជ្រាវ
,,,,,,,,,,ផ្សព្វផ្សាយ
,,,,,,,,,,ផលិតកម្មសត្វ និងបសុព្យាបាល
12,សាកលវិទ្យាល័យ ហេង សំរិន ត្បូងឃ្មុំ,ចម្ការម៉ៃសាក់ ឃុំស្រឡប់ ស្រុកត្បូងឃ្មុំ ខេត្តត្បូងឃ្មុំ,ត្បូងឃ្មុំ,០១២ ៧៣៤ ២៣៣; ០១២ ៧៩៧ ៨៧៩; ០៨៧ ៩១៥ ៥៤៤; ០១៥ ៧៩៧ ៨៧៩,,vannaro@gmail.com ;   pintara30@gmail.com ;  uhstpintara@gmail.com,www.uhst.edu.kh,,១.មហាវិទ្យាល័យកសិកម្ម,ក្សេត្រសាស្ត្រ
,,,,,,,,,,សេដ្ឋកិច្ចកសិកម្ម
,,,,,,,,,,វិទ្យាសាស្ត្រសត្វ
,,,,,,,,,,វិទ្យាសាស្ត្រព្រៃឈើនិងធនធានធម្មជាតិ
,,,,,,,,,២.មហាវិទ្យាល័យវិស្វកម្ម,វិស្វកម្មសំណង់ស៊ីវិល
,,,,,,,,,,វិស្វកម្មមេកានិកនិងឧស្សាហកម្ម
,,,,,,,,,,គ្រឿងយន្ដកសិកម្ម
,,,,,,,,,,វិស្វកម្មគីមីចំណីអាហារ
,,,,,,,,,៣.មហាវិទ្យាល័យអក្សរសាស្ដ្រ និង មនុស្សសាស្ត្រ,អក្សរសាស្ត្រខ្មែរ
,,,,,,,,,,ប្រវត្តិវិទ្យា
,,,,,,,,,,ទស្សនវិជ្ជា
,,,,,,,,,៤.វិទ្យាសាស្ត្រភាសាបរទេស,ភាសាអង់គ្លេស
,,,,,,,,,,ភាសាចិន
,,,,,,,,,,ភាសាកូរ៉េ
,,,,,,,,,៥.វិទ្យាស្ថានបច្ចេកវិទ្យាព័ត៌មាន,កម្មវិធីកុំព្យូទ័រ
,,,,,,,,,,បច្ចេកវិទ្យាព័ត៏មានធុរកិច្ច
,,,,,,,,,,វិទ្យសាស្ត្រកុំព្យូទ័រ
,,,,,,,,,៦.វិទ្យាស្ថានបណ្ដុះបណ្ដាលបច្ចេកទេស និងវិជ្ជាជីវៈ,
13,វិទ្យាស្ថានបច្ចេកវិទ្យាកម្ពុជា,មហាវិថីសហព័ន្ធរុស្សី រាជធានីភ្នំពេញ,រាជធានីភ្នំពេញ,០២៣ ៨៨០ ៣៧០,០២៣ ៨៨០ ៣៦៩,info@itc.edu.kh,www.itc.edu.kh,86,១.ដេប៉ាតឺម៉ង់ទេពកោសល្យគីមីចំណីអាហារ,វិស្វកម្មគីមីនិងបច្ចេកវិទ្យាអាហារ
,,,,,,,,,២.ដេប៉ាតឺម៉ង់ទេពកោសល្យស៊ីវិល,វិស្វកម្មសំណង់ស៊ីវិល
,,,,,,,,,,វិស្វកម្មស្ថាបត្យកម្ម
,,,,,,,,,៣.ដេប៉ាតឺម៉ង់ទេពកោសល្យអគ្គិសនី និងថាមពល,អគ្គសនី និងអេឡិចត្រូនិច
,,,,,,,,,៤.ដេប៉ាតឺម៉ង់ទេពកោសល្យធនធានរ៉ែ និងភូគព្ភសាស្ត្រ,វិស្វកម្មធនធានរ៉ែ និង ភូគព្ភសាស្ត្រ
,,,,,,,,,៥.ដេប៉ាតឺម៉ង់ទេពកោសល្យព័ត៌មានវិទ្យា និងទំនាក់ទំនង,វិទ្យាសាស្ត្រកុំព្យូទ័រ
,,,,,,,,,៥.ដេប៉ាតឺម៉ង់ទេពកោសល្យឧស្សាហកម្ម និងមេកានិក,វិស្វកម្មឧស្សាហគម្ម និង មេកានិក
,,,,,,,,,៥.ដេប៉ាតឺម៉ង់ទេពកោសល្យជនបទ,វិស្វកម្មធនធានទឹក និង    ហេដ្ឋារចនា​​សម្ព័ន្ឋជនបទ
14,វិទ្យាស្ថាននាវាចរណ៍កម្ពុជា,អគារលេខ ៦៤៥ តិរះវិថីស៊ីសុវត្ថិ សង្កាត់ស្រះចក ខណ្ឌដូនពេញ រាជធានី,រាជធានីភ្នំពេញ,០១៦ ៩៤០ ៩០៨;  ០១០ ៤៤៤ ៣៨១ ,០២៣ ៤២៧ ៨០២,ppapmpwt@online.com,,,មហាវិទ្យាល័យវិទ្យាសាស្ត្របើកបរនាវាសមុទ្រ,បច្ចេកទេសកណ្ណធារសាស្ត្រ
15,វិទ្យាស្ថានបច្ចេកវិទ្យាកំពង់ឈើទាល,ភូមិសំបូរ ឃុំសំបូរ ស្រុកប្រាសាទសំបូរ ខេត្តកំពង់ធំ,កំពង់ធំ,០៨៩ ៣៦៥​ ៨៦១,,pechseangchula@gmail.com,,,វិទ្យាស្ថានបច្ចេកវិទ្យាកំពង់ឈើទាល ,អេឡិចត្រូនិច
,,,,,,,,,,ទូរគមនាគមន៍
,,,,,,,,,,អនុភាពអគ្គិសនី
,,,,,,,,,,វិទ្យាសាស្ត្រសត្វ
,,,,,,,,,,វិទ្យាសាស្ត្រដំណាំ
,,,,,,,,,,កុំព្យូទ័រពាណិជ្ជកម្ម
,,,,,,,,,,គ្រប់គ្រងទេសចរណ៍ និង សណ្ឋារគារ
16,វិទ្យាស្ថានវិទ្យាសាស្ត្រសុខាភិបាល ខេមៈភូមិន្ទ,ផ្លូវជាតិលេខ ៣ ភូមិក្រាំងដូនទៃ សង្កាត់ចោមចៅ ខណ្ឌពោធិ៍សែនជ័យ រាជធានី,រាជធានីភ្នំពេញ,០២៣ ៦៤៦ ៥៧៧៧; ០៩៧ ៩៧៦ ២៤៧៦,,his.rcaf@gmail.com,www.insti-sante.edu.kh,,មហាវិទ្យាល័យវេជ្ជសាស្ត្រ,វេជ្ជសាស្ត្រ
,,,,,,,,,មហាវិទ្យាសាស្ត្រឱសថសាស្ត្រ,ឱសថសាស្ត្រ
,,,,,,,,,មហាវិទ្យាល័យទន្តសាស្ត្រ,ទន្តសាស្ត្រ
,,,,,,,,,សាលាថែទាំវេជ្ជសាស្ត្រ,គិលានុបដ្ឋាក
,,,,,,,,,,គិលានុបដ្ឋាក-ឆ្មប
,,,,,,,,,,ឆ្មប
,,,,,,,,,,បច្ចេកទេសមន្ទីរពិសោធន៍វេជ្ជសាស្ត្រ
17,វិទ្យាស្ថានវិទ្យាសាស្ត្រអគ្គិសនី,ផ្លូវ ២១៧ (ចំការដូង) ភូមិសំបូរ​ សង្កាត់ដង្កោ ខណ្ឌដង្កោ រាជធានីភ្នំពេញ។,រាជធានីភ្នំពេញ,០២៣ ៨៨០ ១១៦,០២៣ ៨៨០ ១១៦,edc_ies@yahoo.com,,,វិទ្យាស្ថានវិទ្យាសាស្ត្រអគ្គសនី ,អគ្គិសនី
18,វិទ្យាស្ថានជាតិប្រៃសណីយ៍ ទូរគមនាគមន៍ និង ព័ត៌មាន,អាគារលេខ ៤១ ជាប់ទីស្ដីការគណៈរដ្ឋមន្ត្រី នៅតាមបណ្ដោយផ្លូវសហព័ន្ឋរុស្សី រាជធានីភ្នំពេញ,រាជធានីភ្នំពេញ,០១៥ ៣៣៥ ៨៧៧; ០៧៧ ៣៣៥ ៨៧៧,,info@niptict.edu.kh,www.niptict.edu.kh,,១.មហាវិទ្យាល័យគ្រប់គ្រងប្រៃសណីយ៍ និង ភស្តុភារ,ពាណិជ្ជកម្មអេឡិចត្រូនិក និង ភស្តុភារ
,,,,,,,,,២.មហាវិទ្យាល័យបច្ចេកវិទ្យាទូរគមនាគមន៍ និង បណ្ដាញ,ទូរគមនាគមន៍ និង បណ្ដាញ
,,,,,,,,,៣.មហាវិទ្យាល័យវិទ្យាសាស្ត្រកុំព្យូទ័រ,វិទ្យាសាស្ត្រកុំព្យូទ័រ
19,សាលាជាតិកសិកម្មព្រែកលៀប,ផ្លូវជាតិលេខ ៦ សង្កាត់ព្រែកលាប ខណ្ឌជ្រោយចង្វារ រាជធានីភ្នំពេញ,រាជធានីភ្នំពេញ,០២៣ ៦៩១ ០៥៨២;                   ០៩២ ៧៦៧ ៨៨០,០២៣ ២១៩ ៧៤៦,info@pnsa.edu.kh,www.pnsa.edu.kh,,១.ដេប៉ាតឺម៉ង់វិទ្យាសាស្ត្រកសិកម្ម,វិទ្យាសាស្ត្រកសិកម្ម
,,,,,,,,,២.ដេប៉ាតឺម៉ង់វិទ្យាសាស្ត្រ និងវេជ្ជសាស្ត្រសត្វ,វិទ្យសាស្ត្រ និង វេជ្ជសាស្ត្រសត្វ
,,,,,,,,,៣.ដេប៉ាតឺម៉ង់វិទ្យាសាស្ត្រជលផល,វិទ្យាសាស្ត្រជលផល
,,,,,,,,,៤.ដេប៉ាតឺម៉ង់វិទ្យាសាស្ត្រព្រៃឈើ,វិទ្យាសាស្ត្រព្រៃឈើ
,,,,,,,,,៥.ដេប៉ាតឺម៉ង់សាកវប្បកម្ម,សាកវប្បកម្ម
,,,,,,,,,៦.ដេប៉ាតឺម៉ង់សេដ្ឋកិច្ចកសិកម្ម,សេដ្ឋកិច្ចកសិកម្ម
,,,,,,,,,៧.ដេប៉ាតឺម៉ង់កសិ-ឧស្សាហកម្ម,កសិ-ឧស្សាហកម្ម
,,,,,,,,,៨.ដេប៉ាតឺម៉ង់សុរិយោដី,សុរិយោដី
,,,,,,,,,៨.ដេប៉ាតឺម៉ង់ផ្សព្វផ្សាយ និង អភិវឌ្ឍន៍ជនបទ,ផ្សព្វផ្សាយ និងអភិវឌ្ឍន៍ជនបទ
20,សាលាជាតិកសិកកម្មកំពង់ចាម,ភូមិទី ៦ ផ្លូវជាតិលេខ ៧ចាស់ សង្កាត់វាលវង់ ក្រុងកំពង់ចាម ខេត្តកំពង់ចាម,កំពង់ចាម,០៤២ ៩៤៣ ៣៩៩; ០១២ ៨៨៤ ១១០,៤២ ៩៤៣ ៣៩៩,sereisoun@yahoo.com,Kampong Cham National School of Agriculture,,១.ដេប៉ាតឺម៉ង់វិទ្យាសាស្ត្រកសិកម្ម,វិទ្យាសាស្ត្រកសិកម្ម
,,,,,,,,,២.ដេប៉ាតឺម៉ង់វិទ្យាសាស្ត្រនិងវិជ្ជសាស្ត្រ,វិទ្យាសាស្ត្រ និង វេជ្ជសាស្ត្រសត្វ
,,,,,,,,,៣.ដេប៉ាតឺម៉ង់វិទ្យាសាស្ត្រកៅស៊ូ,វិទ្យាសាស្ត្រកៅស៊ូ
,,,,,,,,,៤.ដេប៉ាតឺម៉ង់វិទ្យាសាស្ត្រជលផល,វិទ្យាសាស្ត្រជលផល
,,,,,,,,,៤.ដេប៉ាតឺម៉ង់វិទ្យាសាស្ត្រសេដ្ឋកិច្ចកសិកម្ម និង អភិវឌ្ឍជនបទ,វិទ្យាសាស្ត្រកសិកម្ម និងគ្រប់គ្រងកសិកម្ម
21,សាខាសាកលវិទ្យាល័យជាស៊ីម កំចាយមារ,ភូមិឡូតិ៍លេខ ៦ សង្កាត់កំពង់លាវ ក្រុងព្រៃវែង ខេត្តព្រៃវែង,ព្រៃវែង,០៩៥ ៤៤៤ ៦៧៨ ; ០១៧ ៥៥៥ ២០៦;  ០៨១ ៩២០ ៩២០,,radys.fdcc@yahoo.com ; nunsavuth@yahoo.com,,,មហាវិទ្យាល័យគ្រប់គ្រង ,គណនេយ្យ
,,,,,,,,,,ធនាគារ និងហវិញ្ញាវត្ថុ
,,,,,,,,,,គ្រប់គ្រងធនធានមនុស្ស
,,,,,,,,,,ទីផ្សារ
,,,,,,,,,"មហាវិទ្យាល័យសិល្បៈ
មនុស្សសាស្រ្ត និងភាសា",ភាសាអង់គេ្លស
,,,,,,,,,,អក្សរសាស្រ្តខ្មែរ
,,,,,,,,,"មហាវិទ្យាល័យវិទ្យាសាស្រ្ត
គណិតសាស្រ្ត",ព័ត៌មានវិទ្យា
,,,,,,,,,,គណិតវិទ្យា
,,,,,,,,,,គីមីវិទ្យា
,,,,,,,,,"មហាវិទ្យាល័យវិទ្យាសាស្រ្ត
សង្គម",សេដ្ឋកិច្ច
,,,,,,,,,,ទេសចរណ៍ និងបដិសណ្ឋាកិច្ច
,,,,,,,,,,អភិវឌ្ឍន៏ជនបទ
,,,,,,,,,មហាវិទ្យាល័យកសិកម្ម,ក្សេត្រសាស្រ្ត
,,,,,,,,,,គ្រប់គ្រងធនធានធម្មជាតិ
,,,,,,,,,,ផលិតកម្មសត្វ និងបសុព្យាបាល
22,សាខាសាកលវិទ្យាល័យជាស៊ីម កំចាយមារ,ផ្លូវជាតិលេខ ៧ ភូមិបឹងស្នាយ សង្កាត់សំបូរមាស ក្រុងកំពង់ចាម ខេត្តកំពង់ចាម,កំពង់ចាម,០៤២ ៥៥៥ ៥៧៨៨ ;     ០៧៨ ៨៨៨ ១៧៨ ; ០៨៨ ៥៥៣ ៣៨៨៨ ; ០១០ ៧៤៤ ៤៤៧,,yeansambo@yahoo.com ; pisith888@gmail.com,,,មហាវិទ្យាល័យគ្រប់គ្រង ,គណនេយ្យ
,,,,,,,,,,ធនាគារ និងហវិញ្ញាវត្ថុ
,,,,,,,,,,គ្រប់គ្រងធនធានមនុស្ស
,,,,,,,,,,ទីផ្សារ
,,,,,,,,,"មហាវិទ្យាល័យសិល្បៈ
មនុស្សសាស្រ្ត និងភាសា",ភាសាអង់គេ្លស
,,,,,,,,,,អក្សរសាស្រ្តខ្មែរ
,,,,,,,,,"មហាវិទ្យាល័យវិទ្យាសាស្រ្ត
គណិតសាស្រ្ត",ព័ត៌មានវិទ្យា
,,,,,,,,,,គណិតវិទ្យា
,,,,,,,,,,គីមីវិទ្យា
,,,,,,,,,"មហាវិទ្យាល័យវិទ្យាសាស្រ្ត
សង្គម",សេដ្ឋកិច្ច
,,,,,,,,,,ទេសចរណ៍ និងបដិសណ្ឋាកិច្ច
,,,,,,,,,,អភិវឌ្ឍន៏ជនបទ
,,,,,,,,,មហាវិទ្យាល័យកសិកម្ម,ក្សេត្រសាស្រ្ត
,,,,,,,,,,គ្រប់គ្រងធនធានធម្មជាតិ
,,,,,,,,,,ផលិតកម្មសត្វ និងបសុព្យាបាល
