no,name,logo_name,address,province,phone_numbers,faxes,Emails,website_or_facebook,mailbox,department_name,major
1,សាខាវិទ្យាស្ថានក្រុងអង្គរ,krong_angkor,ផ្លូវលេខ ១១ ភូមិឯករ៉ាម សង្កាត់ជើងទឹក ខេត្តព្រៃវែង,ព្រៃវែង,០១២ ៤៩១ ៧៧៧,,aci_pv@yahoo.com,,,"មហាវិទ្យាល័យគ្រប់គ្រង
ពាណិជ្ជកម្ម និងទេសចរណ៍",គ្រប់គ្រង
,,,,,,,,,,,គណនេយ្យ
,,,,,,,,,,,ទីផ្សារ
,,,,,,,,,,"មហាវិទ្យាល័យនិតីសាស្រ្ត និង
សេដ្ឋកិច្ច",និតីឯកជន
,,,,,,,,,,,និតីសាធារណៈ
,,,,,,,,,,,ធនាគារ និងហរិញ្ញវត្ថុ
,,,,,,,,,,"មហាវិទ្យាល័យវិទ្យាសាស្រ្ត
អប់រំ",គណិតវិទ្យា
,,,,,,,,,,,រូបវិទ្យា
,,,,,,,,,,,អក្សរសាស្រ្តខ្មែរ
,,,,,,,,,,,ភាសាអង់គ្លេស
2,សាខាសាកលវិទ្យាល័យឯកទេសនៃកម្ពុជា,cambodia_specialty,ភូមិជ្រោយថ្ម សង្កាត់បឹងកុក ក្រុងកំពង់ចាម ខេត្តកំពង់ចាម,កំពង់ចាម,០១២ ៤៤២ ៧២៧,,info@cus.edu.kh,,,"មហាវិទ្យាល័យសិល្បៈ
 មនុស្សសាស្រ្ត និងភាសា",អក្សរសាស្រ្តអង់គ្លេស
,,,,,,,,,,,ប្រវត្តិវិទ្យា
,,,,,,,,,,,ចិត្ត-គរុកោសល្យ
,,,,,,,,,,,ភូមិវិទ្យា
,,,,,,,,,,,អក្សរសាស្រ្តខ្មែរ
,,,,,,,,,,"មហាវិទ្យាល័យវិទ្យាសាស្រ្ត
និងបច្ចេកទេស",វិទ្យាសាស្រ្តកុំព្យូទ័រ
,,,,,,,,,,,គីមីវិទ្យា
,,,,,,,,,,,ជីវវិទ្យា
,,,,,,,,,,,គ្រប់ក្រងប្រព័ន្ធព័ត៌មានវិទ្យា
,,,,,,,,,,,គណិតវិទ្យា
,,,,,,,,,,,រូបវិទ្យា
,,,,,,,,,,,គ្រប់គ្រងសិ្ថតិអនុវត្តន៏
,,,,,,,,,,,បច្ចេកវិទ្យាព័ត៌មានវិទ្យា
,,,,,,,,,,"មហាវិទ្យាល័យគ្រប់គ្រង
ពាណិជ្ជកម្ម និងសេដ្ឋកិច្ច",គ្រប់គ្រង
,,,,,,,,,,,គណនេយ្យ
,,,,,,,,,,,ហរិញ្ញវត្ថុ និងធនាគារ
,,,,,,,,,,,ម៉ាឃីតធីង(ទីផ្សារ)
,,,,,,,,,,,សេដ្ឋកិច្ចអភិវឌ្ឍន៏
,,,,,,,,,,,គ្រប់គ្រងសណ្ឋាគារ និងទេសចរណ៏
,,,,,,,,,,,គ្រប់គ្រងការផ្សាយពាណិជ្ជកម្ម
,,,,,,,,,,,គ្រប់គ្រងពាណិជ្ជកម្មអន្ដរជាតិ
,,,,,,,,,,,គ្រប់គ្រងអចលនវត្ថុ និងដីធ្លី
3,សាខាសាកលវិទ្យាល័យវេស្ទើន,western,ភូមិទី ២ សង្កាត់វាលវង់ ក្រុងកំពង់ចាម ខេត្តកំពង់ចាម,កំពង់ចាម,០៤២ ៩៤២ ០២៤ ; ០៩៧ ៦៦៩ ៩៩៩០,,info_wu@western.edu.kh,,,"មហាវិទ្យាល័យសិល្បៈ
មនុស្សសាស្រ្ត ភាសា",អប់រំភាសាអង់គេ្លស
,,,,,,,,,,,អង់គេ្លសសម្រាប់ទំនាក់ទំនង
,,,,,,,,,,"មហាវិទ្យាល័យគ្រប់គ្រង
សណ្ឋាគារ និងទេសចរណ៏",គ្រប់គ្រងសណ្ឋាគារ និងបដិសណ្ឋាកិច្ច
,,,,,,,,,,,គ្រប់គ្រងទេសចរណ៏
,,,,,,,,,,មហាវិទ្យាល័យសេដ្ឋកិច្ច,ហរិញ្ញវត្ថុ និងធនាគារ
,,,,,,,,,,,សេដ្ឋកិច្ចអភិវឌ្ឍន៏
,,,,,,,,,,,វិនិយោគ និងទីផ្សារភាគហ៊ុន
,,,,,,,,,,"មហាវិទ្យាល័យគ្រប់គ្រង
ពាណិជ្ជកម្ម គណនេយ្យ",ទីផ្សារ និងទំនាក់ទំនង
,,,,,,,,,,,គ្រប់គ្រង និងភាពជាអ្នកដឹកនាំ
,,,,,,,,,,,គណនេយ្យ និងសេវនកម្ម
,,,,,,,,,,នីតិសាស្រ្ត,ច្បាប់
,,,,,,,,,,,ច្បាប់ការទូត
,,,,,,,,,,,រដ្ឋបាលសារធាណៈ
,,,,,,,,,,,ច្បាប់អង្គការអន្តរជាតិ និង NGOs
,,,,,,,,,,វិទ្យាសាស្រ្តកុំព្យូទ័រ,រៀបចំបណ្ដាញកុំព្យូទ័រ
,,,,,,,,,,,សរសេរកម្មវិទ្យាគ្រប់គ្រងកុំព្យូទ័រ
,,,,,,,,,,វិទ្យាសាស្រ្តអប់រំ,ប្រវត្តិវិទ្យា
,,,,,,,,,,,រូបវិទ្យា
,,,,,,,,,,,ខេមវិទ្យា
,,,,,,,,,,,ជីវវិទ្យា
,,,,,,,,,,,គីមីវិទ្យា
,,,,,,,,,,,គណិតវិទ្យា
,,,,,,,,,,,ទស្សនៈវិទ្យា
4,សាខាសាកលវិទ្យាល័យគ្រប់គ្រង និង សេដ្ឋកិច្ច,management_economic,ផ្លូវជាតិលេខ ៧ ភូមិបឹងស្នាយ សង្កាត់សំបូរមាស ក្រុងកំពង់ចាម ខេត្តកំពង់ចាម,កំពង់ចាម,០៤២ ៦៧៧ ៧៧០៧ ; ០៤២ ៦៧៧ ៧៧០៨,,info@ume-kpc.edu.kh,,,,គ្រប់គ្រង
,,,,,,,,,,,គ្រប់គ្រងទេសចរណ៍
,,,,,,,,,,,គណនេយ្យ
,,,,,,,,,,,ធនាគារ និងហរិញ្ញវត្ថុ
,,,,,,,,,,,ទីផ្សារ (ម៉ាឃីតធីង)
,,,,,,,,,,,ច្បាប់
,,,,,,,,,,,សេដ្ឋកិច្ច
,,,,,,,,,,,អភិវឌ្ឍន៍សហគមន៍
,,,,,,,,,,,អក្សរសាស្ត្រខ្មែរ
,,,,,,,,,,,ភាសាអង់គ្លេស
,,,,,,,,,,,គណិតវិទ្យា
5,សាកលវិទ្យាល័យកំពង់ចាម,,ក្រុងកំពង់ចាម ខេត្តកំពង់ចាម,កំពង់ចាម,"0426777729;
096 555 666 8;
088 97 97 222;
098 54 40 80",,infor.ukc@gmail.com,,,, គិណនុបដ្ឋាន
,,,,,,,,,,,ទន្តគិណនុដ្ឋាន
,,,,,,,,,,,មន្ទីរពិសោធន៏
,,,,,,,,,,,ធ្មប
6,ពុទ្វិកសាកលវិទ្យាល័យសម្ដេចអគ្គមហាសេនាបតី តេជោ ហ៊ុន សែន,,សង្កាត់ បឹងកុក ក្រុងកំពង់ចាម ខេត្តកំពង់ចាម,កំពង់ចាម,042 637 0123; 015 46 53 73,,www.hsbu.edu.kh,,,,អក្សរសាស្រ្តខែ្មរ
,,,,,,,,,,,ទស្សនវិជ្ជា ពុទ្ធសាសនា
,,,,,,,,,,,នីតិរដ្ឋបាលសាធារណៈ
,,,,,,,,,,,អក្សរសាស្រ្តអង់គ្លេស
,,,,,,,,,,,គ្រប់គ្រងទូទៅ
,,,,,,,,,,,រដ្ឋបាលអប់រំ
,,,,,,,,,,,ភាសាបាលី
7,សាខាសាកលវិទ្យាល័យបៀលប្រាយ,bbu,ភូមិវិហារចិន សង្កាត់ស្វាយដង្កំ ក្រុងសៀមរាប ខេត្តសៀមរាប,សៀមរាប,០៦៣ ៩៦៣ ៣០០ ; ០១៥ ៩០៨ ៧៧៧,,siemreapinfo@bbu.edu.kh,,,"មហាវិទ្យាល័យ សេដ្ឋកិច្ច និង
វិទ្យាសាស្រ្តកសិកម្ម",សេដ្ឋកិច្ច
,,,,,,,,,,,សេដ្ឋកិច្ច និងហរិញ្ញវត្ថុ
,,,,,,,,,,,គ្រប់គ្រងគម្រោង និងអភិវឌ្ឍន៍ជនបទ
,,,,,,,,,,,គ្រប់គ្រងកសិដ្ឋាន និងកសិធុរកិច្ច
,,,,,,,,,,,ពាណិជ្ជកម្ម និងហរិញ្ញវត្ថុអន្តរជាតិ
,,,,,,,,,,,កសិកម្ម
,,,,,,,,,,,ក្សេត្រសាស្រ្ត
,,,,,,,,,,,ផលិតកម្មសត្វ
,,,,,,,,,,,បច្ចេកវិទ្យាក្រោយប្រមូលផល
,,,,,,,,,,"មហាវិទ្យាល័យច្បាប់ និង
វិទ្យាសាស្រ្តសង្គម",និតីសាស្រ្ត
,,,,,,,,,,,និតីឯកជន និងនិតីធុរកិច្ច
,,,,,,,,,,,និតីសាធារណៈ
,,,,,,,,,,,និតីអន្តរជាតិ
,,,,,,,,,,,រដ្ឋបាលសាធារណៈ​
,,,,,,,,,,,គ្រប់គ្រងសាធារណៈ និងអភិបាលកិច្ច
,,,,,,,,,,,គោលនយោបាយសាធារណៈ
,,,,,,,,,,,វិទ្យាសាស្រ្តនយោបាយ
,,,,,,,,,,"មហាវិទ្យាល័យសិល្បៈ
 មនុស្សសាស្រ្​្ត និងភាសា",ភាសាអង់គ្លេស
,,,,,,,,,,,បង្រៀនភាសាអង់គ្លេសជាភាសាបរទេស
,,,,,,,,,,,បកប្រែភាសា
,,,,,,,,,,,ភាសាអង់គ្លេសសម្រាប់ធុរកិច្ចអន្តរជាតិ
,,,,,,,,,,,អប់រំ
,,,,,,,,,,,ផែនការអប់រំ និងគ្រប់គ្រង
,,,,,,,,,,"មហាវិទ្យាល័យវិស្វកម្ម និង
ស្ថាបត្យកម្ម",វិស្វកម្ម
,,,,,,,,,,,វិស្វកម្មសំណង់ស៊ីវិល
,,,,,,,,,,,វិស្វកម្មអគ្គីសនី និងអេឡិចត្រូនិច
,,,,,,,,,,,វិស្វកម្មអេឡិចត្រូនិច និងទូរគមនាគមន៍
,,,,,,,,,,,វិស្វកម្មសំណង់ស៊ីវិលអាគារ
,,,,,,,,,,,វិស្វកម្មសំណង់ស៊ីវិលស្ពានថ្នល់
,,,,,,,,,,,ស្ថាបត្យកម្ម និងនគរូបនីយកម្ម
,,,,,,,,,,,ស្ថាបត្យកម្ម តុបតែងក្នុងអាគារ
,,,,,,,,,,,រចនាម៉ូតផលិតផល
,,,,,,,,,,"មហាវិទ្យាល័យវិទ្យាសាស្រ្ត
និងបច្ចេកវិទ្យា",វិទ្យាសាស្រ្តកុំព្យូទ័រ
,,,,,,,,,,,បច្ចេកវិទ្យាព័ត៌មាន
,,,,,,,,,,,បច្ចេកវិទ្យាបណ្ដាញកុំព្យូទ័រ
,,,,,,,,,,,បច្ចេកវិទ្យាព័ត៌មាន និងបណ្ដាញកុំព្យូទ័រ
,,,,,,,,,,,បច្ចេកវិទ្យាទូរគមនាគមន៍
,,,,,,,,,,"មហាវិទ្យាល័យទេសចរណ៍
បដិសណ្ឋាកិច្ច",គ្រប់ក្រងសណ្ឋាគារ និងបដិសណ្ឋាកិច្ច
,,,,,,,,,,,គ្រប់គ្រងទេសចរណ៍ និងបដិសណ្ឋាកិច្ច
,,,,,,,,,,,គ្រប់គ្រងសេវាម្ហូបអាហារ
,,,,,,,,,,មហាវិទ្យាល័យគ្រប់គ្រងធុរកិច្ច,រដ្ឋបាលធុរកិច្ច
,,,,,,,,,,,គ្រប់គ្រង
,,,,,,,,,,,សវនកម្ម
,,,,,,,,,,,គណនេយ្យ និងហរិញ្ញវត្ថុ
,,,,,,,,,,,ធុរកិច្ចអន្ដរជាតិ
,,,,,,,,,,,ទីផ្សារ
,,,,,,,,,,,ហរិញ្ញវត្ថុ
,,,,,,,,,,,ធនាគារ
,,,,,,,,,,,គ្រប់គ្រងសហគ្រិនភាព និងសហគ្រាស
,,,,,,,,,,,គ្រប់គ្រងអចលនទ្រព្យ និងដីធ្លី
,,,,,,,,,,,ប្រពន្ធ័ព័ត៌មានធុរកិច្ច
8,សាខាសាកលវិទ្យាល័យបញ្ញាសាស្ត្រកម្ពុជា,puc,ផ្លូវលេខ ២៧ ភូមិវត្តបូព៌ សង្កាត់ស្លក្រាម ក្រុងសៀមរាប,សៀមរាប,០៦៣ ៩៦៥ ៩៥៧ ; ០១២ ៦០២ ៥៥០,,infosr@puc.edu.kh,,,"មហាវិទ្យាល័យពាណិជ្ជកម្ម
និងសេដ្ឋកិច្ច",គណនេយ្យ
,,,,,,,,,,,គ្រប់គ្រងអាជីវកម្ម
,,,,,,,,,,,ប្រព័ន្ធព័ត៌មានអាជីវកម្ម
,,,,,,,,,,,សេដ្ឋកិច្ច
,,,,,,,,,,,សហគ្រិនភាព
,,,,,,,,,,,ហរិញ្ញវត្ថុ និងធនាគារ
,,,,,,,,,,,ទីផ្សារ
,,,,,,,,,,,គ្រប់គ្រងទេសចរណ៍និងបដិសណ្ឋារកិច្ច
,,,,,,,,,,មហាវិទ្យាល័យអប់រំ,TESOL
,,,,,,,,,,,រដ្ឋបាលអប់រំនិងភាពជាអ្នកដឹកនាំ
,,,,,,,,,,,"ផែនការអប់រំ គោលនយោបាយ
និងការគ្រប់គ្រង (PhD)"
,,,,,,,,,,"មហាវិទ្យាល័យនីតិសាស្រ្ត
និងកិច្ចការសាធារណៈ",ច្បាប់
,,,,,,,,,,,ច្បាប់កម្មសិទិ្ធបញ្ញា
,,,,,,,,,,,ច្បាប់ពណិជ្ជកម្មអន្ដរជាតិ
,,,,,,,,,,,ច្បាប់ស្តីពីសិទ្ធិមនុស្សអន្តរជាតិ
,,,,,,,,,,"មហាវិទ្យាល័យសង្គមសាស្រ្ត
និងទំនាក់ទំនងអន្តរជាតិ",ទំនាក់ទំនងអន្តរជាតិ
,,,,,,,,,,,ទំនាក់ទំនងអន្តរជាតិ និងការទូត
,,,,,,,,,,,ទំនាក់ទំនងអន្តរជាតិ និងសន្តិភាពការអភិវឌ្ឍន៍
,,,,,,,,,,,ចិត្តវិទ្យា
,,,,,,,,,,,សង្គមវិទ្យា
,,,,,,,,,,,វិទ្យាសាស្រ្តនយោបាយ
,,,,,,,,,,"មហាវិទ្យាល័យគណិតវិទ្យា
វិទ្យាសាស្ត្រនិងវិស្វកម្ម",វិទ្យាសាស្រ្តកុំព្យូទ័រ
,,,,,,,,,,,សិក្សាអំពីបរិស្ថាន និងវិទ្យាសាស្រ្ត
,,,,,,,,,,,
9,សាខាសាកលវិទ្យាល័យឯកទេសនៃកម្ពុជា,cambodia_specialty,ផ្លូវលោកតានឿយ ភូមិវត្តបូព៌ សង្កាត់ស្លក្រាម ក្រុងសៀមរាប ខេត្តសៀមរាប,សៀមរាប,012 63 62 08,,info@cus.edu.kh,,,"មហាវិទ្យាល័យសិល្បៈ
មនុស្សសាស្រ្ត និងភាសា",អក្សរសាស្រ្តអង់គ្លេស
,,,,,,,,,,,ប្រវត្តិវិទ្យា
,,,,,,,,,,,ចិត្ត-គរុកោសល្យ
,,,,,,,,,,,ភូមិវិទ្យា
,,,,,,,,,,,អក្សរសាស្រ្តខ្មែរ
,,,,,,,,,,"មហាវិទ្យាល័យវិទ្យាសាស្រ្ត
និងបច្ចេកទេស
",វិទ្យាសាស្រ្តកុំព្យូទ័រ
,,,,,,,,,,,គីមីវិទ្យា
,,,,,,,,,,,ជីវវិទ្យា
,,,,,,,,,,,គ្រប់ក្រងប្រព័ន្ធព័ត៌មានវិទ្យា
,,,,,,,,,,,គណិតវិទ្យា
,,,,,,,,,,,រូបវិទ្យា
,,,,,,,,,,,គ្រប់គ្រងសិ្ថតិអនុវត្តន៏
,,,,,,,,,,,បច្ចេកវិទ្យាព័ត៌មានវិទ្យា
,,,,,,,,,,"មហាវិទ្យាល័យគ្រប់គ្រង
ពាណិជ្ជកម្ម និងសេដ្ឋកិច្ច
",គ្រប់គ្រង
,,,,,,,,,,,គណនេយ្យ
,,,,,,,,,,,ហរិញ្ញវត្ថុ និងធនាគារ
,,,,,,,,,,,ម៉ាឃីតធីង(ទីផ្សារ)
,,,,,,,,,,,សេដ្ឋកិច្ចអភិវឌ្ឍន៏
,,,,,,,,,,,គ្រប់គ្រងសណ្ឋាគារ និងទេសចរណ៏
,,,,,,,,,,,គ្រប់គ្រងការផ្សាយពាណិជ្ជកម្ម
,,,,,,,,,,,គ្រប់គ្រងពាណិជ្ជកម្មអន្ដរជាតិ
,,,,,,,,,,,គ្រប់គ្រងអចលនវត្ថុ និងដីធ្លី
10,សាខាសាកលវិទ្យាល័យ មេគង្គកម្ពុជា,mekong,អគារលេខ ២២០ ផ្លូវ៧ មករាសង្កាត់សាលាកំរើក ក្រុងសៀមរាប ខេត្តសៀមរាប,សៀមរាប,០៦៣ ៦៩០ ០១១១ ; ០៩៨ ៩៧៩ ៦៩៥ ; ០៧៧ ៧៧៣ ៦៣៥,,cmu-srp@mekong.edu.kh,,,មហាវិទ្យាល័យ វិទ្យាសាស្រ្ត,គណនេយ្យ
,,,,,,,,,,,គ្រប់គ្រងពាណិជ្ជកម្មអន្ដរជាតិ
,,,,,,,,,,,ធនាគារ និងហិរញ្ញវត្ថុ
,,,,,,,,,,,វិភាគហិរញ្ញវត្ថុ និងការវិនិយោគ
,,,,,,,,,,,បច្ចេកវិទ្យាព័ត៌មានវិទ្យា
,,,,,,,,,,,សំណង់ស៊ីវិល
,,,,,,,,,,,ស្ថាបត្យកម្ម
,,,,,,,,,,"មហាវិទ្យាល័យសិល្បៈមនុស្ស
សាស្រ្ត និងភាសាបរទេស",ទំនាក់ទំនងអន្តរជាតិ
,,,,,,,,,,,ភាសាអង់គ្លេស
,,,,,,,,,,,សិក្សាជប៉ុន ពាណិជ្ជកម្ម
,,,,,,,,,,មហាវិទ្យាល័យវិទ្យាសាស្រ្តសង្គម,ម៉ាឃីតធីង(ទីផ្សារ)
,,,,,,,,,,,គ្រប់គ្រង
,,,,,,,,,,,ច្បាប់
,,,,,,,,,,,ច្បាប់ពាណិជ្ជកម្ម
,,,,,,,,,,,គ្រប់គ្រងធនធានមនុស្ស
,,,,,,,,,,,គ្រប់គ្រងសណ្ឋាគារ និងបដិសណ្ឋារកិច្ច
,,,,,,,,,,,ទំនាក់ទំនងសាធារណៈ
,,,,,,,,,,កម្មវិធីសិក្សាអន្តរជាតិ,គ្រប់គ្រងពាណិជ្ជកម្មនិងសហគ្រាស
,,,,,,,,,,,គ្រប់គ្រងពាណិជ្ជកម្មអន្ដរជាតិ
11,សាខាវិទ្យាស្ថានវ៉ាន់ដា,vanda,ផ្លូវលោកតានឿយ សង្កាត់សាលាកំរើក ក្រុងសៀមរាប ខេត្តសៀមរាប,សៀមរាប,០៦៣ ៩៦៣ ៥៦៣ ; ០១៧ ៣៧០ ២៦៨,,vandaact@yahoo.com,,,"មហាវិទ្យាល័យ គណនេយ្យ និង
ហិរញ្ញវត្ថុ ",គណនេយ្យ និងធនាគារ
,,,,,,,,,,,ភាសាអង់គ្លេសសម្រាប់ពាណិជ្ជកម្ម
,,,,,,,,,,,គណនេយ្យ
,,,,,,,,,,,បរិញ្ញាបត្រជាន់ខ្ពស់សវនកម្ម
,,,,,,,,,,,បរិញ្ញាបត្រជាន់ខ្ពស់គណនេយ្យ
12,សាខាសាកលវិទ្យាល័យ បៀលប្រាយ,bbu,ផ្លូវលេខ ១ ភូមិទី ៤ សង្កាត់៤ ក្រុងព្រះសីហនុ ខេត្តព្រះសីហនុ,ព្រះសីហនុ,016 565 648,,sihanoukvilleinfo@bbu.edu.kh,,,"មហាវិទ្យាល័យសេដ្ឋកិច្ច និង
វិទ្យាសាស្រ្តកសិកម្ម",សេដ្ឋកិច្ច
,,,,,,,,,,,សេដ្ឋកិច្ច​និងហិរញ្ញវត្ថុ
,,,,,,,,,,,គ្រប់គ្រងគម្រោងនិងអភិវឌ្ឍន៍ជនបទ
,,,,,,,,,,,កសិកម្ម
,,,,,,,,,,,ផលិតកម្មកសិកម្មនិងទីផ្សារ
,,,,,,,,,,,គ្រប់គ្រងគម្រោងនិងអភិវឌ្ឍន៍ជនបទ
,,,,,,,,,,"មហាវិទ្យាល័យវិទ្យាសាស្រ្ត និង
បច្ចេកវិទ្យា",វិទ្យាសាស្រ្តកុំព្យូទ័រ
,,,,,,,,,,,បច្ចេកវិទ្យាព័ត៌មាន
,,,,,,,,,,,ការអនុវត្តន៍កុំព្យូទ័រ
,,,,,,,,,,,បច្ចេកវិទ្យាបណ្ដាញកុំព្យូទ័រ
,,,,,,,,,,"មហាវិទ្យាល័យសិល្បៈ មនុស្ស
សាស្រ្ត និងភាសា",ភាសាអង់គ្លេស
,,,,,,,,,,,បង្រៀនភាសាអង់គ្លេសជាភាសាបរទេស
,,,,,,,,,,,ភាសាអង់គ្លេសសម្រាប់ធុរកិច្ចអន្តរជាតិ
,,,,,,,,,,,ផែនការអប់រំ និងគ្រប់គ្រង
,,,,,,,,,,មហាវិទ្យាល័យគ្រប់គ្រងធុរកិច្ច,រដ្ឋបាលធុរកិច្ច
,,,,,,,,,,,គ្រប់គ្រង
,,,,,,,,,,,គណនេយ្យ និងហិរញ្ញវត្ថុ
,,,,,,,,,,,ធនាគារ និងហិរញ្ញវត្ថុ
,,,,,,,,,,,ទីផ្សារ
,,,,,,,,,,,ទេសចរណ៍និងបដិសណ្ឋារកិច្ច
,,,,,,,,,,"មហាវិទ្យាល័យទេសចរណ៍ និង
បដិសណ្ឋារកិច្ច",គ្រប់គ្រងសណ្ឋាគារ និងបដិសណ្ឋារកិច្ច
,,,,,,,,,,,គ្រប់គ្រងទេសចរណ៍
,,,,,,,,,,,គ្រប់គ្រងទេសចរណ៍ និងបដិសណ្ឋារកិច្ច
13,សាខាសាកលវិទ្យាល័យ គ្រប់គ្រង និង សេដ្ឋកិច្ច,management_economic,ភូមិមណ្ឌល ៣ សង្កាត់៤ ក្រុងព្រះសីហនុ ខេត្តព្រះសីហនុ,ព្រះសីហនុ,០៣៤ ៩៣៣ ៩០៩,,imechanthou@yahoo.com,,,"មហាវិទ្យាល័យគ្រប់គ្រង
ពាណិជ្ជកម្ម និងទេសចរណ៍",
,,,,,,,,,,"មហាវិទ្យាល័យសិល្បៈ មនុស្ស
សាស្រ្ត និងភាសាបរទេស",
,,,,,,,,,,"មហាវិទ្យាល័យនិតីសាស្រ្ត និង
សេដ្ឋកិច្ច",
,,,,,,,,,,"មហាវិទ្យាល័យវិទ្យាសាស្រ្ត
បច្ចេកវិទ្យា",
14,សាខាសាកលវិទ្យាល័យបៀលប្រាយ,bbu,ភូមិចំការសំរោង២ សង្កាត់ចំការសំរោង ក្រុងបាត់ដំបង ខេត្តបាត់ដំបង,បាត់ដំបង,"015 651 751;
053 393 975",,,www.bbu.edu.kh,,"មហាវិទ្យាល័យសេដ្ឋកិច្ច និង
វិទ្យាសាស្រ្តកសិកម្ម",សេដ្ឋកិច្ច
,,,,,,,,,,,សេដ្ឋកិច្ច និងហិរញ្ញវត្ថុ
,,,,,,,,,,,គ្រប់គ្រងគម្រោង និងអភិវឌ្ឍន៍ជនបទ
,,,,,,,,,,,កសិកម្ម
,,,,,,,,,,,ផលិតកម្មកសិកម្ម និងទីផ្សារ
,,,,,,,,,,"មហាវិទ្យាល័យវិទ្យាសាស្រ្ត និង
បច្ចេកវិទ្យា",វិទ្យាសាស្រ្តកុំព្យូទ័រ
,,,,,,,,,,,បច្ចេកវិទ្យាព័ត៌មាន
,,,,,,,,,,,ការអនុវត្តន៍កុំព្យូទ័រ
,,,,,,,,,,,បច្ចេកវិទ្យាបណ្ដាញកុំព្យូទ័រ
,,,,,,,,,,"មហាវិទ្យាល័យសិល្បៈ
មនុស្សសាស្រ្ត និងភាសា",ភាសាអង់គ្លេស
,,,,,,,,,,,បង្រៀនភាសាអង់គេ្លសជាភាសាបរទេស
,,,,,,,,,,,ភាសាអង់គ្លេសសម្រាប់ធុរកិច្ច
,,,,,,,,,,,ផែនការអប់រំ និងគ្រប់គ្រង
,,,,,,,,,,មហាវិទ្យាល័យគ្រប់គ្រងធុរកិច្ច,រដ្ឋបាលធុរកិច្ច(គ្រប់គ្រងធុរកិច្ច)
,,,,,,,,,,,គ្រប់គ្រង
,,,,,,,,,,,គណនេយ្យ និងហិរញ្ញវត្ថុ
,,,,,,,,,,,ធនាគារ និងហិរញ្ញវត្ថុ
,,,,,,,,,,,ទីផ្សារ
,,,,,,,,,,,ទេសចរណ៍ និងបដិសណ្ឋារកិច្ច
,,,,,,,,,,"មហាវិទ្យាល័យទេសចរណ៍ និង
បដិសណ្ឋារកិច្ច",គ្រប់គ្រងសណ្ឋាគារ និងបដិសណ្ឋារកិច្ច
,,,,,,,,,,,គ្រប់គ្រងទេសចរណ៍
,,,,,,,,,,,គ្រប់គ្រងទេសចរណ៍ និងបដិសណ្ឋារកិច្ច
15,សាខាសាកលវិទ្យាល័យបញ្ញាសាស្ត្រកម្ពុជា,puc,ផ្លូវលេខ ២០៧ ភូមិរំចេក ៤ សង្កាត់រតនៈ ក្រុងបាត់ដំបង ខេត្តបាត់ដំបង,បាត់ដំបង,០៥៣ ៦៣៨ ៨៨២០ ; ០៥៣ ៦៣៦ ៦៦២០,,infopucbb@puc.edu.kh,,,មហាវិទ្យាល័យអប់រំ,TESOL
,,,,,,,,,,មហាវិទ្យាល័យសិល្បៈ អក្សរសាស្រ្ត និងមនុស្សសាស្រ្ត,នរវិទ្យា
,,,,,,,,,,,ប្រវត្តិវិទ្យា
,,,,,,,,,,,ខេមរសិក្សា
,,,,,,,,,,,តូរ្យតន្រី្ត
,,,,,,,,,,,ភាសាអង់គ្លេសទំនាក់ទំនង
,,,,,,,,,,មហាវិទ្យាល័យពាណិជ្ជសាស្រ្ត និងសេដ្ឋកិច្ច,គណនេយ្យ
,,,,,,,,,,,គ្រប់គ្រងពាណិជ្ជកម្ម
,,,,,,,,,,,សេដ្ឋកិច្ច
,,,,,,,,,,,ធនាគារ និងហិរញ្ញវត្ថុ
,,,,,,,,,,,ប្រព័ន្ធព័ត៌មានវិទ្យាពាណិជ្ជកម្ម
,,,,,,,,,,"មហាវិទ្យាល័យគ្រប់គ្រងទេសចរណ៍ និងបដិសណ្ឋារកិច្ច និង
សហគ្រិនភាព",សហគ្រិនភាព
,,,,,,,,,,,ទីផ្សារ
,,,,,,,,,,,ជំនួញអន្តរជាិត
,,,,,,,,,,,គ្រប់គ្រងទេសចរណ៍ និងបដិសណ្ឋារកិច្ច
,,,,,,,,,,មហាវិទ្យាល័យគណិតវិទ្យា វិទ្យាសាស្រ្ត និងវិស្្វកម្ម,បរិស្ថាន
,,,,,,,,,,,វិទ្យាសាស្រ្តកុំព្យូទ័រ
,,,,,,,,,,មហាវិទ្យាល័យនិតិសាស្រ្ត និងកិច្ចការសាធារណៈ ,ច្បាប់
16,សាខាសាកលវិទ្យាល័យឯកទេសនៃកម្ពុជា,cambodia_specialty,ផ្លូវលេខ ២០៧ ភូមិរំចេក ៤ សង្កាត់រតនៈ ក្រុងបាត់ដំបង ខេត្តបាត់ដំបង,បាត់ដំបង,012 44 27 28,,info@cus.edu.kh,,,មហាវិទ្យាល័យសិល្បៈ មនុស្សសាស្រ្ត និងភាសា,អក្សរសាស្រ្តអង់គ្លេស
,,,,,,,,,,,ប្រវត្តិវិទ្យា
,,,,,,,,,,,ចិត្ត-គរុកោសល្យ
,,,,,,,,,,,ភូមិវិទ្យា
,,,,,,,,,,,អក្សរសាស្រ្តខ្មែរ
,,,,,,,,,,មហាវិទ្យាល័យវិទ្យាសាស្រ្ត និងបច្ចេកទេស,វិទ្យាសាស្រ្តកុំព្យូទ័រ
,,,,,,,,,,,គីមីវិទ្យា
,,,,,,,,,,,ជីវវិទ្យា
,,,,,,,,,,,គ្រប់ក្រងប្រព័ន្ធព័ត៌មានវិទ្យា
,,,,,,,,,,,គណិតវិទ្យា
,,,,,,,,,,,រូបវិទ្យា
,,,,,,,,,,,គ្រប់គ្រងសិ្ថតិអនុវត្តន៏
,,,,,,,,,,,បច្ចេកវិទ្យាព័ត៌មានវិទ្យា
,,,,,,,,,,មហាវិទ្យាល័យគ្រប់គ្រង ពាណិជ្ជកម្ម និងសេដ្ឋកិច្ច,គ្រប់គ្រង
,,,,,,,,,,,គណនេយ្យ
,,,,,,,,,,,ហរិញ្ញវត្ថុ និងធនាគារ
,,,,,,,,,,,ម៉ាឃីតធីង(ទីផ្សារ)
,,,,,,,,,,,សេដ្ឋកិច្ចអភិវឌ្ឍន៏
,,,,,,,,,,,គ្រប់គ្រងសណ្ឋាគារ និងទេសចរណ៏
,,,,,,,,,,,គ្រប់គ្រងការផ្សាយពាណិជ្ជកម្ម
,,,,,,,,,,,គ្រប់គ្រងពាណិជ្ជកម្មអន្ដរជាតិ
,,,,,,,,,,,គ្រប់គ្រងអចលនវត្ថុ និងដីធ្លី
17,សាខាសាកលវិទ្យាល័យចេនឡា,chenla,ផ្លូវលេខ ២០៧ ភូមិរំចេក ៤ សង្កាត់រតនៈ ក្រុងបាត់ដំបង ខេត្តបាត់ដំបង,បាត់ដំបង,០៨៩ ៧៥២ ២៧២,,,,,,
,,,,,,,,,,,គិលានុបដ្ឋាន
,,,,,,,,,,,ឆ្មប
,,,,,,,,,,,បច្ចេកទេសមន្ទីរពិសោនធ៍
18,សាខាសាកលវិទ្យាល័យបៀលប្រាយ,bbu,ភូមិ១ សង្កាត់រការក្នុង ក្រុងដូនកែវ ខេត្តតាកែវ,តាកែវ,០៣២ ៩៣១ ០៣១ ; ០១២ ៦៦០ ៨២៨,,,,,"មហាវិទ្យាល័យសេដ្ឋកិច្ច និង
វិទ្យាសាស្រ្តកសិកម្ម",សេដ្ឋកិច្ច
,,,,,,,,,,,សេដ្ឋកិច្ចនិងហិរញ្ញវត្ថុ
,,,,,,,,,,,គ្រប់គ្រងគម្រោងនិងអភិវឌ្ឍន៍ជនបទ
,,,,,,,,,,,កសិកម្ម
,,,,,,,,,,,ផលិតកម្មកសិកម្មនិងទីផ្សារ
,,,,,,,,,,"មហាវិទ្យាល័យវិទ្យាសាស្រ្ត និង
បច្ចេកវិទ្យា",វិទ្យាសាស្រ្តកុំព្យូទ័រ
,,,,,,,,,,,បច្ចេកវិទ្យាព័ត៌មាន
,,,,,,,,,,,ការអនុវត្តន៍ក្នុងកុំព្យូទ័រ
,,,,,,,,,,,បច្ចេកវិទ្យាបណ្ដាញកុំព្យូទ័រ
,,,,,,,,,,"មហាវិទ្យាល័យសិល្បៈមនុស្ស
សាស្រ្ត និងភាសា",ភាសាអង់គេ្លស
,,,,,,,,,,,បង្រៀនភាសាអង់គ្លេសជាភាសាបរទេស
,,,,,,,,,,,ភាសាអង់គេ្លសសម្រាប់ធុរកិច្ចអន្តរជាតិ
,,,,,,,,,,,ផែនការអប់រំ និងគ្រប់គ្រង
,,,,,,,,,,មហាវិទ្យាល័យគ្រប់គ្រងធុរកិច្ច,រដ្ឋបាលធុរកិច្ច(គ្រប់គ្រងធុរកិច្ច)
,,,,,,,,,,,គ្រប់គ្រង
,,,,,,,,,,,គណនេយ្យ និងហិរញ្ញវត្ថុ
,,,,,,,,,,,ធនាគារនិងហិរញ្ញវត្ថុ
,,,,,,,,,,,ទីផ្សារ
,,,,,,,,,,,ទេសចរណ៍ និងបដិសណ្ឋារកិច្ច
,,,,,,,,,,"មហាវិោទ្យាល័យទេសចរណ៍ និង
បដិសណ្ឋារកិច្ច",គ្រប់គ្រងសណ្ឋាគារនិងបដិសណ្ឋារកិច្ច
,,,,,,,,,,,គ្រប់គ្រងទេសចរណ៍
,,,,,,,,,,,គ្រប់គ្រងទេសចរណ៍និងបដិសណ្ឋារកិច្ច
19,សាខាសាកលវិទ្យាល័យអង្គរខេមរា,angkor_khemara,អគារលេខ ២០ ផ្លូវ ២២ សង្កាត់រការក្នុង ក្រុងដូនកែវ ខេត្តតាកែវ,តាកែវ,០៣២ ៦៩០ ០១៤៣ ; ០៣២ ៦៩៩ ៩៩៥១;  ០៩៧ ៧៧៧ ៩៣៩៦,,angkorkhemara_tk@yahoo.com,,,"មហាវិទ្យាល័យ វិទ្យាសាស្រ្ត
សង្គម",សង្គមវិទ្យា
,,,,,,,,,,,កិច្ចការសង្គម​
,,,,,,,,,,,ចិត្តវិទ្យា
,,,,,,,,,,,វិទ្យាសាស្រ្តនយោបាយ
,,,,,,,,,,,សេដ្ឋកិច្ច
,,,,,,,,,,,គ្រប់គ្រងទូទៅ
,,,,,,,,,,,ភូមិវិទ្យា
,,,,,,,,,,,នីតិសាធារណៈ
,,,,,,,,,,,នីតឯកជន
,,,,,,,,,,,គណនេយ្យ និងហរិញ្ញវត្ថុ
,,,,,,,,,,,ធនាគារ​ និងហរិញ្ញវត្ថុ
,,,,,,,,,,,រដ្ឋបាលពាណិជ្ជកម្ម
,,,,,,,,,,,ទីផ្សារ និងការលក់
,,,,,,,,,,,គ្រប់គ្រងទេសចរណ៍
,,,,,,,,,,"មហាវិទ្យាល័យ វិទ្យាសាស្រ្ត
អប់រំ",គ្រប់គ្រងអប់រំ
,,,,,,,,,,,គរុកោសល្យសង្គម
,,,,,,,,,,,គណិតវិទ្យា
,,,,,,,,,,,រូបវិទ្យា
,,,,,,,,,,,គីមីវិទ្យា
,,,,,,,,,,,ជីវវិទ្យា
,,,,,,,,,,,ភូមិវិទ្យា
,,,,,,,,,,,ប្រវតិ្តវិទ្យា
,,,,,,,,,,,ទស្សនវិជ្ជា
,,,,,,,,,,,អក្សរសាស្រ្តខ្មែរ
,,,,,,,,,,,ភាសាអង់គ្លេស
,,,,,,,,,,"មហាវិទ្យាល័យ សិល្បៈមនុស្ស
សាស្រ្ត និងភាសា",ប្រវតិ្តវិទ្យា
,,,,,,,,,,,ទស្សនវិជ្ជា
,,,,,,,,,,,អក្សរសាស្រ្តខ្មែរ
,,,,,,,,,,,ភាសាអង់គ្លេស
,,,,,,,,,,"មហាវិទ្យាល័យ គណិតសាស្រ្ត
និងវិទ្យាសាស្រ្ត",គណិតវិទ្យា
,,,,,,,,,,,រូបវិទ្យា
,,,,,,,,,,,គីមីវិទ្យា
,,,,,,,,,,,ជីវវិទ្យា
,,,,,,,,,,,វិទ្យាសាស្រ្តកុំព្យូទ័រ
,,,,,,,,,,,អគ្គីសនី
,,,,,,,,,,"មហាវិទ្យាល័យ វិទ្យាសាស្រ្ត
កសិកម្ម និងអភិវឌ្ឍន៍ជនបទ",វិទ្យាសាស្រ្តកសិកម្ម
,,,,,,,,,,,សេដ្ឋកិច្ចកសិកម្ម
,,,,,,,,,,,អភិវឌ្ឍន៍ជនបទ
20,សាខាសាកលវិទ្យាល័យបៀលប្រាយ,bbu,ភូមិទេសអន្លង់ សង្កាត់បឹងកន្សែង ក្រុងឡាបានសៀក ខេត្តរតនគិរី,រតនគិរី,០៧៥ ៩៧៤ ០៦៤,,,,,"មហាវិទ្យាល័យទេសចរណ៍ និង
បដិសណ្ឋារកិច្ច",គ្រប់គ្រងសណ្ឋាគារ និងបដិសណ្ឋារកិច្ច
,,,,,,,,,,,គ្រប់គ្រងទេសចរណ៍
,,,,,,,,,,,គ្រប់គ្រងទេសចរណ៍ និងបដិសណ្ឋារកិច្ច
,,,,,,,,,,មហាវិទ្យាល័យគ្រប់គ្រងធុរកិច្ច,រដ្ឋបាលធុរកិច្ច(គ្រប់គ្រងធុរកិច្ច)
,,,,,,,,,,,គ្រប់គ្រង
,,,,,,,,,,,គណនេយ្យ និងហរិញ្ញវត្ថុ
,,,,,,,,,,,ធនាគារ​ និងហរិញ្ញវត្ថុ
,,,,,,,,,,,ទីផ្សារ
,,,,,,,,,,,ទេសចរណ៍ និងបដិសណ្ឋារកិច្ច
,,,,,,,,,,"មហាវិទ្យាល័យសិល្បៈ
មនុស្សសាស្រ្ត និងភាសា",ភាសាអង់គ្លេស
,,,,,,,,,,,បង្រៀនភាសាអង់គ្លេសជាភាសាបរទេស
,,,,,,,,,,,ភាសាអង់គ្លេសសម្រាប់ធុរកិច្ចអន្តរជាតិ
,,,,,,,,,,,ផែនការអប់រំ និងគ្រប់គ្រង
,,,,,,,,,,"មហាវិទ្យាល័យវិទ្យាសាស្រ្ត និង
បច្ចេកវិទ្យា",វិទ្យាសាស្រ្តកុំព្យូទ័រ
,,,,,,,,,,,បច្ចេកវិទ្យាព័ត៌មាន
,,,,,,,,,,,ការអនុវត្តន៍កុំព្យូទ័រ
,,,,,,,,,,,បច្ចេកវិទ្យាបណ្ដាញកុំព្យូទ័រ
,,,,,,,,,,"មហាវិទ្យាល័យសេដ្ឋកិច្ច និង
កសិកម្ម",សេដ្ឋកិច្ច
,,,,,,,,,,,សេដ្ឋកិច្ច និងហិរញ្ញវត្ថុ
,,,,,,,,,,,គ្រប់គ្រងគម្រោង និងអភិវឌ្ឍន៍ជនបទ
,,,,,,,,,,,កសិកម្ម
,,,,,,,,,,,ផលិតកម្មកសិកម្ម និងទីផ្សារ
21,សាខាសាកលវិទ្យាល័យបៀលប្រាយ,bbu,ភូមិអូរអំបិល សង្កាត់អូរអំបិល ក្រុងសេរីសោភណ្ឌ ខេត្តបន្ទាយមានជ័យ,បន្ទាយមានជ័យ,"054 958 300;
054 710 505
092 2222 12;
098 6666 99",,banteaymeancheyinfo@bbu.edu.kh,,,មហាវិទ្យាល័យ សេដ្ឋកិច្ច,
,,,,,,,,,,មហាវិទ្យាល័យ គ្រប់គ្រងធុរកិច្ច,
,,,,,,,,,,មហាវិទ្យាល័យទេសចរណ៍ និងបដិសណ្ឋារកិច្ច,
,,,,,,,,,,មហាវិទ្យាល័យនិតិសាស្រ្ត និងវិទ្យាសាស្រ្តសង្គម​,
,,,,,,,,,,មហាវិទ្យាល័យវិទ្យាសាស្រ្ត និងបច្ចេកវិទ្យា,
,,,,,,,,,,មហាវិទ្យាល័យវិស្វកម្ម និងស្ថាបត្យកម្ម,
,,,,,,,,,,មហាវិទ្យាល័យអប់រំភាសា​,
22,សាខាសាកលវិទ្យាល័យឯកទេសនៃកម្ពុជា,cambodia_specialty,អគារលេខ ៧៣ ភូមិសុភី សង្កាត់កំពង់ស្វាយ ក្រុងសេរីសោភណ្ឌ ខេត្តបន្ទាយមានជ័យ,បន្ទាយមានជ័យ,០១២ ២៩១ ១៤០,,,,,មហាវិទ្យាល័យសិល្បៈ មនុស្សសាស្រ្ត និងភាសា,អក្សរសាស្រ្តអង់គ្លេស
,,,,,,,,,,,ប្រវត្តិវិទ្យា
,,,,,,,,,,,ចិត្ត-គរុកោសល្យ
,,,,,,,,,,,ភូមិវិទ្យា
,,,,,,,,,,,អក្សរសាស្រ្តខ្មែរ
,,,,,,,,,,មហាវិទ្យាល័យវិទ្យាសាស្រ្ត និងបច្ចេកទេស,វិទ្យាសាស្រ្តកុំព្យូទ័រ
,,,,,,,,,,,គីមីវិទ្យា
,,,,,,,,,,,ជីវវិទ្យា
,,,,,,,,,,,គណិតវិទ្យា
,,,,,,,,,,,រូបវិទ្យា
,,,,,,,,,,មហាវិទ្យាល័យគ្រប់គ្រង ពាណិជ្ជកម្ម និងសេដ្ឋកិច្ច,គ្រប់គ្រង
,,,,,,,,,,,គណនេយ្យ
,,,,,,,,,,,ហរិញ្ញវត្ថុ និងធនាគារ
,,,,,,,,,,,ម៉ាឃីតធីង(ទីផ្សារ)
,,,,,,,,,,,គ្រប់គ្រងសណ្ឋាគារ និងទេសចរណ៏
,,,,,,,,,,,គ្រប់គ្រងការផ្សាយពាណិជ្ជកម្ម
23,សាខាសាកលវិទ្យាល័យ គ្រប់គ្រង និង សេដ្ឋកិច្ច,management_economic,ផ្លូវជាតិលេខ ៦៥ អា ភូមិខ្លាកូនចាស់ សង្កាត់កំពង់ស្វាយ ក្រុងសេរីសោភណ្ឌ ខេត្តបន្ទាយមានជ័យ,បន្ទាយមានជ័យ,០៥៤ ៦៦៦ ៦៦៦៩ ; ០១២ ៩១១ ៩៨៨ ;          ០១៦ ៩១១ ៩៨៨,,ume_bmc@yahoo.com,,,គ្រប់គ្រងពាណិជ្ជកម្ម និងទេសចរណ៍,គណនេយ្យ
,,,,,,,,,,,គ្រប់គ្រង
,,,,,,,,,,,ធនាគារ
,,,,,,,,,,,ទីផ្សារ
,,,,,,,,,,សិល្បៈមនុស្សសាស្រ្ត និងភាសាបរទេស,ការបង្រៀន
,,,,,,,,,,,ការបកប្រែ
,,,,,,,,,,វិទ្យាសាស្រ្ត និងបច្ចេកវិទ្យា,សរសេរកម្មវិធីនិងរចនាគេហទំព័រ
,,,,,,,,,,,បណ្តាញណិតវើក
,,,,,,,,,,,"គ្រប់គ្រងប្រព័ន្ធ
ព័ត៌មានវិទ្យា
"
,,,,,,,,,,នីតិសាស្រ្ត និងសេដ្ឋកិច្ច,នីតិសាស្រ្ត
,,,,,,,,,,,សេដ្ឋកិច្ច
,,,,,,,,,,កសិកម្ម និងអភិវឌ្ឍន៍ជនបទ,ក្សេត្យសាស្រ្ត
,,,,,,,,,,,រុក្ខកម្ម
,,,,,,,,,,,ជលផល
,,,,,,,,,,,ស្ថាបត្យកម្ម
24,សាខាសាកលវិទ្យាល័យបៀលប្រាយ,bbu,ភូមិថ្មលាត សង្កាត់ស្រែឫស្សី ក្រុងស្ទឹងត្រែង ខេត្តស្ទឹងត្រែង,ស្ទឹងត្រែង,០៧៤ ៩៧៣ ៦៦៣,,,,,"មហាវិទ្យាល័យគ្រប់គ្រងធុរកិច្ច
",រដ្ឋបាលធុរកិច្ច(គ្រប់គ្រងធុរកិច្ច)
,,,,,,,,,,,គ្រប់គ្រង
,,,,,,,,,,,គណនេយ្យ និងហរិញ្ញវត្ថុ
,,,,,,,,,,,ធនាគារ និងហរិញ្ញវត្ថុ
,,,,,,,,,,,ទីផ្សារ
,,,,,,,,,,,ទេសចរណ៍ និងបដិសណ្ឋារកិច្ច
,,,,,,,,,,មហាវិទ្យាល័យទេសចរណ៍ និងបដិសណ្ឋារកិច្ច,គ្រប់គ្រងសណ្ឋាគារ និងបដិសណ្ឋារកិច្ច
,,,,,,,,,,,គ្រប់គ្រងទេសចរណ៍
,,,,,,,,,,,គ្រប់គ្រងទេសចរណ៍ និងបដិសណ្ឋារកិច្ច
,,,,,,,,,,មហាវិទ្យាល័យសេដ្ឋកិច្ច និងវិទ្យាសាស្រ្តកសិកម្ម,សេដ្ឋកិច្ច
,,,,,,,,,,,សេដ្ឋកិច្ច និងហិរញ្ញវត្ថុ
,,,,,,,,,,,គ្រប់គ្រងគម្រោងនិងអភិវឌ្ឍន៍ជនបទ
,,,,,,,,,,,កសិកម្ម
,,,,,,,,,,,ផលិតកម្មកសិកម្មនិងទីផ្សារ
,,,,,,,,,,មហាវិទ្យាល័យវិទ្យាសាស្រ្ត និងបច្ចេកវិទ្យា,វិទ្យាសាស្រ្តកុំព្យូទ័រ
,,,,,,,,,,,បច្ចេកវិទ្យាព័ត៌មាន
,,,,,,,,,,,ការអនុវត្តន៍កុំព្យូទ័រ
,,,,,,,,,,,បច្ចេកវិទ្យាបណ្ដាញកុំព្យូទ័រ
,,,,,,,,,,មហាវិទ្យាល័យសិល្បៈ មនុស្សសាស្រ្ត និងភាសា,ភាសាអង់ក្លេស
,,,,,,,,,,,បង្រៀនភាសាអង់គ្លេសជាភាសាបរទេស
,,,,,,,,,,,ភាសាអង់ក្លេសសម្រាប់ធុរកិច្ចអន្តរជាតិ
,,,,,,,,,,,ផែនការអប់រំ និងគ្រប់គ្រង
25,សាខាសាកលវិទ្យាល័យឯកទេសនៃកម្ពុជា,cambodia_specialty,អគារលេខ២១ ភូមិយោសូភី សង្កាត់កំពតកណ្តាល ក្រុងកំពត  ខេត្តកំពត,កំពត,០១២ ៧៦៩ ២២០,,,,,មហាវិទ្យាល័យសិល្បៈ មនុស្សសាស្រ្ត និងភាសា,អក្សរសាស្រ្តអង់គ្លេស
,,,,,,,,,,,ប្រវត្តិវិទ្យា
,,,,,,,,,,,ចិត្ត-គរុកោសល្យ
,,,,,,,,,,,ភូមិវិទ្យា
,,,,,,,,,,,អក្សរសាស្រ្តខ្មែរ
,,,,,,,,,,មហាវិទ្យាល័យវិទ្យាសាស្រ្ត និងបច្ចេកទេស,វិទ្យាសាស្រ្តកុំព្យូទ័រ
,,,,,,,,,,,គីមីវិទ្យា
,,,,,,,,,,,ជីវវិទ្យា
,,,,,,,,,,,គណិតវិទ្យា
,,,,,,,,,,,រូបវិទ្យា
,,,,,,,,,,មហាវិទ្យាល័យគ្រប់គ្រង ពាណិជ្ជកម្ម និងសេដ្ឋកិច្ច,គ្រប់គ្រង
,,,,,,,,,,,គណនេយ្យ
,,,,,,,,,,,ហរិញ្ញវត្ថុ និងធនាគារ
,,,,,,,,,,,ម៉ាឃីតធីង(ទីផ្សារ)
,,,,,,,,,,,គ្រប់គ្រងសណ្ឋាគារ និងទេសចរណ៏
,,,,,,,,,,,គ្រប់គ្រងការផ្សាយពាណិជ្ជកម្ម
26,សាខាសកលវិទ្យាល័យគ្រប់គ្រងនិងសេដ្ឋកិច្ច,management_economic,អគារលេខ៤៧ ភូមិសុវណ្ណសាគរ សង្កាត់កំពង់កណ្តាល ក្រុងកំពត ខេត្តកំពត,កំពត,០៣៣ ៦៦៦ ៦១៩២,,umekpt@gmail.com,,,,គ្រប់គ្រង
,,,,,,,,,,,គ្រប់គ្រងទេសចរណ៍
,,,,,,,,,,,គណនេយ្យ
,,,,,,,,,,,ធនាគារ និងហរិញ្ញវត្ថុ
,,,,,,,,,,,ទីផ្សារ(ម៉ាឃីតធីង)
,,,,,,,,,,,ច្បាប់
,,,,,,,,,,,សេដ្ឋកិច្ច
,,,,,,,,,,,អភិវឌ្ឍន៍សហគមន៍
,,,,,,,,,,,អក្សរសាស្រ្តខ្មែរ
,,,,,,,,,,,ភាសាអង់ក្លេស
,,,,,,,,,,,គណិតវិទ្យា
,,,,,,,,,,,វិទ្យាសាស្រ្តកុំព្យូទ័រ
27,សាខាសកលវិទ្យាល័យឯកទេសនៃកម្ពុជា,cambodia_specialty,ភូមិបាល្ល័ង្គលិច សង្កាត់ដំរីជាន់ខ្លា ក្រុងស្ទឹងសែន ខេត្តកំពង់ធំ,កំពង់ធំ,០១២ ៨៥៤ ៣៤២,,,,,,គ្រប់គ្រង
,,,,,,,,,,,គ្រប់គ្រងពាណិជ្ជកម្ម
,,,,,,,,,,,គណនេយ្យ
,,,,,,,,,,,ហរិញ្ញវត្ថុ និងធនាគារ
,,,,,,,,,,,ំម៉ាឃីតធីង
,,,,,,,,,,,គ្រប់គ្រងទេសចរណ៍ សណ្ឋាគារ
,,,,,,,,,,,សេដ្ឋកិច្ច
,,,,,,,,,,,នីតិសាស្រ្ត និងវិទ្យាសាស្រ្តនយោបាយ
,,,,,,,,,,,រដ្ឋបាលសាធារណៈ
,,,,,,,,,,,អក្សរសាស្រ្តអង់គ្លេស
,,,,,,,,,,,វិស្វកម្មសំណង់ស៊ីវិល
,,,,,,,,,,,អគ្គីសនី
,,,,,,,,,,,វិទ្យាសាស្រ្តកុំព្យូទ័រ
,,,,,,,,,,,វិទ្យាសាស្រ្តអប់រំ
,,,,,,,,,,,គណិតវិទ្យា
,,,,,,,,,,,អក្សរសាស្រ្តខ្មែរ
,,,,,,,,,,,ជីវៈវិទ្យា
28,សាខាសាកលវិទ្យាល័យគ្រប់គ្រង និងសេដ្ឋកិច្ច ,management_economic,ភូមិរ៉ា សង្កាត់ផ្ទះព្រៃ ក្រុងពោធន៍សាត់ ខេត្តពោធិ៍សាត់ ,ពោធិ៍សាត់,០១២ ៥២០ ០០៦,,mensethy@camintel.com,,,គ្រប់គ្រងពាណិជ្ជកម្ម និងទេសចរណ៍,គណនេយ្យ
,,,,,,,,,,,គ្រប់គ្រង
,,,,,,,,,,,ធនាគារ
,,,,,,,,,,,ទីផ្សារ(ម៉ាឃីតធីង)
,,,,,,,,,,សិល្បៈមនុស្សសាស្រ្ត និងភាសាបរទេស,ការបង្រៀន
,,,,,,,,,,,ការបកប្រែ
,,,,,,,,,,វិទ្យាសាស្រ្ត និងបច្ចេកវិទ្យា,សរសេរកម្មវិធីនិងរចនាគេហទំព័រ
,,,,,,,,,,,បណ្តាញណិតវើក
,,,,,,,,,,,គ្រប់គ្រងប្រព័ន្ធព័ត៌មានវិទ្យា
,,,,,,,,,,នីតិសាស្រ្ត និងសេដ្ឋកិច្ច,នីតិសាស្រ្ត
,,,,,,,,,,,សេដ្ឋកិច្ច
,,,,,,,,,,កសិកម្ម និងអភិវឌ្ឍន៍ជនបទ,ក្សេត្យសាស្រ្ត
,,,,,,,,,,,រុក្ខកម្ម
,,,,,,,,,,,ជលផល
,,,,,,,,,,,ស្ថាបត្យកម្ម
29,សាខាសាកលវិទ្យាល័យអង្គរខេមរា,angkor_khemara,អគារលេខD1-D5 ភូមិពាលញែក សង្កាត់ផ្ទះព្រៃ ក្រុងពោធិ៍សាត់ ខេត្តពោធិ៍សាត់ ,ពោធិ៍សាត់,០៣២ ៦៩០ ០១៤៣; ០៣២ ៦៩៩ ៩៩៥១ ;           ០៩៧ ៧៧៧ ៩៣៩៦,,angkorkhemara_pe@yahoo.com,,,មហាវិទ្យាល័យ វិទ្យាសាស្រ្តសង្គម,សង្គមវិទ្យា
,,,,,,,,,,,កិច្ចការសង្គម
,,,,,,,,,,,ចិត្តវិទ្យា
,,,,,,,,,,,វិទ្យាសាស្រ្តនយោបាយ
,,,,,,,,,,,សេដ្ឋកិច្ច
,,,,,,,,,,,គ្រប់គ្រងទូទៅ
,,,,,,,,,,,ភូមិវិទ្យា
,,,,,,,,,,,នីតិសាធារណៈ
,,,,,,,,,,,នីតិឯកជន
,,,,,,,,,,,គណនេយ្យ និងហរិញ្ញវត្ថុ
,,,,,,,,,,,ធនាគារ និងហរិញ្ញវត្ថុ
,,,,,,,,,,,រដ្ឋបាលពាណិជ្ជកម្ម
,,,,,,,,,,,ទីផ្សារ និងការលក់
,,,,,,,,,,,គ្រប់គ្រងទេសចរណ៍
,,,,,,,,,,មហាវិទ្យាល័យវិទ្យាសាស្រ្តអប់រំ,គ្រប់គ្រងអប់រំ
,,,,,,,,,,,គរុកោសល្យសង្គម
,,,,,,,,,,,គណិតវិទ្យា
,,,,,,,,,,,រូបវិទ្យា
,,,,,,,,,,,គីមីវិទ្យា
,,,,,,,,,,,ជីវវិទ្យា
,,,,,,,,,,,ភូមិវិទ្យា
,,,,,,,,,,,ប្រវត្តិវិទ្យា
,,,,,,,,,,,ទស្សនវិជ្ជា
,,,,,,,,,,,អក្សរសាស្រ្តខ្មែរ
,,,,,,,,,,,ភាសាអង់គ្លេស
,,,,,,,,,,មហាវិទ្យាល័យ គណិតសាស្រ្ត និងវិទ្យាសាស្រ្ត,គណិតវិទ្យា
,,,,,,,,,,,រូបវិទ្យា
,,,,,,,,,,,គីមីវិទ្យា
,,,,,,,,,,,ជីវវិទ្យា
,,,,,,,,,,,វិទ្យាសាស្រ្តកុំព្យូទ័រ
,,,,,,,,,,,អគី្គសនី
,,,,,,,,,,មហាវិទ្យាល័យវិទ្យាសាស្រ្ត កសិកម្ម និងអភិវឌ្ឍន៍ជនបទ,វិទ្យាសាស្រ្តកសិកម្ម
,,,,,,,,,,,សេដ្ឋកិច្ចកសិកម្ម
,,,,,,,,,,,អភិវឌ្ឍន៍ជនបទ
30,សាខាសាលកវិទ្យាល័យអង្គរខេមរា,angkor_khemara,ភូមិត្រពាំងលើក សង្កាត់រកាធំ ក្រុងច្បារមន ខេត្តកំពង់ស្ពឺ ,កំពង់ស្ពឺ,០៩២ ២៥០ ០៧២ ;    ០១៥ ៧៨៨ ៦៨៦,,aku_ksp@yshoo.com,,,មហាវិទ្យាល័យ វិទ្យាសាស្រ្តសង្គម,សង្គមវិទ្យា
,,,,,,,,,,,កិច្ចការសង្គម
,,,,,,,,,,,ចិត្តវិទ្យា
,,,,,,,,,,,វិទ្យាសាស្រ្តនយោបាយ
,,,,,,,,,,,សេដ្ឋកិច្ច
,,,,,,,,,,,គ្រប់គ្រងទូទៅ
,,,,,,,,,,,ភូមិវិទ្យា
,,,,,,,,,,,នីតិសាធារណៈ
,,,,,,,,,,,នីតិឯកជន
,,,,,,,,,,,គណនេយ្យ និងហរិញ្ញវត្ថុ
,,,,,,,,,,,ធនាគារ និងហរិញ្ញវិត្ថុ
,,,,,,,,,,,រដ្ឋបាលពាណិជ្ជកម្ម
,,,,,,,,,,,ទីផ្សារ និងការលក់
,,,,,,,,,,,គ្រប់គ្រងទេសចរណ៍
,,,,,,,,,,មហាវិទ្យាល័យ វិទ្យាសាស្រ្តអប់រំ,គ្រប់គ្រងអប់រំ
,,,,,,,,,,,គរុកោសល្យសង្គម
,,,,,,,,,,,គណិតវិទ្យា
,,,,,,,,,,,រូបវិទ្យា
,,,,,,,,,,,គីមីវិទ្យា
,,,,,,,,,,,ជីវវិទ្យា
,,,,,,,,,,,ភូមិវិទ្យា
,,,,,,,,,,,ប្រវត្តិវិទ្យា
,,,,,,,,,,,ទស្សនវិជ្ជា
,,,,,,,,,,,អក្សរសាស្រ្តខ្មែរ
,,,,,,,,,,,ភាសាអង់គ្លេស
,,,,,,,,,,មហាវិទ្យាសាស្រ្ត សិល្បៈ មនុស្យសាស្រ្ត និងភាសា,ប្រវត្តិវិទ្យា
,,,,,,,,,,,ទស្សនវិជ្ជា
,,,,,,,,,,,អក្សរសាស្រ្តខ្មែរ
,,,,,,,,,,,ភាសាអង់គ្លេស
,,,,,,,,,,មហាវិទ្យាល័យ គណិតសាស្រ្ត និងវិទ្យាសាស្រ្ត,គណិតវិទ្យា
,,,,,,,,,,,រូបវិទ្យា
,,,,,,,,,,,គីមីវិទ្យា
,,,,,,,,,,,ជីវវិទ្យា
,,,,,,,,,,,វិទ្យាសាស្រ្តកុំព្យូទ័រ
,,,,,,,,,,,អគ្គីសនី
,,,,,,,,,,មហាវិទ្យាល័យ វិទ្យាសាស្រ្ត និងអភិវឌ្ឍន៍ជនបទ,វិទ្យាសាស្រ្តកសិកម្ម
,,,,,,,,,,,សេដ្ឋកិច្ចកសិកម្ម
,,,,,,,,,,,អភិវឌ្ឍន៍ជនបទ
31,សាខាសាកលវិទ្យាល័យ គ្រប់គ្រង និងសេដ្ឋកិច្ច ,management_economic,ភូមិទី១ សង្កាត់ដងទង់ ក្រុងខេមរៈភូមិន្ទ ខេត្តកោះកុង ,កោះកុង,០៣៥ ៣០០ ០៦៣​; ០៩៣ ៨០៨ ៨៤៨,,ume_kk2012@yahoo.com; ralinchhum@yahoo.com,,,គ្រប់គ្រងពាណិជ្ជកម្ម និងទេសចរណ៍,គណនេយ្យ
,,,,,,,,,,,គ្រប់គ្រង
,,,,,,,,,,,ធនាគារ
,,,,,,,,,,,ទីផ្សារ
,,,,,,,,,,សិល្បៈមនុស្សសាស្រ្ត និងភាសាបរទេស,ការបង្រៀន
,,,,,,,,,,,ការបកប្រែ
,,,,,,,,,,វិទ្យាសាស្រ្ត និងបច្ចេកវិទ្យា,សរសេរកម្មវិធីនិងរចនាគេហទំព័រ
,,,,,,,,,,,បណ្តាញណិតវើក
,,,,,,,,,,,"គ្រប់គ្រងប្រព័ន្ធ
ព័ត៌មានវិទ្យា
"
,,,,,,,,,,នីតិសាស្រ្ត និងសេដ្ឋកិច្ច,នីតិសាស្រ្ត
,,,,,,,,,,,សេដ្ឋកិច្ច
,,,,,,,,,,កសិកម្ម និងអភិវឌ្ឍន៍ជនបទ,ក្សេត្យសាស្រ្ត
,,,,,,,,,,,រុក្ខកម្ម
,,,,,,,,,,,ជលផល
,,,,,,,,,,,ស្ថាបត្យកម្ម
32,សាខាសាកលវិទ្យាល័យ គ្រប់គ្រង និងសេដ្ឋកិច្ច ,management_economic,ភូមិស្រែស្បូវ សង្កាត់អូរឫស្សី ក្រុងក្រចេះ ខេត្តក្រចេះ,ក្រចេះ,០៧២ ៦៦៦០៧៧៧ ;​ ០៧៨ ៧៧៧ ៧៦៩,,ume_kratie@yahoo.com,,,គ្រប់គ្រងពាណិជ្ជកម្ម និងទេសចរណ៍,គណនេយ្យ
,,,,,,,,,,,គ្រប់គ្រង
,,,,,,,,,,,ធនាគារ
,,,,,,,,,,,ទីផ្សារ
,,,,,,,,,,សិល្បៈមនុស្សសាស្រ្ត និងភាសាបរទេស,ការបង្រៀន
,,,,,,,,,,,ការបកប្រែ
,,,,,,,,,,វិទ្យាសាស្រ្ត និងបច្ចេកវិទ្យា,សរសេរកម្មវិធីនិងរចនាគេហទំព័រ
,,,,,,,,,,,បណ្តាញណិតវើក
,,,,,,,,,,,"គ្រប់គ្រងប្រព័ន្ធ
ព័ត៌មានវិទ្យា
"
,,,,,,,,,,នីតិសាស្រ្ត និងសេដ្ឋកិច្ច,នីតិសាស្រ្ត
,,,,,,,,,,,សេដ្ឋកិច្ច
,,,,,,,,,,កសិកម្ម និងអភិវឌ្ឍន៍ជនបទ,ក្សេត្យសាស្រ្ត
,,,,,,,,,,,រុក្ខកម្ម
,,,,,,,,,,,ជលផល
,,,,,,,,,,,ស្ថាបត្យកម្ម
33,សាកលវិទ្យាល័យ ន័រតុន,norton,បណ្ដោយផ្លូវកែវចិន្តា ខណ្ឌជ្រោយចង្វារ រាជធានីភ្នំពេញ,រាជធានីភ្នំពេញ,០២៣​ ៩៨២ ១៦៦ ,០២៣ ២១១ ២៧៣,info@norton-u.com,www.norton-u.com,,១. មហាវិទ្យាល័យវិទ្យាសាស្ត្រសុខាភិបាល,វេជ្ជបណ្ឌិត
,,,,,,,,,,,ឱសថការី
,,,,,,,,,,,អ្នកបច្ចេកទេសមន្ទីរពិសោធន៍វេជ្ជសាស្ត្រ
,,,,,,,,,,,ទន្តបណ្ឌិត
,,,,,,,,,,,គិលានុបដា្ឋកឧត្តម
,,,,,,,,,,២.មហាវិទ្យាល័យសិល្បៈ មនុស្សសាស្ត្រ និងភាសា,ភាសាអង់គ្លេសសម្រាប់ទំនាក់ទំនង
,,,,,,,,,,,គ្រប់គ្រងការអប់រំនិងបង្រៀន
,,,,,,,,,,,ទំនាក់ទំនងអន្តរជាតិ
,,,,,,,,,,៣.មហាវិទ្យាល័យវិទ្យាសាស្ត្រ,វិទ្យាសាស្ត្រកុំព្យូទ័រ
,,,,,,,,,,,វិស្វកម្មបណ្ដាញកុំព្យូទ័រ និងសុវត្ថិភាព
,,,,,,,,,,,ស្ថាបត្យកម្ម និង នគរូបនីយកម្មវិទ្យា
,,,,,,,,,,,រចនាប្រព័ន្ឋផ្សព្វផ្សាយ និងគេហទំព័រ
,,,,,,,,,,,គ្រប់គ្រងព័ត៌មានវិទ្យា
,,,,,,,,,,,អភិវឌ្ឍន៍កម្មវិធី
,,,,,,,,,,,អគ្គិសនី និង អេឡិចត្រូនិច
,,,,,,,,,,,វិស្វកម្មសំណង់ស៊ីវិល
,,,,,,,,,,៤.មហាវិទ្យាវិទ្យាសាស្ត្រសង្គម,គណនេយ្យហិរញ្ញវត្ថុ
,,,,,,,,,,,សេដ្ឋកិច្ចអភិវឌ្ឍន៍
,,,,,,,,,,,រដ្ឋាភិបាល និង រដ្ឋបាលសាធារណៈ
,,,,,,,,,,,ទំនាក់ទំនងអន្តរជាតិនិងការទូត
,,,,,,,,,,,ម៉ាឃីធីង និង ស្លាកសញ្ញា
,,,,,,,,,,,ប្រាក់ចំនូលសារពើភ័ណ្ឌ និង ពន្ឋដារ
,,,,,,,,,,,គ្រប់គ្រងបដិសណ្ឋារកិច្ច និងទេសចរណ៍
,,,,,,,,,,,សវនកម្ម
,,,,,,,,,,,ធនាគារ នឹងហិរញ្ញវត្ថុ
,,,,,,,,,,,នីតិពាណីជ្ជកម្ម
,,,,,,,,,,,សិក្សាច្បាប់ និង យុត្តិធម៌
,,,,,,,,,,,គ្រប់គ្រង
,,,,,,,,,,,គ្រប់គ្រងធនធានមនុស្ស
34,សាកលវិទ្យាល័យមេគង្គកម្ពុជា,mekong,អាគារលេខ ៩បេ ផ្លូវលេខ ២៧១ សង្កាត់ទឹកថ្លា ខណ្ឌសែនសុខ រាជធានីភ្នំពេញ,រាជធានីភ្នំពេញ,០២៣ ៨៨២ ២១១; ០៩២ ២៩៧ ៧២២,០១២ ៨០៩ ១៩១,info@mekong.edu.kh,www.mekong.edu.kh,,១.មហាវិទ្យាល័យសេដ្ឋកិច្ច និងទេសចរណ៍,គ្រប់គ្រងអចលនទ្រព្យ
,,,,,,,,,,,គ្រប់គ្រងពាណិជ្ជកម្ម និងសហគ្រាស
,,,,,,,,,,២.មហាវិទ្យាល័យសេដ្ឋកិច្ច,អភិវឌ្ឍន៍ជនបទ
,,,,,,,,,,,វិភាគហិរញ្ញវត្ថុ និងការវិនិយោគ
,,,,,,,,,,៣.មហាវិទ្យាល័យមនុស្សសាស្ត្រ និងភាសាបរទេស,អប់រំភាសាអង់គ្លេស
,,,,,,,,,,,ភាសាជប៉ុន
,,,,,,,,,,៤.មហាវិទ្យាល័យ វិទ្យាសាស្ត្រ និងបច្ចេកវិទ្យា,វិស្វកម្មសំណង់ស៊ីវិល
,,,,,,,,,,,ស្ថាបត្យកម្ម និង នគរូបនីយកម្មវិទ្យា
,,,,,,,,,,,វិទ្យាសាស្ត្រផ្នែកអនុវត្តពាណិជ្ជកម្ម
,,,,,,,,,,៥.មហាវិទ្យាល័យវិទ្យាសាស្ត្រសង្គម,គ្រប់គ្រងអង្គភាព
,,,,,,,,,,,ទំនាក់ទំនងអន្តរជាតិ
,,,,,,,,,,,ទំនាក់ទំនងសាធារណៈ
,,,,,,,,,,,ភាពជាអ្នកដឹកនាំ
,,,,,,,,,,៦.មហាវិទ្យាល័យនីតិសាស្ត្រ,ច្បាប់ពាណិជ្ជកម្ម
35,សាកលវិទ្យាល័យ ប៊ែលធីអន្តរជាតិ,belty,អគារលេខ ២១ ផ្លូវលេខ ៣៦០ សង្កាត់បឹងកេងកង ខណ្ឌចំការមន ភ្នំពេញ,រាជធានីភ្នំពេញ,០៧៨ ៥៥៥ ៥០៧; ០២៣ ៩៦៧ ៧៧៧; ០២៣ ៩៧ ៩៩៩៩,,info@beltie.edu.kh,www.beltie.edu.com ; www.facebook.com/beltieuniversity,,១.មហាវិទ្យាល័យគ្រប់គ្រងពាណិជ្ជកម្ម,គ្រប់គ្រងទូទៅ
,,,,,,,,,,,គណនេយ្យ
,,,,,,,,,,,ទីផ្សារ
,,,,,,,,,,២.មហាវិទ្យាល័យអប់រំសិល្បៈ និង មនុស្សសាស្ត្រ,បង្រៀនភាសាអង់គ្លេស
,,,,,,,,,,,ភាសាអង់គ្លេសទំនាក់ទំនងទូទៅ
,,,,,,,,,,,បកប្រែភាសាអង់គ្លេស
,,,,,,,,,,៣.មហាវិទ្យាល័យនីតិសាស្ត្រ និង វិទ្យាសាស្ត្រសង្គម,អភិវឌ្ឍសេដ្ឋកិច្ច
,,,,,,,,,,,ហិរញ្ញវត្ថុ និង ធនាគារ
,,,,,,,,,,,ទំនាក់ទំនងអន្តរជាតិ
,,,,,,,,,,៤.មហាវិទ្យាល័យទេសចរណ៍ និង បដិសណ្ឋារកិច្ច,គ្រប់គ្រងទេសចរណ៍
,,,,,,,,,,,គ្រប់គ្រងសណ្ឋាគារ
,,,,,,,,,,,គ្រប់គ្រងបដិសណ្ឋារកិច្ច
,,,,,,,,,,៥. មហាវិទ្យាល័យវិស្វកម្ម និងស្ថាបត្យកម្ម,វិស្វកម្មសំណង់ស៊ីវិល
,,,,,,,,,,,គ្រប់គ្រងសំណង់
,,,,,,,,,,,ស្ថាបត្យកម្ម និង នគរូបនីយកម្មវិទ្យា
,,,,,,,,,,៦.​ មហាវិទ្យាល័យព័ត៌មានវិទ្យា និងវិទ្យាសាស្រ្ត,វិស្វកម្មសូហ្វវែ
,,,,,,,,,,,បណ្ដាញ និងកុំព្យូទ័រ
,,,,,,,,,,,រចនាពហុប្រព័ន្ឋផ្សព្វផ្សាយ
36,សាកលវិទ្យាល័យបញ្ញាសាស្ត្រកម្ពុជា,puc,ផ្លូវលេខ ១៤៤ -១៨៤មហាវិថីព្រះនរោត្តម សង្កាត់ទន្លេបាសាក់ ខណ្ឌចំការមន រាជធានីភ្នំពេញ,រាជធានីភ្នំពេញ,០១១ ៩១៧ ៩៣១; ០១២ ៩៩៩ ១៣៥,០២៣ ៩៩២ ៦៤៩,info@puc.edu.kh,www.puc.edu.kh,,១.មហាវិទ្យាល័យអប់រំ,TESOL
,,,,,,,,,,២.មហាវិទ្យាល័យសិល្បៈ អក្សរសាស្ត្រ មនុស្សសាស្ត្រ ,នរវិទូ
,,,,,,,,,,,ខេមរសិក្សា
,,,,,,,,,,,ប្រវត្តិវិទ្យា
,,,,,,,,,,,ការសម្ដែងតូរ្យតន្រ្តី
,,,,,,,,,,,ភាសាអង់គ្លេសទំនាក់ទំនង
,,,,,,,,,,៣.មហាវិទ្យាល័យពាណិជ្ជសាស្ត្រ និងសេដ្ឋកិច្ច,គណនេយ្យ
,,,,,,,,,,,សេដ្ឋកិច្ច
,,,,,,,,,,,គ្រប់គ្រងពាណីជ្ជកម្ម
,,,,,,,,,,,ធនាគារ នឹងហិរញ្ញវត្ថុ
,,,,,,,,,,,ប្រព័ន្ឋព័ត៌មានវិទ្យាពាណិជ្ជកម្ម
,,,,,,,,,,៤.មហាវិទ្យាល័យគ្រប់គ្រងទេសចរណ៍ និងបដិសណ្ឋារកិច្ច និង សហគ្រិនភាព,សហគ្រិនភាព
,,,,,,,,,,,ទីផ្សារ
,,,,,,,,,,,ជំនួញអន្តរជាតិ
,,,,,,,,,,,គ្រប់គ្រងទេសចរណ៍ និងបដិសណ្ឋារកិច្ច
,,,,,,,,,,៥.មហាវិទ្យាល័យគណិតវិទ្យាវិទ្យាសាស្ត្រ និង វិស្វកម្ម,បរិស្ថាន
,,,,,,,,,,,វិទ្យាសាស្ត្រកុំព្យូទ័រ
,,,,,,,,,,មហាវិទ្យាល័យនីតិសាស្ត្រ និងកិច្ចការសាធារណៈ,ច្បាប់
37,សាកលវិទ្យាល័យបៀលប្រាយ,bbu,អគារភ្នំពេញសេនធ័រ មហាវិថីសម្ដេចព្រះសុធារស សង្កាត់ទន្លេបាសាក់ ខណ្ឌចំការមន រាជធានីភ្នំពេញ,រាជធានីភ្នំពេញ,០២៣ ៩៨៧ ៧០០; ០១២ ៦៨២ ៧៧៧; ០១៥ ៦៨២ ៧៧៧,,info@bbu.edu.kh,www.bbu.edu.kh,,១.មហាវិទ្យាល័យទេសចរណ៍ និងបដិសណ្ឋារកិច្ច,គ្រប់គ្រងទេសចរណ៍
,,,,,,,,,,,គ្រប់គ្រងសេវាម្ហូបអាហារ
,,,,,,,,,,,គ្រប់គ្រងទេសចរណ៍ និង បដិសណ្ឋារកិច្ច
,,,,,,,,,,,គ្រប់គ្រងសណ្ឋាគារ និង បដិសណ្ឋារកិច្ច
,,,,,,,,,,,គ្រប់គ្រងបដិសណ្ឋារកិច្ច និងសេវាម្ហូបអាហារ
,,,,,,,,,,២.មហាវិទ្យាល័យវិទ្យាសាស្ត្រសេដ្ឋកិច្ច និងកសិកម្ម,សេដ្ឋកិច្
,,,,,,,,,,,សេដ្ឋកិច្ចធុរកិច្ច និងហិរញ្ញវត្ថុ
,,,,,,,,,,,ពាណិជ្ជកម្មនិងពាណិជ្ជកម្មអន្តរជាតិ
,,,,,,,,,,,កសិកម្ម
,,,,,,,,,,,គ្រប់គ្រងកសិធុរកិច្ច និង កសិដ្ឋាន
,,,,,,,,,,,ផលិតកម្មដំណាំ
,,,,,,,,,,,គ្រប់គ្រងគម្រោង និងអភិវឌ្ឍន៍ជនបទ
,,,,,,,,,,,ផលិតកម្មសត្វ
,,,,,,,,,,,កសិឧស្សាហកម្មនិងបច្ចេកវិទ្យាក្រោយប្រមូលផល
,,,,,,,,,,៣.មហាវិទ្យាល័យវិស្វកម្ម និងស្ថាបត្យកម្ម,វិស្វកម្មសំណង់ស៊ីវិល និងគ្រោងបង្គំ
,,,,,,,,,,,វិស្វកម្មសំណង់ស៊ីវិល
,,,,,,,,,,,វិស្វកម្មសំណង់ស៊ីវិល និងការសាងសង់
,,,,,,,,,,,ការរចនាស្ថាបត្យកម្មក្នុងអាគារ
,,,,,,,,,,,វិស្វកម្មអេឡិចត្រូនិច និងទូរគមនាគមន៍
,,,,,,,,,,,ការរចនាម៉ូតផលិតផល
,,,,,,,,,,,រចនាស្ថាបត្យកម្ម និងនគរូបនីយវិទ្យា
,,,,,,,,,,,វិស្វកម្មអគ្គិសនី និង អេឡិចត្រូនិច
,,,,,,,,,,៤.មហាវិទ្យាល័យមនុស្សសាស្ត្រ និង ភាសា,ភាសាអង់គ្លេស
,,,,,,,,,,,ការបង្រៀនភាសាអង់គ្លេស
38,សាកលវិទ្យាល័យអាស៊ីអឺរ៉ុប,asia_europ,អគារលេខ ៨២៦ មហាវិថីកម្ពុជាក្រោម សង្កាត់ទឹកល្អក់១ ខណ្ឌទួលគោក រាជធានីភ្នំពេញ,រាជធានីភ្នំពេញ,០១៥ ៧២០ ០៧២; ០១២ ៤៨១ ៧៣៨; ០២៣ ៩៩៩ ១២៤,០២៣ ៩៩៨ ១២៤,info@aeu.edu.kh,www.aeu.edu.kh,,១.មហាវិទ្យាល័យសិល្បៈ មនុស្សសាស្ដ្រ នឹងភាសា,ទំនាក់ទំនងអន្តរជាតិ
,,,,,,,,,,,ភាសាអង់គ្លេស
,,,,,,,,,,,អក្សរសាស្ត្រចិន
,,,,,,,,,,២.មហាវិទ្យាល័យវិទ្យាសាស្ត្រ និងបច្ចេកទេស,វិទ្យាសាស្ត្រកុំព្យូទ័រ
,,,,,,,,,,,បច្ចេកវិទ្យាព័ត៌មាន
,,,,,,,,,,,គ្រប់គ្រងប្រព័ន្ឋព័ត៌មាន
,,,,,,,,,,៣.មហាវិទ្យាល័យនីតិសាស្ត្រ និងវិទ្យាសាស្ត្រនយោបាយ,សេដ្ឋកិច្ច
,,,,,,,,,,,ធនាគារ នឹងហិរញ្ញវត្ថុ
,,,,,,,,,,,សេដ្ឋកិច្ចពាណិជ្ជកម្ម
,,,,,,,,,,,អភិវឌ្ឍសហគមន៍
,,,,,,,,,,៤.មហាវិទ្យាល័យសង្គមសាស្រ្ត និងសេដ្ឋកិច្ច,នីតិឯកជន
,,,,,,,,,,,នីតិសាធារណៈ
,,,,,,,,,,,វិទ្យាសាស្ត្រនយោបាយ
,,,,,,,,,,,រដ្ឋបាលសាធារណៈ
,,,,,,,,,,៥.មហាវិទ្យាល័យគ្រប់គ្រងពាណិជ្ជកម្ម និងទេសចរណ៍,គ្រប់គ្រងធនធានមនុស្ស
,,,,,,,,,,,គ្រប់គ្រង
,,,,,,,,,,,ទីផ្សារ
,,,,,,,,,,,គណនេយ្យ
,,,,,,,,,,,គ្រប់គ្រងសណ្ឋាគារ និងទេសចរណ៍
39,សាកលវិទ្យាល័យកម្ពុជាអន្តរជាតិ,cam_iu,ផ្ទះលេខ  ៥-១៥ ផ្លូវលេខ ១៣៦ សង្កាត់ផ្សារថ្មី៣ ខណ្ឌដូនពេញ រាជធានីភ្នំពេញ,រាជធានីភ្នំពេញ,០១២ ៨៧២ ៦៣០; ០១២ ៩០០ ២៨២; ០១២ ៩៣១ ៨១៧; ០១៥ ៣៣០ ០៦៨ ,,info@camiu.edu.kh,www.camiu.edu.kh,,១.មហាវិទ្យាល័យសិល្បៈ មនុស្សសាស្ដ្រ នឹងភាសា,រចនាម៉ូដ
,,,,,,,,,,,អប់រំ
,,,,,,,,,,,អភិវឌ្ឍន៍កម្មវិធីសិក្សា
,,,,,,,,,,,អក្សរសាស្ត្រចិន
,,,,,,,,,,,អក្សរសាស្រ្តកូរ៉េ
,,,,,,,,,,,ទស្សនវិជ្ជា
,,,,,,,,,,,អក្សរសាស្ត្រខ្មែរ
,,,,,,,,,,,អក្សរសាស្ត្រជប៉ុន
,,,,,,,,,,,ប្រវត្តិវិទ្យា
,,,,,,,,,,,ចិត្តវិទ្យា
,,,,,,,,,,,តូរ្យតន្ត្រី
,,,,,,,,,,២.មហាវិទ្យាល័យ  វិទ្យាសាស្ត្រសង្គម និងនីតិសាស្ត្រ,សេដ្ឋកិច្ចអភិវឌ្ឍន៍
,,,,,,,,,,,ធនាគារ នឹងហិរញ្ញវត្ថុ
,,,,,,,,,,,ហិរញ្ញវត្ថុ និង ពន្ឋដារ
,,,,,,,,,,,នីតិសាធារណៈ
,,,,,,,,,,,ទំនាក់ទំនងអន្តរជាតិ
,,,,,,,,,,,នីតិអន្តរជាតិ
,,,,,,,,,,,ភូមិវិទ្យាសេដ្ឋកិច្ច
,,,,,,,,,,,ហិរញ្ញវត្ថុ និង វិនិយោគ
,,,,,,,,,,,វិទ្យាសាស្ត្រនយោបាយ
,,,,,,,,,,,រដ្ឋបាលសាធារណៈ
,,,,,,,,,,,សេដ្ឋកិច្ច
,,,,,,,,,,,នីតិឯកជន
,,,,,,,,,,៣.មហាវិទ្យាល័យគណិតសាស្ត្រ វិទ្យសាស្រ្ត និងកុំព្យូទ័រ,រូបវិទ្យា
,,,,,,,,,,,រចនាក្រាហ្វិច គេហទំព័រ
,,,,,,,,,,,គណិតវិទ្យា និងស្ថិតិ
,,,,,,,,,,,ជីវវិទ្យា
,,,,,,,,,,,វិទ្យាសាស្ត្រកុំព្យូទ័រ
,,,,,,,,,,,គ្រប់គ្រប់ទិន្នន័យ
,,,,,,,,,,,គីមីវិទ្យា
,,,,,,,,,,៤.មហាវិទ្យាល័យគ្រប់គ្រងពាណិជ្ជកម្ម,គ្រប់គ្រងទូទៅ
,,,,,,,,,,,អភិវឌ្ឍន៍សហគ្រិន
,,,,,,,,,,,គណនេយ្យ និងហិរញ្ញវត្ថុ
,,,,,,,,,,,គ្រប់គ្រងកម្មវិធី និងគម្រោង
,,,,,,,,,,,គ្រប់គ្រងទីផ្សារ
,,,,,,,,,,,សវនកម្ម
,,,,,,,,,,,គ្រប់គ្រងអាជីវកម្មធុនតូច
,,,,,,,,,,,គ្រប់គ្រងការអភិវឌ្ឍន៍ជនបទ
,,,,,,,,,,៥.មហាវិទ្យាល័យគ្រប់គ្រងទេសចរណ៍ និងបដិសណ្ឋារកិច្ច,គ្រប់គ្រងទេសចរណ៍
,,,,,,,,,,,គ្រប់គ្រងសណ្ឋាគារ
,,,,,,,,,,,គ្រប់គ្រងបដិសណ្ឋារកិច្ច និង មគ្គុទេសក៍ទេសចរណ៍
,,,,,,,,,,៦.វិទ្យាស្ថានអប់រំភាសាអង់គ្លេស,អង់គ្លេសសម្រាប់អប់រំ
,,,,,,,,,,,អក្សរសាស្ត្រអង់គ្លេស
40,សាកលវិទ្យាល័យចេនឡា,chenla,ផ្លូវលេខ ៥៧ សង្កាត់ផ្សារដើមគ ខណ្ឌទូលគោក រាជធានីភ្នំពេញ,រាជធានីភ្នំពេញ,០២៣ ៨៨៣ ២៦៩; ០១២ ៥៣៥ ០៨០,០២៣ ៨៨៣ ២៦៩ ,sreymom22.dit@gmail.com,www.clu.com.kh,,១.មហាវិទ្យាល័យសិល្បៈ មនុស្សសាស្ដ្រ នឹងភាសា,ភាសាអង់គ្លេសសម្រាប់ទំនាក់ទំនង
,,,,,,,,,,,ភាសាអង់គ្លេសសម្រាប់អប់រំ
,,,,,,,,,,,ភាសាអង់គ្លេសសម្រាប់បកប្រែ
,,,,,,,,,,២.មហាវិទ្យាល័យវិទ្យាសាស្ត្រអប់រំ,គ្រប់គ្រងអប់រំ
,,,,,,,,,,,វិទ្យាសាស្ត្រអប់រំ
,,,,,,,,,,៣.មហាវិទ្យាល័យវិទ្យាសាស្រ្តសង្គម,គ្រប់គ្រង
,,,,,,,,,,,ទីផ្សារ
,,,,,,,,,,,គណនេយ្យ
,,,,,,,,,,,សេដ្ឋកិច្ចអភិវឌ្ឍន៍
,,,,,,,,,,,ធនាគារ នឹងហិរញ្ញវត្ថុ
,,,,,,,,,,,នីតិសាស្ត្រ
,,,,,,,,,,,រដ្ឋបាលសាធារណៈ
,,,,,,,,,,៤.មហាវិទ្យាល័យគណិតវិទ្យា និងវិទ្យាសាស្ត្រ,វិទ្យាសាស្ត្រកុំព្យូទ័រ
,,,,,,,,,,,បច្ចេកវិទ្យាបណ្ដាញកុំព្យូទ័រ
,,,,,,,,,,,ប្រព័ន្ឋគ្រប់គ្រងទិន្នន័យ
,,,,,,,,,,,រចនាគេហទំព័រ
,,,,,,,,,,,សរសេកម្មវិធី
,,,,,,,,,,,ក្រាហ្វិកឌីហ្សាញ
,,,,,,,,,,៥.មហាវិទ្យាល័យថែទាំសុខភាព,គិលានុបដ្ឋាក
,,,,,,,,,,,ឆ្មប
,,,,,,,,,,,បច្ចេកទេសមន្ទីរពិសោធន៍
41,សាកលវិទ្យាល័យឯកទេសនៃកម្ពុជា,cambodia_specialty,អគារ F ផ្លូវលេខ ៦២ ភូមិទូលគោក សង្កាត់ទួលសង្កែ ខណ្ឌឬស្សីកែវ រាជធានីភ្នំពេញ,រាជធានីភ្នំពេញ,០២៣​ ៣៥០ ៨២៨; ០១២ ៦៣​៦ ២០៧; ០៨៧ ៦៣៦ ២០៧; ០៨៩ ៨០៨ ៨៨៥; ០៧០ ៧០៨ ៨៨៣; ០៩៥ ៩៩៩ ៨៦៧ ,,info@cus.edu.kh,www.cus.edu.kh,,១.មហាវិទ្យាល័យវិស្វកម្ម,វិស្វកម្មសំណង់ស៊ីវិល
,,,,,,,,,,,អេឡិចត្រូនិច អគ្គិសនី
,,,,,,,,,,,កុំព្យូទ័រវិស្វកម្ម
,,,,,,,,,,២.មហាវិទ្យាល័យវិទ្យាសាស្ត្រសង្គម និងនីតិសាស្ត្រ,នីតិសាធារណៈ
,,,,,,,,,,,នីតិឯកជន
,,,,,,,,,,៣.មហាវិទ្យាល័យវិទ្យាសាស្ត្រ និងបច្ចេកវិទ្យា,អក្សរសាស្ត្រកុំព្យូទ័រ
,,,,,,,,,,,គីមីវិទ្យា
,,,,,,,,,,,ជីវវិទ្យា
,,,,,,,,,,,គ្រប់គ្រងប្រព័ន្ឋព័ត៌មានវិទ្យា
,,,,,,,,,,,គណិតវិទ្យា
,,,,,,,,,,,រូបវិទ្យា
,,,,,,,,,,,គ្រប់គ្រងស្ថិតិអនុវត្តន៍
,,,,,,,,,,,បច្ចេកវិទ្យាព័ត៌មានវិទ្យា
,,,,,,,,,,៤.មហាវិទ្យាល័យគ្រប់គ្រងពាណិជ្ជកម្ម និងសេដ្ឋកិច្ច,គ្រប់គ្រង
,,,,,,,,,,,ហិរញ្ញវត្ថុ និង ធនាគារ
,,,,,,,,,,,សេដ្ឋកិច្ចអភិវឌ្ឍន៍
,,,,,,,,,,,គ្រប់គ្រងការផ្សព្វផ្សាយ
,,,,,,,,,,,គ្រប់គ្រងអចលនវត្ថុ និងដីធ្លី
,,,,,,,,,,,គណនេយ្យ
,,,,,,,,,,,ម៉ាឃីធីង (ទីផ្សារ)
,,,,,,,,,,,គ្រប់គ្រងសណ្ឋាគារ និង ទេសចរណ៍
,,,,,,,,,,,គ្រប់គ្រងពាណិជ្ជកម្មអន្តរជាតិ
42,សាកលវិទ្យាល័យធនធានមនុស្ស,human_resource,អគារលេខ ១៧-១៩ ផ្លូវ១៦៣ សង្កាត់អូឡាំពិក ខណ្ឌចំការមន រាជធានីភ្នំពេញ,រាជធានីភ្នំពេញ,០២៣ ៩៨៧ ៨២៦,០២៣ ៩៨៧ ៨២៦,info@hru.edu.kh,www.hru.edu.kh,,១.មហាវិទ្យាល័យសិល្បៈ មនុស្សសាស្ដ្រ នឹងភាសា,អក្សរសាស្ត្រអង់គ្លេសសម្រាប់ការបង្រៀន
,,,,,,,,,,,អក្សរសាស្ត្រអង់គ្លេសសម្រាប់ទំនាក់ទំនង
,,,,,,,,,,២.មហាវិទ្យាល័យសង្គមសាស្ត្រ និងសេដ្ឋកិច្ច,ធនាគារ នឹងហិរញ្ញវត្ថុ
,,,,,,,,,,៣.មហាវិទ្យាល័យគ្រប់គ្រងពាណិជ្ជកម្ម និងទេសចរណ៍,ម៉ាឃីធីង (ទីផ្សារ)
,,,,,,,,,,,គណនេយ្យ
,,,,,,,,,,,គ្រប់គ្រង
,,,,,,,,,,,សណ្ឋាគារ និង ទេសចរណ៍
43,សាកលវិទ្យាល័យអាយអាយស៊ីនៃបច្ចេកវិទ្យា,iic,អគារលេខ ៦៥០ ផ្លូវជាតិលេខ ២ សង្កាត់ចាក់អង្រែក្រោម ខណ្ឌមានជ័យ ភ្នំពេញ,រាជធានីភ្នំពេញ,០២៣​ ៤២៥ ១៤៨; ០១៦ ៣៤០ ៦២៦; ០៩២ ៣៤០ ៦២៦,០២៣ ៤២៥​ ១៤៩,info@icc.edu.kh,www.icc.edu.kh,,១.មហាវិទ្យាល័យវិទ្យាសាស្ត្រសេដ្ឋកិច្ច,សេដ្ឋកិច្ចវិទ្យា
,,,,,,,,,,,ហិរញ្ញវត្ថុ និងធានារ៉ាប់រង
,,,,,,,,,,,ហិរញ្ញវត្ថុ និង ពន្ឋដារ
,,,,,,,,,,,ហិរញ្ញវត្ថុ និង ធនាគារ
,,,,,,,,,,,ហិរញ្ញវត្ថុ និង អចលនទ្រព្យ
,,,,,,,,,,,ស្ថិតិ និងព្យាករណ៍អាជីវកម្ម
,,,,,,,,,,,ហិរញ្ញវត្ថុ និង អចលនទ្រព្យ
,,,,,,,,,,,ស្ថិតិ និងព្យាករណ៍អាជីវកម្ម
,,,,,,,,,,,ហិរញ្ញវត្ថុ និង វិនិយោគ
,,,,,,,,,,,គ្រប់គ្រងមីក្រូហិរញ្ញវត្ថុ
,,,,,,,,,,២.មហាវិទ្យាល័យវិទ្យាសាស្ត្រសង្គម,រដ្ឋបាលសាធារណៈ
,,,,,,,,,,,នីតិសាស្ត្រ
,,,,,,,,,,,នរវិទ្យា
,,,,,,,,,,,ប្រវត្តិសាស្ត្រសង្គមវិទ្យា
,,,,,,,,,,,វិទ្យាសាស្ត្រនយោបាយ
,,,,,,,,,,៣.មហាវិទ្យាល័យ គណិតសាស្ត្រ និងវិទ្យាសាស្ត្រ,វិទ្យាសាស្ត្រកុំព្យូទ័រ
,,,,,,,,,,,គណិតវិទ្យា
,,,,,,,,,,,ព័ត៌មានវិទ្យា
,,,,,,,,,,,វិស្វកម្មផ្នែកទន់
,,,,,,,,,,,វិទ្យាសាស្ត្របរិស្ថាន និង វិទ្យាសាស្រ្តអនុវត្តន៍
,,,,,,,,,,៤.មហាវិទ្យាល័យសិល្បៈ មនុស្សសាស្ត្រ និងភាសា,ការអប់រំភាសាអង់គ្លេស
,,,,,,,,,,,អក្សរសាស្ត្រអង់គ្លេស
,,,,,,,,,,,ភាសាជប៉ុន
,,,,,,,,,,,ភាសាកូរ៉េ
,,,,,,,,,,,ភាសាចិន
,,,,,,,,,,,ភាសាអង់គ្លេសសម្រាប់ពាណិជ្ជកម្ម
,,,,,,,,,,៥.មហាវិទ្យាល័យពាណិជ្ជសាស្ត្រ,គ្រប់គ្រង
,,,,,,,,,,,គ្រប់គ្រងរដ្ឋបាល
,,,,,,,,,,,ទីផ្សារ
,,,,,,,,,,,គ្រប់គ្រងការលក់
,,,,,,,,,,,គណនេយ្យ
,,,,,,,,,,,គ្រប់គ្រងភស្ដុភារ
,,,,,,,,,,,គ្រប់គ្រងសណ្ឋាគារ
,,,,,,,,,,,អាជីវកម្មអន្តរជាតិ
,,,,,,,,,,,គ្រប់គ្រងហានិភ័យ
,,,,,,,,,,,យុទ្ឋសាស្ត្រលទ្ឋកម្ម
,,,,,,,,,,,គ្រប់គ្រងទេសចរណ៍
,,,,,,,,,,,គ្រប់គ្រងអាជីវកម្មធុនតូច
,,,,,,,,,,,គ្រប់គ្រងធនធានមនុស្ស
,,,,,,,,,,,ទំនាក់ទំនងឧស្សាហកម្ម
44,សាកលវិទ្យាល័យ ហ្សាម៉ាន់,zaman,អគារលេខ ៨ ផ្លូវ៣២៥ សង្កាត់បឹងកក់១ ខណ្ឌទួលគោក រាជធានីភ្នំពេញ,រាជធានីភ្នំពេញ,០២៣ ៩៩៦ ១១១; ០១៧ ៩៩៦ ១១១,០២៣ ៩៩៩២ ០០០,info@zamanu.edu.kh,www.zamanu.edu.kh,,១.មហាវិទ្យាល័យសិល្បៈ មនុស្សសាស្ដ្រ នឹងភាសា,ចិត្តវិទ្យា
,,,,,,,,,,,សង្គមវិទ្យា
,,,,,,,,,,,ភាសាអង់គ្លេសអប់រំ
,,,,,,,,,,,ភាសាអង់គ្លេសសម្រាប់កុំព្យូទ័រ
,,,,,,,,,,,ភាសាអង់គ្លេសសម្រាប់ពាណិជ្ជកម្ម
,,,,,,,,,,២.មហាវិទ្យាល័យគណិតសាស្ត្រនិងវិទ្យាសាស្ត្រ,រូបវិទ្យា
,,,,,,,,,,,គីមីវិទ្យា
,,,,,,,,,,,គណិតវិទ្យា
,,,,,,,,,,៣.មហាវិទ្យាល័យគណិតសាស្ត្រ វិទ្យសាស្រ្ត,គ្រប់គ្រងពាណីជ្ជកម្ម
,,,,,,,,,,,សេដ្ឋកិច្ច និងធនាគារហិរញ្ញវត្ថុ
,,,,,,,,,,,ទំនាក់ទំនងអន្តរជាតិ
,,,,,,,,,,៤.មហាវិទ្យាល័យព័ត៌មាន និងបច្ចេកវិទ្យាកុំព្យូទ័រ,វិទ្យាសាស្ត្រកុំព្យូទ័រ
,,,,,,,,,,,សេដ្ឋកិច្ចនិងធនាគារហិរញ្ញវត្ថុ
,,,,,,,,,,,ទំនាក់ទំនងអន្តរជាតិ
,,,,,,,,,,៥.មហាវិទ្យាល័យវិស្វកម្ម,វិស្វកម្មសំណង់ស៊ីវិល
,,,,,,,,,,,វិស្វកម្មកុំព្យូទ័រ
,,,,,,,,,,,វិស្វកម្មប្រព័ន្ឋថាមពល
,,,,,,,,,,,វិស្វកម្មស្ថាបត្យកម្ម
45,សាកលវិទ្យាល័យអន្តរជាតិ,iu,ផ្លូវ ១០១១ -១៩៨៤ សង្កាត់ភ្នំពេញថ្មី ខណ្ឌសែនសុខ រាជធានីភ្នំពេញ,រាជធានីភ្នំពេញ,០២៣ ៨៨១ ៦២៣,,info@iu.edu.kh,www.iu.edu.kh,,១.មហាវិទ្យាល័យឱសថសាស្ត្រ,ឱសថសាស្ត្រ
,,,,,,,,,,២.មហាវិទ្យាល័យទន្តសាស្ត្រ,ទន្តសាស្ត្រ
,,,,,,,,,,៣.មហាវិទ្យាល័យវិទ្យាសាស្ត្រថែទាំវេជ្ជសាស្ត្រ,គិលានុបដ្ឋាក
,,,,,,,,,,,ឆ្មប
,,,,,,,,,,,មន្ទីរពិសោធន៍
,,,,,,,,,,៤.មហាវិទ្យាល័យវេជ្ជសាស្ត្រ និងរោគកុមារ,វេជ្ជសាស្ត្រទូទៅ
,,,,,,,,,,,រោគកុមារ
,,,,,,,,,,៥.មហាវិទ្យាល័យវិទ្យាសាស្ត្រកសិកម្ម និងអភិវឌ្ឍន៍ជនបទ,ក្សេត្រសាស្ត្រ
,,,,,,,,,,,បសុពេទ្យ
,,,,,,,,,,,ជលផល
,,,,,,,,,,,អភិវឌ្ឍន៍ជនបទ
,,,,,,,,,,៦.មហាវិទ្យាល័យវិទ្យាសាស្ត្រសង្គម និង សារព័ត៌មាន,សង្គមវិទ្យា
,,,,,,,,,,,សារព័ត៌មាន
,,,,,,,,,,,វិទ្យាសាស្ត្រនយោបាយ
,,,,,,,,,,,សុខភាពសាធារណៈ
,,,,,,,,,,៧.មហាវិទ្យាល័យ នីតិសាស្ត្រ,ច្បាប់ទូទៅ
,,,,,,,,,,,ច្បាប់សាធារណៈ
,,,,,,,,,,,ច្បាប់ពាណិជ្ជកម្ម
,,,,,,,,,,,ច្បាប់អន្តរជាតិ
,,,,,,,,,,៨.មហាវិទ្យាល័យពាណិជ្ជសាស្ត្រ និងវិទ្យាសាស្ត្រសេដ្ឋកិច្ច,សេដ្ឋកិច្ច
,,,,,,,,,,,គ្រប់គ្រង
,,,,,,,,,,,គណនេយ្យ
,,,,,,,,,,,ទីផ្សារ
,,,,,,,,,,,ទេសចរណ៍
,,,,,,,,,,,ព័ត៌មានវិទ្យាគ្រប់គ្រង
,,,,,,,,,,,ធនាគារ នឹងហិរញ្ញវត្ថុ
,,,,,,,,,,៩.មហាវិទ្យាល័យបច្ចេកវិទ្យានិងវិទ្យាសាស្ត្រ,សំណង់ស៊ីវិល
,,,,,,,,,,,ស្ថាបត្យកម្ម
,,,,,,,,,,,ព័ត៌មានវិទ្យាសំណង់
,,,,,,,,,,,វិទ្យាស្ថានបរិស្ថាន
,,,,,,,,,,,វិស្វកម្មអគ្គិសនី
,,,,,,,,,,,វិទ្យាសាស្ត្រកុំព្យូទ័រ
,,,,,,,,,,,អេឡិចត្រូនិច
,,,,,,,,,,,សូរិយោដី
,,,,,,,,,,,មីក្រូជីវសាស្ត្រ
,,,,,,,,,,,ជីវគីមីវិទ្យា
,,,,,,,,,,,ជីវបច្ចេកវិទ្យា
,,,,,,,,,,,ជីវវិទ្យា
,,,,,,,,,,,គ្រប់គ្រងបរិស្ថាន
,,,,,,,,,,,វិស្វកម្មបរិស្ថាន
,,,,,,,,,,,បច្ចេកវិទ្យាបរិស្ថាន
,,,,,,,,,,,គីមី បច្ចេកវិទ្យាចំណីអាហារ
,,,,,,,,,,១០.មហាវិទ្យាល័យមនុស្ស និង ភាសា,ភាសាអង់គ្លេស
46,សាកលវិទ្យាល័យលីមកុកវីង យូនឺវឺស៊ីធី អហ្វ គ្រេអេទីវ តិចណូឡូជី,limkokwing,ផ្ទះលេខ ៧០៧ -៧០៨ ផ្លូវ ១៩៨៦ សង្កាត់ភ្នំពេញថ្មី ខណ្ឌសែនសុខ រាជធានីភ្នំពេញ,រាជធានីភ្នំពេញ,០២៣ ៩៩៥ ៧៣៣,០២៣ ៩៩៥ ៧២៧,michael@limkokwing.edu.kh  ; enquiry@limkokwing.net/cambodia,www.limkokwing.net/cambodia www.limkokwing.edu.kh,,១.មហាវិទ្យាល័យស្ថាបត្យកម្ម និងការរចនា,រចនាខាងក្នុង
,,,,,,,,,,,បច្ចេកវិទ្យាស្ថាបត្យកម្ម
,,,,,,,,,,២.មហាវិទ្យាល័យសិល្បៈ អក្សរសាស្ត្រ និង មនុស្សសាស្ត្រ,រចនាអាជីព
,,,,,,,,,,,រចនាម៉ូដ និងការបង្កើតថ្មី
,,,,,,,,,,៣.មហាវិទ្យាល័យវិទ្យាសាស្ត្រសង្គម និង ទំនាក់ទំនងអន្តរជាតិ,ទំនាក់ទំនងវិជ្ជាជីវៈ
,,,,,,,,,,,គ្រប់គ្រងព្រឹត្តិការណ៍
,,,,,,,,,,,ផលិតខ្សែភាពយន្ត និង ទូរទស្សន៍
,,,,,,,,,,៤.មហាវិទ្យាល័យគណិតវិទ្យា និងវិស្វកម្ម,បច្ចេកវិទ្យាព័ត៌មាន
,,,,,,,,,,,វិស្វកម្មកម្មវិធីកុំព្យូទ័រ និង ពហុមេឌា
,,,,,,,,,,៥.មហាវិទ្យាល័យគ្រប់គ្រងពាណិជ្ជកម្ម ,គណនេយ្យ
,,,,,,,,,,,រដ្ឋបាលធុរកិច្ច
,,,,,,,,,,,សហគ្រិនភាព
,,,,,,,,,,,ធុរកិច្ចអន្តរជាតិ
47,សាកលវិទ្យាល័យបញ្ញាជាតិ,pcu,អគារលេខ ១៣ និង ២០-២៤ ផ្លូវលេខ ២៥៣ សង្កាត់ទឹកល្អក់៣ ខណ្ឌទួលគោក រាជធានីភ្នំពេញ,រាជធានីភ្នំពេញ,០៩២ ៧៧៧ ៧០៨; ០៦៩ ៥៥៥ ៥៨២,,info@pcu.edu.kh  pcupresident@gmail.com,www.pcu.edu.kh,,១.មហាវិទ្យាល័យធុរកិច្ច និងសេដ្ឋកិច្ច,ហិរញ្ញវត្ថុ និង ធនាគារ
,,,,,,,,,,,គណនេយ្យ
,,,,,,,,,,,ទីផ្សារ
,,,,,,,,,,,សេដ្ឋកិច្ចអភិវឌ្ឍន៍
,,,,,,,,,,,រដ្ឋបាលធុរអន្តរជាតិ
,,,,,,,,,,,គ្រប់គ្រង
,,,,,,,,,,,គ្រប់គ្រងសណ្ឋារគារ
,,,,,,,,,,,ទេសចរណ៍
,,,,,,,,,,២.មហាវិទ្យាល័យគណិតសាស្ត្រនិងវិទ្យាសាស្ត្រ,សំណេរកម្មវិធីកុំព្យូទ័រ
,,,,,,,,,,,វិទ្យាសាស្ត្រកុំព្យូទ័រ
,,,,,,,,,,,ព័ត៌មានវិទ្យា
,,,,,,,,,,,បណ្ដាញកម្មវិធីកុំព្យូទ័រ
,,,,,,,,,,៣.មហាវិទ្យាល័យសិល្បៈ មនុស្សសាស្ត្រ និងភាសា,ការអប់រំភាសាអង់គ្លេស
,,,,,,,,,,,ភាសាអង់គ្លេសសម្រាប់ពាណិជ្ជកម្ម
,,,,,,,,,,,អក្សរសាស្ត្រអង់គ្លេស
,,,,,,,,,,៤.មហាវិទ្យាល័យវិទ្យាសាស្ត្រសង្គម,វិទ្យាសាស្ត្រនយោបាយ
,,,,,,,,,,,ច្បាប់ឯកជន
,,,,,,,,,,,ច្បាប់អន្តរជាតិ
,,,,,,,,,,,ច្បាប់សាធារណៈ
,,,,,,,,,,,រដ្ឋបាលសាធារណៈ
,,,,,,,,,,,នីតិសាស្ត្រ
,,,,,,,,,,៥.មហាវិទ្យាល័យអប់រំ,វិទ្យាសាស្ត្រអប់រំ
,,,,,,,,,,,ប្រវត្តិវិទ្យា
,,,,,,,,,,,ភូមិវិទ្យា
,,,,,,,,,,,គីមីវិទ្យា
,,,,,,,,,,,គណិតវិទ្យា
,,,,,,,,,,,ជីវវិទ្យា
,,,,,,,,,,,ទស្សនវិជ្ជា
,,,,,,,,,,,អក្សរសាស្ត្រខ្មែរ
48,សាកលវិទ្យាល័យភ្នំពេញអន្តរជាតិ,ppiu,អគារលេខ ៣៦ ផ្លូវ១៦៩ សង្កាត់វាលវង់ ខណ្ឌ ៧មករា រាជធានីភ្នំពេញ,រាជធានីភ្នំពេញ,០២៣​ ៩៩៩ ៩០៦; ០២៣ ៩៩៩ ៩០៧; ០២៣ ៩៩៩ ៩០៨; ០៧១ ៣៣៣ ៦៧៧៧; ០១៦ ៥៩៦ ០១៣;  ០៩៥ ៩៨១ ៥៥០,០២៣ ៩៩៩ ៩០៥,info@ppiu.edu.kh,www.ppiu.edu.kh  ; Phnom Penh International University (Official),,១.មហាវិទ្យាល័យពាណិជ្ជសាស្ត្រ និង ទេសចរណ៍,គ្រប់គ្រង
,,,,,,,,,,,គណនេយ្យ
,,,,,,,,,,,ទីផ្សារ
,,,,,,,,,,,គ្រប់គ្រងសណ្ឋាគារ និងទេសចរណ៍
,,,,,,,,,,២.មហាវិទ្យាល័យនីតិសាស្ត្រ និង សេដ្ឋកិច្ច,អភិវឌ្ឍន៍សេដ្ឋកិច្ច
,,,,,,,,,,,ហិរញ្ញវត្ថុ ធនាគារ
,,,,,,,,,,,ច្បាប់
,,,,,,,,,,,រដ្ឋបាលសាធារណៈ
,,,,,,,,,,៣.មហាវិទ្យាល័យវិទ្យាសាស្ត្រអប់រំ,ភាសាអង់គ្លេសអប់រំ
,,,,,,,,,,,ភាសាអង់គ្លេសពាណិជ្ជកម្ម
,,,,,,,,,,៤.មហាវិទ្យាល័យវិទ្យាសាស្ត្រ និង ព័ត៌មានវិទ្យា,វិទ្យាសាស្ត្រកុំព្យូទ័រ
,,,,,,,,,,,គ្រប់គ្រប់ប្រព័ន្ឋព័ត៌មានវិទ្យា
,,,,,,,,,,,វិស្វកម្មទូរគមនាគមន៍
,,,,,,,,,,,គណិតសាស្ត្រ
49,សាកលវិទ្យាល័យ កម្ពុជា,uc,ផ្លូវណ័រប្រីត សង្កាត់ទឹកថ្លា ខណ្ឌសែនសុខ រាជធានីភ្នំពេញ,រាជធានីភ្នំពេញ,០២៣ ៩៩៣ ២៧៦; ០៦០ ៣៣៣ ៣៤៦,០២៣ ៩៩៣ ២៨៤,info@uc.edu.kh ; admission@uc.educ.kh ; library@uc.edu.kh,www.uc.edu.kh,,១.មហាវិទ្យាល័យអប់រំ,វិទ្យាសាស្ត្រអប់រំ
,,,,,,,,,,,រដ្ឋបាលអប់រំ
,,,,,,,,,,២.មហាវិទ្យាល័យច្បាប់,នីតិសាស្ត្រទូទៅ
,,,,,,,,,,,នីតិសាធារណៈ
,,,,,,,,,,,នីតិឯកជន
,,,,,,,,,,៣.មហាវិទ្យាល័យសិល្បៈ មនុស្សសាស្ត្រ និងភាសា,សារព័ត៌មាន
,,,,,,,,,,,សង្គមកិច្ច
,,,,,,,,,,,សិក្សាអំពីអាស៊ី
,,,,,,,,,,,អក្សរសាស្ត្រ និងភាសាអង់គ្លេស
,,,,,,,,,,៤.មហាវិទ្យាល័យវិទ្យាសាស្ត្រសង្គម,សិក្សាពីការអភិវឌ្ឍន៍
,,,,,,,,,,,គោលនយោបាយសាធារណៈ
,,,,,,,,,,,វិទ្យាសាស្ត្រនយោបាយ
,,,,,,,,,,,ទំនាក់ទំនងអន្តរជាតិ
,,,,,,,,,,,រដ្ឋបាលសាធារណៈ
,,,,,,,,,,៥.មហាវិទ្យាល័យវិទ្យាសាស្ត្រ និង បច្ចេកវិទ្យា,ព័ត៌មានវិទ្យា
,,,,,,,,,,,វិទ្យាសាស្ត្រកុំព្យូទ័រ
,,,,,,,,,,,អេឡិចត្រូនិក និងទូរគមនាគមន៍
,,,,,,,,,,៦.មហាវិទ្យាល័យព័ត៌មាននិងគមនាគមន៍,សិល្បៈនិងការសិក្សាព័ត៌មាន
,,,,,,,,,,,គមនាគមន៍រូបភាព
,,,,,,,,,,,ការសិក្សាអំពីគមនាគមន៍
,,,,,,,,,,៦.មហាវិទ្យាល័យគ្រប់គ្រង,គណនេយ្យ
,,,,,,,,,,,គ្រប់គ្រងពាណិជ្ជកម្ម
,,,,,,,,,,,គ្រប់គ្រងធនធានមនុស្ស
,,,,,,,,,,,សេដ្ឋកិច្ច
,,,,,,,,,,,ហិរញ្ញវត្ថុ និង ធនាគារ
,,,,,,,,,,,ពាណិជ្ជកម្មអន្តរជាតិ
,,,,,,,,,,,ទីផ្សារ
,,,,,,,,,,,បដិសណ្ឋារកិច្ច និងគ្រប់គ្រងទេសចរណ៍
50,សាកលវិទ្យាល័យពុទ្ឋិសាស្ត្រ,puthisastra,ផ្ទះលេខ ៥៥ ផ្លូវលេខ ១៨០ និង ១៨៤ សង្កាត់បឹងរាំង ខណ្ឌដូនពេញ រាជធានីភ្នំពេញ,រាជធានីភ្នំពេញ,០២៣ ២២១ ៦២៤; ០២៣ ២២០ ៤៧៦,,info@puthisastra.edu.kh,www.puthisastra.edu.kh,,១.មហាវិទ្យាល័យសិល្បៈ​ មនុស្សសាស្ដ្រ នឹងភាសា,អក្សរសាស្ត្រអង់គ្លេស
,,,,,,,,,,២.មហាវិទ្យាល័យវិទ្យាសាស្ដ្រ  និងបច្ចេកវិទ្យា,តបណ្ដាញកុំព្យូទ័រ
,,,,,,,,,,,សរសេកម្មវិធីកុំព្យូទ័រ
,,,,,,,,,,៣.មហាវិទ្យាល័យសេដ្ឋកិច្ច និង ធុរកិច្ច,គណនេយ្យ
,,,,,,,,,,,សេដ្ឋកិច្ច
,,,,,,,,,,,ទីផ្សារ
,,,,,,,,,,,ហិរញ្ញវត្ថុ និងធនាគារ
,,,,,,,,,,៤.មហាវិទ្យាល័យវិទ្យាសាស្ត្រសុខាភិបាល,វេជ្ជសាស្ត្រ
,,,,,,,,,,,ឱសថសាស្ត្រ
,,,,,,,,,,,ទន្តសាស្ត្រ
,,,,,,,,,,,គិលានុបដ្ឋាក
,,,,,,,,,,,ឆ្មប
,,,,,,,,,,,មន្ទីរពិសោធន៍វេជ្ជសាស្ត្រ
51,សាកលវិទ្យាល័យវេស្ទើន,western,ផ្ទះលេខ ១៥ ផ្លូវលេខ ៥២៨ សង្កាត់បឹងកក់ ១ ខណ្ឌទួលគោករាជធានី,រាជធានីភ្នំពេញ,០២៣ ៩៩៨ ២៣៣; ០១២ ២០០ ៩៨៨,,info_wu@western.edu.kh,www.western.edu.kh,,១.មហាវិទ្យាល័យសិល្បៈ មនុស្សសាស្ដ្រ នឹងភាសា,អប់រំភាសាអង់គ្លេស
,,,,,,,,,,,ភាសាអង់គ្លេសសម្រាប់ទំនាក់ទំនង
,,,,,,,,,,,អក្សរសាស្ត្រខ្មែរ
,,,,,,,,,,,ប្រវត្តិវិទ្យា
,,,,,,,,,,២.មហាវិទ្យាល័យវិទ្យាសាស្ត្រសង្គម,ធនាគារ នឹងហិរញ្ញវត្ថុ
,,,,,,,,,,,សេដ្ឋកិច្ចអភិវឌ្ឍន៍
,,,,,,,,,,,នីតិសាធារណៈ
,,,,,,,,,,,នីតិឯកជន
,,,,,,,,,,៣.មហាវិទ្យាល័យគ្រប់គ្រង និង សណ្ឋាគារទេសចរណ៍,គ្រប់គ្រង
,,,,,,,,,,,ទីផ្សារ
,,,,,,,,,,,គណនេយ្យ
,,,,,,,,,,,គ្រប់គ្រងសណ្ឋារគារ ទេសចរណ៍
,,,,,,,,,,៤.មហាវិទ្យាល័យវិទ្យាសាស្ត្រនិងបច្ចេកវិទ្យា,វិទ្យាសាស្ត្រកុំព្យូទ័រ
52,សាកលវិទ្យាល័យខេមរៈ,khemarak,បណ្ដោយផ្លូវ ១៩៨៦ បត់ចូលផ្លូវលំ ៧២ ចំងាយ ២០​ម៉ែត្រ សង្កាត់ភ្នំពេញថ្មី ខណ្ឌសែនសុខ រាជធានីភ្នំពេញ,រាជធានីភ្នំពេញ,០១២ ៤៩៣ ៣៣៤;​ ០៩៧ ៧០៧ ១១១១,,khemarak.university@yahoo.com,www.khemarak.edu.kh សាកលវិទ្យាល័យខេមរៈ Official page,,១.មហាវិទ្យាល័យនីតិសាស្ត្រនិងវិទ្យាសាស្ត្រសេដ្ឋកិច្ច,នីតិសាធារណៈ
,,,,,,,,,,,នីតិ​ឯកជន
,,,,,,,,,,,សេដ្ឋកិច្ច
,,,,,,,,,,២.មហាវិទ្យាល័យវិទ្យាសាស្ត្របច្ចេកវិទ្យា និង ព័ត៌មាន,គណិតវិទ្យាអនុវត្តន៍
,,,,,,,,,,,វិទ្យាសាស្ត្រកុំព្យូទ័រ
,,,,,,,,,,៣.មហាវិទ្យាល័យមនុស្សសាស្ត្រ សិល្បៈនិងភាសាវិទ្យា,ភាសាអង់គ្លេស
,,,,,,,,,,,ភាសាវិទ្យា
,,,,,,,,,,៤.មហាវិទ្យាល័យវិទ្យាសាស្ត្រនយោបាយនិងទំនាក់ទំនងអន្តរជាតិ,សេដ្ឋកិច្ចកសិកម្ម
,,,,,,,,,,,អភិវឌ្ឍន៍ជនបទ
,,,,,,,,,,៥.មហាវិទ្យាល័យវិទ្យាសាស្ត្រនយោបាយនិងទំនាក់ទំនងអន្តរជាតិ,វិទ្យាសាស្ត្រនយោបាយ
,,,,,,,,,,,ទំនាក់ទំនងអន្តរជាតិ
,,,,,,,,,,៦.មហាវិទ្យាល័យវិទ្យាសាស្ត្រអប់រំ,គ្រប់គ្រងអប់រំ
,,,,,,,,,,,រូបវិទ្យា
,,,,,,,,,,,ជីវវិទ្យា
,,,,,,,,,,,គីមីវិទ្យា
,,,,,,,,,,,ប្រវត្តិវិទ្យា
,,,,,,,,,,,ទស្សនវិជ្ជា
,,,,,,,,,,,អក្សរសាស្ត្រខ្មែរ
,,,,,,,,,,,ចិត្តគរុកោសល្យ
,,,,,,,,,,,ផែនការកម្ម និងគោលនយោបាយអប់រំ
53,សាកលវិទ្យាល័យគ្រប់គ្រង និង សេដ្ឋកិច្ច,management_economic,អគារលេខ ៧៤ ភូមិព្រែកព្រះស្ដេច សង្កាត់ព្រែកព្រះស្ដេច ក្រុងបាត់ដំបង ខេត្តបាត់ដំបង,បាត់ដំបង,០១៦ ៧២៩ ៤២៦; ០៩៨ ២២៦ ៦៧៣; ០៥៣ ៩៥២ ១៦០,០៥៣ ៩៥៣ ១៦០,tunume@gmail.com,www.ume.edu.kh umecambodia,,១.មហាវិទ្យាល័យ សិល្បៈ មនុស្សសាស្ត្រ និង ភាសាបរទេស,ភាសាអង់គ្លេសសម្រាប់ទំនាក់ទំនង
,,,,,,,,,,,ភាសាអង់គ្លេសសម្រាប់អប់រំ
,,,,,,,,,,,បកប្រែភាសាអង់គ្លេស
,,,,,,,,,,,អក្សរសាស្ត្រខ្មែរ
,,,,,,,,,,២.មហាវិទ្យាល័យវិទ្យាសាស្ត្រ និង បច្ចេកវិទ្យា,តបណ្ដាញណេតវើក
,,,,,,,,,,,វិទ្យាសាស្ត្រកុំព្យូទ័រ
,,,,,,,,,,,គណិតវិទ្យា
,,,,,,,,,,៣.មហាវិទ្យាល័យនីតិសាស្ត្រ និងសេដ្ឋកិច្ច,នីតិសាស្ត្រ
,,,,,,,,,,,វិទ្យាសាស្ត្រសេដ្ឋកិច្ច
,,,,,,,,,,,វិទ្យាសាស្ត្រនយោបាយ
,,,,,,,,,,,រដ្ឋបាលសាធារណៈ
,,,,,,,,,,៤.មហាវិទ្យាល័យកសិកម្ម និង អភិវឌ្ឍន៍ជនបទ,ក្សេត្រសាស្ត្រ
,,,,,,,,,,,អភិរក្សធនធានធម្មជាតិ
,,,,,,,,,,,រដ្ឋបាលជលផល
,,,,,,,,,,,វិទ្យាសាស្ត្រសត្វ
,,,,,,,,,,៥.មហាវិទ្យាល័យគ្រប់គ្រងពាណិជ្ជកម្ម និងឮ,គ្រប់គ្រងធនធានមនុស្ស
,,,,,,,,,,,គណនេយ្យ និង ហិរញ្ញវត្ថុ
,,,,,,,,,,,ធនាគារ នឹងហិរញ្ញវត្ថុ
,,,,,,,,,,,គ្រប់គ្រងទីផ្សារ
,,,,,,,,,,,គ្រប់គ្រងពាណិជ្ជកម្ម
,,,,,,,,,,,គ្រប់គ្រងគម្រោង
,,,,,,,,,,,គ្រប់គ្រងទូទៅ
,,,,,,,,,,,ជំនួញ និងការលក់
,,,,,,,,,,,សវនកម្ម
54,សាកលវិទ្យាល័យអន្តរជាតិឌូវី,dewey,ភូមិរំចេក ៤ សង្កាត់រតនៈ ក្រុងបាត់ដំបង ខេត្តដំបង,បាត់ដំបង,"០៥៣ ៦៣៧ ៣៧៤៧, ០៨៩ ៩៥០ ៩០៩",,info@diu.edu.kh,www.diu.edu.kh,,១.មហាវិទ្យាល័យសិល្បៈ​ មនុស្សសាស្ដ្រ នឹងភាសា,អក្សរសាស្ត្រអង់គ្លេស
,,,,,,,,,,,ខេមរសិក្សា
,,,,,,,,,,,ទស្សនវិជ្ជា
,,,,,,,,,,២.មហាវិទ្យាល័យអប់រំ,អប់រំភាសាអង់គ្លេស
,,,,,,,,,,,អប់រំសហគមន៍
,,,,,,,,,,,រដ្ឋបាលអប់រំ
,,,,,,,,,,៣.មហាវិទ្យាល័យគណិតវិទ្យា និង វិទ្យាសាស្ត្រ,វិទ្យាសាស្ត្របរិស្ថាន
,,,,,,,,,,,ស្ថិតិ
,,,,,,,,,,,តបណ្ដាញ
,,,,,,,,,,,អភិវឌ្ឍន៍ប្រព័ន្ឋព័ត៌មាន
,,,,,,,,,,,គណិតវិទ្យា
,,,,,,,,,,៤.មហាវិទ្យាល័យគ្រប់គ្រងពាណិជ្ជកម្ម,គ្រប់គ្រង
,,,,,,,,,,,ទីផ្សារ
,,,,,,,,,,,គណនេយ្យ
,,,,,,,,,,,ធនាគារ នឹងហិរញ្ញវត្ថុ
,,,,,,,,,,,ទេសចរណ៍ និងបដិសណ្ឋារកិច្ច
,,,,,,,,,,៥.មហាវិទ្យាល័យវិទ្យាសាស្ត្រសង្គម,អភិវឌ្ឍន៍សហគមន៍
,,,,,,,,,,,ការងារសង្គម
,,,,,,,,,,,សេដ្ឋកិច្ច
,,,,,,,,,,,វិទ្យាសាស្ត្រនយោបាយ
55,សាកលវិទ្យាល័យ ឡាយហ្វ,life,ផ្លូវសេតេ ក្រុមទី ១១ មណ្ឌល ៣ សង្កាត់០២ ក្រុងព្រះសីហនុ ខេត្តព្រះសីហនុ,ព្រះសីហនុ,០៣៤ ៩៣៤ ៤៩៨; ០៧៨ ៩៦៦ ៨៧៧; ០១៦ ៤៥០ ៣០២,,admin@lifeun.edu.kh,www.lifeun.edu.kh,,១.មហាវិទ្យាល័យសេដ្ឋកិច្ច និងទេសចរណ៍,គ្រប់គ្រង
,,,,,,,,,,,សេដ្ឋកិច្ច
,,,,,,,,,,,គ្រប់គ្រងទេសចរណ៍
,,,,,,,,,,,ម៉ាឃីធីង
,,,,,,,,,,,ហិរញ្ញវត្ថុ និង ធនាគារ
,,,,,,,,,,,គណនេយ្យ
,,,,,,,,,,,ពាណិជ្ជកម្មអន្តរជាតិ
,,,,,,,,,,,គ្រប់គ្រងទេសចរណ៍ និង បដិសណ្ឋារកិច្ច
,,,,,,,,,,២.មហាវិទ្យាល័យសិល្បៈ មនុស្សសាស្ត្រ និងភាសា,អក្សរសាស្ត្រខ្មែរ
,,,,,,,,,,,ទស្សនវិជ្ជា
,,,,,,,,,,,ប្រវត្តិវិទ្យា
,,,,,,,,,,,ការអប់រំភាសាអង់គ្លេស
,,,,,,,,,,៣.មហាវិទ្យាល័យវិទ្យាសាស្ត្រ និង បច្ចេកវិទ្យា,ព័ត៌មានវិទ្យា
,,,,,,,,,,,ស្ថាបត្យកម្ម
,,,,,,,,,,,វិស្វកម្មសំណង់ស៊ីវិល
,,,,,,,,,,,គណិតវិទ្យា
,,,,,,,,,,៤.មហាវិទ្យាល័យគ្រប់គ្រងពាណិជ្ជកម្ម,នីតិឯកជន
,,,,,,,,,,,នីតិសាធារណៈ
,,,,,,,,,,,រដ្ឋបាលសាធារណៈ
,,,,,,,,,,,នីតិអន្តរជាតិ
,,,,,,,,,,,វិទ្យាសាស្ត្រនយោបាយ
,,,,,,,,,,,ទំនាក់ទំនងអន្តរជាតិ និងការទូត
,,,,,,,,,,៥.មហាវិទ្យាល័យុះ គិលានុបដ្ឋាក និងឆ្មប,គិលានុបដ្ឋាក
,,,,,,,,,,,ឆ្មប
,,,,,,,,,,៦.មហាវិទ្យាល័យស្ថាបត្យកម្ម និង នគរូបនីយកម្ម,ស្ថាបត្យកម្ម
,,,,,,,,,,,នគររូបនីយកម្ម
,,,,,,,,,,,រចនាលម្អខាងក្នុង
,,,,,,,,,,,ស្ថាបត្យកម្មសួនឧទ្យាន
,,,,,,,,,,,ស្ថាបត្យកម្ម លំនៅដ្ឋាន
56,សាកលវិទ្យាល័យខ្មែរ បច្ចេកវិទ្យា និង គ្រប់គ្រង,technology_management,ផ្លូវឯករាជ្យ ភូមិ ២ សង្កាត់​ ៣ ក្រុងព្រះសីហនុ ខេត្តព្រះសីហនុ,ព្រះសីហនុ,០៣៤ ៩៣៣ ៧១៨; ០៩៣ ៩៣៦ ៦៩៩; ០១៥ ៥៥៥ ៦៥០,០៣៤ ៩៣៣ ៧១៨ ,kutm.shv@gmail.com ; www.samorl.net@gmail.com,www.kutm.edu.kh,,១.មហាវិទ្យាល័យវិទ្យាសាស្ត្រនិងបច្ចេកវិទ្យា,ព័ត៌មានវិទ្យា
,,,,,,,,,,,កុំព្យូទ័រអនុវត្ត
,,,,,,,,,,,គណិតសាស្ត្រ
,,,,,,,,,,,វិទ្យាសាស្ត្រកុំព្យូទ័រ
,,,,,,,,,,,វិទ្យាសាស្ត្រទូរគមនាគមន៍
,,,,,,,,,,,សិ្ថតិអនុវត្ត
,,,,,,,,,,២.មហាវិទ្យាល័យវិទ្យាសាស្ត្រ កសិកម្មនិងអភិវឌ្ឍជនបទ,ក្សេត្រសាស្ត្រ
,,,,,,,,,,,បសុព្យាបាល
,,,,,,,,,,,រុក្ខសាស្ត្រ
,,,,,,,,,,,កសិកម្ម និង អភិវឌ្ឍន៍ជនបទ
,,,,,,,,,,៣.មហាវិទ្យាល័យសិល្បៈ មនុស្សសាស្ត្រ និងភាសា,រដ្ឋបាលអប់រំ
,,,,,,,,,,,ការអប់រំ
,,,,,,,,,,,អក្សរសាស្ត្រអង់គ្លេស
,,,,,,,,,,,ភាសាអង់គ្លេសសម្រាប់អាជីវកម្ម
,,,,,,,,,,,"ភាសាអង់គ្លេសសម្រាប់គ្រប់គ្រងទេសចរណ៍
និងបដិសណ្ឋារកិច្ច"
,,,,,,,,,,៤.មហាវិទ្យាល័យគ្រប់គ្រងពាណិជ្ជកម្ម និង​ទេសចរណ៍,គណនេយ្យ
,,,,,,,,,,,គ្រប់គ្រងទូទៅ
,,,,,,,,,,,កសិពាណិជ្ជកម្ម
,,,,,,,,,,,កុំព្យូទ័រពាណិជ្ជកម្ម
,,,,,,,,,,,សេដ្ឋកិច្ចកសិកម្ម
,,,,,,,,,,,គ្រប់គ្រងធនធានមនុស្ស
,,,,,,,,,,,គ្រប់គ្រងនិងបដិសណ្ឋារកិច្ច
,,,,,,,,,,,ការទិញលក់ផ្ទះ និង ដី
,,,,,,,,,,,ហិរញ្ញវត្ថុ និងធនាគារ
,,,,,,,,,,,គ្រប់គ្រងទេសចរណ៍
,,,,,,,,,,,គ្រប់គ្រងឧស្សាហកម្ម
,,,,,,,,,,,សេដ្ឋកិច្ច
,,,,,,,,,,,ពាណិជ្ជកម្មអន្តរជាតិ
,,,,,,,,,,,គ្រប់គ្រងអាជីវកម្ម
,,,,,,,,,,,ទីផ្សារ
,,,,,,,,,,,ការធានារ៉ាប់រង
,,,,,,,,,,៦.មហាវិទ្យាល័យនីតិសាស្ត្រ និង វិទ្យាសាស្ត្រសង្គម,នីតិសាធារណៈ
,,,,,,,,,,,នីតិឯកជន
,,,,,,,,,,,ចិត្តវិទ្យា
,,,,,,,,,,,ការសិក្សាអំពីការអភិវឌ្ឍន៍
,,,,,,,,,,,សង្គមវិទ្យា
,,,,,,,,,,,ប្រវត្តិវិទ្យា
,,,,,,,,,,,ទំនាក់ទំនងអន្តរជាតិ
,,,,,,,,,,,នរវិទ្យា
,,,,,,,,,,,វិទ្យាសាស្ត្រនយោបាយ
,,,,,,,,,,,រដ្ឋបាលសាធារណៈ
57,សាកលវិទ្យាល័យអង្គរខេមរា,angkor_khemara,ភូមិទី១ ឧសភា សង្កាត់ កំពង់កណ្ដាល ក្រុងកំពត ខេត្តកំពត,កំពត,០៣៣ ៦៣៦ ៣១៤៩; ០៣៣ ៦៩០ ៣៨៨៤; ០៩៧ ៧៧៧ ៩៣៩៥,,angkorkhemara_ukp@yahoo.com,www.aku.education,,១.មហាវិទ្យាល័យសិល្បៈ​ មនុស្សសាស្ដ្រ នឹងភាសា,ប្រវត្តិវិទ្យា
,,,,,,,,,,,ទស្សនវិជ្ជា
,,,,,,,,,,,អក្សរសាស្ត្រខ្មែរ
,,,,,,,,,,,ភាសាអង់គ្លេស
,,,,,,,,,,២.មហាវិទ្យាល័យវិទ្យាសាស្ត្រកសិកម្ម និងអភិវឌ្ឍន៍ជនបទ,សេដ្ឋកិច្ចកសិកម្ម
,,,,,,,,,,,អភិវឌ្ឍជនបទ
,,,,,,,,,,,វិទ្យាសាស្ត្រកសិកម្ម
,,,,,,,,,,៣.មហាវិទ្យាល័យគណិតសាស្ត្រ និង វិទ្យាសាស្ត្រ,គណិតវិទ្យា
,,,,,,,,,,,រូបវិទ្យា
,,,,,,,,,,,គីមីវិទ្យា
,,,,,,,,,,,ជីវវិទ្យា
,,,,,,,,,,,វិទ្យាសាស្ត្រកុំព្យូទ័រ
,,,,,,,,,,,អគ្គិសនី
,,,,,,,,,,៤.មហាវិទ្យាល័យវិទ្យាសាស្ត្រសង្គម,សង្គមវិទ្យា
,,,,,,,,,,,សេដ្ឋកិច្ច
,,,,,,,,,,,គ្រប់គ្រងទូទៅ
,,,,,,,,,,,នីតិឯកជន
,,,,,,,,,,,គណនេយ្យ និងហិរញ្ញវត្ថុ
,,,,,,,,,,,ធនាគារ នឹងហិរញ្ញវត្ថុ
,,,,,,,,,,,កិច្ចការសង្គម
,,,,,,,,,,,ភូមិវិទ្យា
,,,,,,,,,,,គ្រប់គ្រងទេសចរណ៍
,,,,,,,,,,,ទីផ្សារ និងការលក់
,,,,,,,,,,,ចិត្តវិទ្យា
,,,,,,,,,,,វិទ្យាសាស្ត្រនយោបាយ
,,,,,,,,,,,នីតិសាធារណៈ
,,,,,,,,,,,គ្រប់គ្រងពាណិជ្ជកម្ម
,,,,,,,,,,៥.មហាវិទ្យាល័យ វិទ្យាសាស្ត្រអប់រំ,គ្រប់គ្រងអប់រំ
,,,,,,,,,,,ការអប់រំរូបវិទ្យា
,,,,,,,,,,,ការអប់រំភូមិវិទ្យា
,,,,,,,,,,,ការអប់រំប្រវត្តិវិទ្យា
,,,,,,,,,,,គរុកោសល្យសង្គម
,,,,,,,,,,,ការអប់រំគីមីវិទ្យា
,,,,,,,,,,,ការអប់រំទស្សនវិជ្ជា
,,,,,,,,,,,ការអប់រំអក្សរសាស្ត្រខ្មែរ
,,,,,,,,,,,ការអប់រំគណិតវិទ្យា
,,,,,,,,,,,ការអប់រំជីវវិទ្យា
,,,,,,,,,,,ការអប់រំភាសាអង់គ្លេស
58,វិទ្យាស្ថានវិទ្យាសាស្ត្រអាស៊ី,asia_science,អគារ ២១-៣៥ ផ្លូវលេខ ៥១៦ សង្កាត់ទួលសង្កែ ខណ្ឌឬស្សីកែវ រាជធានីភ្នំពេញ,រាជធានីភ្នំពេញ,០១០ ៣០០​ ៧៦៨ ; ០២៣ ៦៦៦ ៨៦៦៦,,info@ais-edu.com,www.ais-edu.com ;  www.facebook.com/asia.sciences,,,គិលានុបដ្ឋាក
,,,,,,,,,,,ឆ្មប
,,,,,,,,,,,មន្ទីរពិសោធន៍
59,វិទ្យាស្ថានខេមអេដប៊ីហ្សនេសស្តូល,cam_ed,ផ្ទះលេខ ៦៤ ផ្លូវ១០៨ សង្កាត់វត្តភ្នំ ខណ្ឌដូនពេញ រាជធានីភ្នំពេញ,រាជធានីភ្នំពេញ,០២៣ ៩៨៦ ៥២២; ០២៣ ៩៨៦ ៩៦០; ០២៣ ៩៨៦ ៩៦១; ០១២ ៦១៨ ៩៨៨,,reception@cam-ed.com,www.cam-ed.com;  www.facebook.com/CamEdBusinessSchool,,វិទ្យាស្ថានខេមអេដប៊ីហ្សនេស,គណនេយ្យ
,,,,,,,,,,,ហិរញ្ញវត្ថុ
,,,,,,,,,,,គ្រប់គ្រង
60,វិទ្យាស្ថានវ៉ាន់ដា,vanda,មហាវិថីម៉ៅសេទុង សង្កាត់ទំនប់ទឹក ខណ្ឌចំការមន រាជធានីភ្នំពេញ,រាជធានីភ្នំពេញ,០២៣ ២១៣ ៥៦៣,០២៣ ២១៣ ៥៦២,vanda@camnet.com.kh,www.vanda.edu.kh  Vanda Institute of Accounting,,១.មហាវិទ្យាល័យគណនេយ្យ,គណនេយ្យ
,,,,,,,,,,២.មហាវិទ្យាល័យហិរញ្ញវត្ថុ និងធនាគារ,ហិរញ្ញវត្ថុ និង ធនាគារ
61,វិទ្យាស្ថានសិល្បៈភ្នំពេញអន្តរជាតិ,ppia,ផ្ទះលេខ ១៣៤អេ ផ្លូវលេខ ៥១(ប៉ាស្ទ័រ) សង្កាត់បឹងកេងកង១ ខណ្ឌចំការមន រាជធានីភ្នំពេញ,រាជធានីភ្នំពេញ,០២៣ ៦៦៦ ៦៧១៦; ០១២ ២៥៥ ១៧៤,,admin@ppiia.org,www.ppiia.org PPIIA-Phnom Penh International Institute of the Arts,,១.ដេប៉ាតឺម៉ង់តូរ្យតន្ត្រី,ព្យាណូ
,,,,,,,,,,,សូរសំនៀង
,,,,,,,,,,,ឧបករណ៍ប្រើខ្សែ និងខ្យល់
,,,,,,,,,,,អក្សរភ្លេង និពន្ធបទភ្លេង
,,,,,,,,,,២.ដេប៉ាតឺម៉ង់របាំ,របាំបាឡេ
,,,,,,,,,,,ក្បាច់រចនាទំនើប
,,,,,,,,,,៣.ដេប៉ាតឺម៉ង់គំនូរ និង ចលនា,រចនាម៉ូដសំលៀកបំពាក់ និង វាយនភណ្ឌ
,,,,,,,,,,,ស្ថាបត្យកម្ម និងរចនាខាងក្នុង
,,,,,,,,,,,រចនាប្លង់
62,វិទ្យាស្ថានស៊ីតិក,setec,អគារលេខ ៨៦អា ផ្លូវសហព័ន្ឋរុស្សី(ផ្លូវ ១១០) កែងផ្លូវលេខ ២៥៩ សង្កាត់ទឹកល្អក់ទី១ ខណ្ឌទួលគោក រាជធានីភ្នំពេញ,រាជធានីភ្នំពេញ,០២៣ ៨៨០ ៦១២,០២៣ ៨៨០ ៦១២,info@setecu.com,www.setecu.com ; www.facebook.com/setecedu,,១.មហាវិទ្យាល័យគ្រប់គ្រង,គ្រប់គ្រងប្រព័ន្ឋព័ត៌មានវិទ្យា
,,,,,,,,,,២.មហាវិទ្យាល័យពាណិជ្ជកម្ម,ពាណិជ្ជកម្មព័ត៌មានវិទ្យា
,,,,,,,,,,,ប្លង់ និងរចនា
63,វិទ្យាស្ថានអភិវឌ្ឍន៍អាស៊ីសច្ចៈ,sachak_asia,អគារលេខ ៤៧ Eo ផ្លូវលេខ៣៤៨ សង្កាត់ទួលស្វាយព្រៃមួយ ខណ្ឌចំការមន រាជធានីភ្នំពេញ,រាជធានីភ្នំពេញ,០២៣ ៦៩០ ០៧៦៧; ០២៣ ៦៩២ ១៩១២,,sadi@sadi.edu.kh,www.sadi.edu.kh,,១.មហាវិទ្យាល័យ បច្ចេកវិទ្យាព័ត៌មាន,គ្រប់គ្រងបណ្ដាញកុំព្យូទ័រ
,,,,,,,,,,,វិស្វកម្មកម្មវិធីកុំព្យូទ័រ
,,,,,,,,,,,គ្រប់គ្រងទិន្នន័យកុំព្យូទ័រ
,,,,,,,,,,២.មហាវិទ្យាល័យភាសាបរទេស,ភាសាអង់គ្លេសផ្នែកអប់រំ
,,,,,,,,,,៣.មហាវិទ្យាល័យពាណិជ្ជកម្ម,គ្រប់គ្រងអាជីវកម្ម
,,,,,,,,,,,គ្រប់គ្រង់គណនេយ្យ
,,,,,,,,,,,គ្រប់គ្រងទីផ្សារ
64,វិទ្យាស្ថានអន្តរជាតិ អេស អាយ យូ,siu,ផ្លូវលេខ ២១៧ ផ្ទះលេខ ៨E1 សង្កាត់ស្ទឹងមានជ័យ ខណ្ឌមានជ័យ រាជធានីភ្នំពេញ,រាជធានីភ្នំពេញ,០៩៥ ៦៧៩ ៦៩៥; ០៩៦ ២៤៩ ៩៨៣០,,info@ice.edu.kh,www.ice.edu.kh,,១.មហាវិទ្យាល័យភាសាបរទេស,ភាសាបរទេស
,,,,,,,,,,២.មហាវិទ្យាល័យគ្រប់គ្រងពាណិជ្ជកម្ម,គ្រប់គ្រង
,,,,,,,,,,,សណ្ឋាគារ និង ទេសចរណ៍
,,,,,,,,,,,គណនេយ្យ
,,,,,,,,,,,ទីផ្សារ
65,វិទ្យាស្ថាន អេសធី ខ្លេម៉ិនស៍,st_clement,អគារលេខ ១០២ ផ្លូវ ៥៩៨ សង្កាត់បឹងកក់ ២ ខណ្ឌទួលគោក រាជធានីភ្នំពេញ,រាជធានីភ្នំពេញ,០១២ ៣៨៧ ២២៣; ០១២ ៥៥១ ៧៧៧; ០៦៩ ២៥៦ ៦៧៩; ០២៣ ៦៣១ ៦០៣៦,,info@stclements.edu.kh,www.stclements.edu.kh,,១.ដេប៉ាតឺម៉ង់វិទ្យាសាស្ត្រសង្គម និង សេដ្ឋកិច្ច,គ្រប់គ្រងពាណិជ្ជកម្ម
,,,,,,,,,,,គ្រប់គ្រងហិរញ្ញវត្ថុ និង ធនាគារ
,,,,,,,,,,,បដិសណ្ឋារកិច្ច និងគ្រប់គ្រងទេសចរណ៍
,,,,,,,,,,២.ដេប៉ាតឺម៉ង់បច្ចេកវិទ្យាព័ត៌មាន,បច្ចេកវិទ្យាព័ត៌មាន
66,វិទ្យាស្ថាន អ៊ីនធឺរេដ,,អគារលេខ ៨ ផ្លូវ១៧៣ សង្កាត់អូឡាំពិក ខណ្ឌចំការមន រាជធានីភ្នំពេញ,រាជធានីភ្នំពេញ,០៦៩ ៨៦៦ ៦៥៦; ០១២ ៦៥៦; ០១៣ ; ០១២ ២៣៤ ៨៩០,,intered.institute@gmail.com,www.intered-institute.com,,១.មហាវិទ្យាល័យមនុស្សសាស្ត្រនិងភាសា,ភាសាអង់គ្លេស
,,,,,,,,,,២.មហាវិទ្យាល័យគ្រប់គ្រងពាណិជ្ជកម្ម,គ្រប់គ្រង
,,,,,,,,,,,គណនេយ្យ
,,,,,,,,,,,ទីផ្សារ
,,,,,,,,,,,ហិរញ្ញវត្ថុធនាគារ
,,,,,,,,,,,សេដ្ឋកិច្ច
,,,,,,,,,,,ពាណិជ្ជកម្មអន្តរជាតិ
,,,,,,,,,,,កុំព្យូទ័រពាណិជ្ជកម្ម
,,,,,,,,,,,ទំនាក់ទំនងពាណិជ្ជកម្ម
,,,,,,,,,,,គ្រប់គ្រងហានិភ័យ
,,,,,,,,,,,គ្រប់គ្រងទេសចរណ៍
,,,,,,,,,,,គ្រប់គ្រងធនធានមនុស្ស
,,,,,,,,,,,គ្រប់គ្រងសណ្ឋាគារ និង បដិសណ្ឋារកិច្ច
67,វិទ្យាស្ថានគ្រប់គ្រង ភីស៊ីអិល,pcl,ផ្លូវប៉េតុង ៦០០ ភូមិត្នោតជ្រុំ៥ សង្កាត់បឹងទំពុន  សណ្ឌមានជ័យ រាជធានីភ្នំពេញ,រាជធានីភ្នំពេញ,០២៣ ៦៩១ ៦៧៥៨;   ០៩៧ ២១៦ ៣២៧៩; ០១២ ៧៧៩ ២៧៤;    ០១២ ៧៣០ ០១៦,,justin@pcl.is;julie@pcl.is; nguthsophal@gmail.com,www.pcl.is,www.facebook.com/pmi.pcl.sareyboth,១.មហាវិទ្យាល័យសិល្បៈ អប់រំនិងភាសា,បង្រៀនភាសាអង់គ្លេស
,,,,,,,,,,២.មហាវិទញយាល័យគ្រប់គ្រងពាណិជ្ជកម្ម,គ្រប់គ្រងទូទៅ
,,,,,,,,,,,ទីផ្សារ
,,,,,,,,,,,គណនេយ្យ
68,វិទ្យាស្ថានគ្រប់គ្រង និអភិវឌ្ឍន៍,imd,ភូមិពាលញែក១ សង្កាត់ផ្ទះព្រៃ ក្រុងពោធ៍សាត់ ខេត្តពោធ៍សាត់,ពោធ៍សាត់,០៨៧ ៥៤៥ ៧០៣; ០១២ ៥២០ ០០៦     ,,mensethy@camintel.com,www.imd.edu.kh,www.imd.edu.kh Imd Pursat,១.មហាវិទ្យាល័យបរទេស,អប់រំភាសាអង់គ្លេស
,,,,,,,,,,,គ្រូភាសាអង់គ្លេស
,,,,,,,,,,,បកប្រែភាសាអង់គ្លេស
,,,,,,,,,,២.មាហាវិទ្យាល័យគ្រប់គ្រង,គ្រប់គ្រង
,,,,,,,,,,,គណនេយ្យ និងហិរញ្ញវត្ថុ
,,,,,,,,,,,គ្រប់គ្រងទីផ្សារ
,,,,,,,,,,៣.មហាវិទ្យាល័យ នីតិសាស្ត្រ និងសេដ្ឋកិច្ច,ហិរញ្ញវត្ថុ និងធនាគារ
,,,,,,,,,,៤.មហាវិទ្យាល័យ  បច្ចេកវិទ្យាព័ត៌មាន,តបណ្តាញកុំព្យូរទ័រ
,,,,,,,,,,,សរសេរកម្មវិធីកុំព្យូរទ័រ
69,វិទ្យាស្ថានក្រុងកម្ពុជា,krong_angkor,ផ្លូវលេខ១១ ភូមិកំពង់ធំ សង្កាត់កំពង់រទេះ ក្រុងស្ទឹងសែន ខេត្តកំពង់ធំ,កំពង់ធំ,០១២ ៩៩៦ ៣៨២; ០១២ ៧៧៦ ៣៨២; ០៩២ ៨៥២ ០៩០; ១២៧ ១១៥៧៨,,aci_kt@yahoo.com;aci@camintel.com,www.aci-edu.blogspot.com,www.facebook/AngkorCityInstitute,១.មហាវិទ្យាល័យគ្រប់គ្រង និងទេសចរណ៍,គ្រប់គ្រង
,,,,,,,,,,,គណនេយ្យ
,,,,,,,,,,,ទីផ្សារ
,,,,,,,,,,២.មហាវិទ្យាល័យនីតិសាស្ត្រ និងសេដ្ឋកិច្ច,នីតិសាធារណៈ
,,,,,,,,,,,នីតិឯកជន
,,,,,,,,,,,ធនាគារ និងហិរញ្ញវត្ថុ
,,,,,,,,,,៣.មហាវិទ្យាល័យព័ត៌មានវិទ្យា,ការអប់រំភាសាអង់គ្លេស
,,,,,,,,,,,គ្រប់គ្របបណ្ដាញកុំព្យូរទ័រ
,,,,,,,,,,,វិស្វកម្មកម្មវិធីកុំព្យូរទ័រ
,,,,,,,,,,៤.មហាវិទ្យាល័យវិទ្យាសាស្ត្រអប់រំ,អក្សរសាស្រ្តខ្មែរ
,,,,,,,,,,,គណិតវិទ្យា
,,,,,,,,,,,រូបវិទ្យា
70,វិទ្យាស្ថាន ខេមរាសាស្ត្រ,,ភូមិលេខ៨ សង្កាត់កំពង់លាវ ក្រុងព្រៃវែង ខេត្តព្រៃវែង,ព្រៃវែង,០៤៣ ៦៣២ ០០០៩,,ksipreyvng@yahoo.com,,,១.មហាវិទ្យាល័យវិទ្យាសាស្ត្រអប់រំ,គណិតវិទ្យា
,,,,,,,,,,,រូបវិទ្យា
,,,,,,,,,,,ជីវវិទ្យា
,,,,,,,,,,,អក្សរសាស្រ្តខ្មែរ
,,,,,,,,,,,អក្សរសាស្ត្រអង់គ្លេស
,,,,,,,,,,,ប្រវត្តិវិទ្យា
,,,,,,,,,,,ភូមិវិទ្យា
71,វិទ្យាស្ថានប្រាយហូប,bright_hope,ភូមិធម្មយុត្តិ សង្កាត់ប្អេរ ក្រុងកំពង់ឆ្នាំង ខេត្តកំពង់ឆ្នាំង ,កំពង់ឆ្នាំង,០១២ ៥៧១ ៣៦២ ;                       ០២៦ ៦៩០ ៥១៤,,seng.sintha@gmail.com,www.brighthopeinstitute.org,,១.មហាវិទ្យាល័យគ្រប់គ្រងពាណិជ្ជកម្ម និងទេសចរណ៍,គ្រប់គ្រង
,,,,,,,,,,,រដ្ឋបាលសាធារណៈ
,,,,,,,,,,,ហិរញ្ញវត្ថុ និងធនាគារ
,,,,,,,,,,,គណនេយ្យ
,,,,,,,,,,២.មហាវិទ្យាល័យវិទ្យាសាស្ត្រកសិកម្ម និងអភិវឌ្ឍន៍ជនបទ,អភិវឌ្ឍន៍ជនបទ
,,,,,,,,,,៣.មហាវិទ្យាល័យវិទ្យាសាស្ត្រអប់រំ និងភាសាបរទេស,ភាសាអង់គ្លេស
,,,,,,,,,,,គ្រប់គ្រងអប់រំ
,,,,,,,,,,,អក្សរសាស្ត្រខ្មែរ
,,,,,,,,,,,គណិតវិទ្យា
72,វិទ្យាស្ថានបូលីណូ,bolino,ផ្លូវជាតិលេខ៥ គីឡូម៉ែតលេខ៦០ ភូមិអូរូង ឃុំឈូកស ស្រុកកំពង់ត្រឡាច ខេត្តកំពង់ឆ្នាំង ,កំពង់ឆ្នាំង,០២៦ ៦៦១ ៦១៦១ ;                      ០២៦ ៦៦០ ៦០៦០,,iusabo@yahoo.com,http://bolyno.com.kh/institute,,១.មហាវិទ្យាល័យវេជ្ជសាស្ត្រ,វេជ្ជសាស្ត្រទូទៅ
,,,,,,,,,,២.មហាវិទ្យាល័យឱសថសាស្ត្រ,ឱសថសាស្ត្រ
,,,,,,,,,,៣.មហាវិទ្យាល័យទន្តវទនសាស្ត្រ,ទន្តសាស្ត្រ
,,,,,,,,,,,ទន្តគិលានុបដ្ឋាក
,,,,,,,,,,៤.មហាវិទ្យាល័យវិទ្យាសាស្ត្រថែទាំវេជ្ជសាស្ត្រ,គិលានុបដ្ឋាក
,,,,,,,,,,,ឆ្មប
,,,,,,,,,,៥.មហាវិទ្យាល័យមនុស្សសាស្ត្រ និងភាសា,ភាសាអង្គគ្លេស
,,,,,,,,,,៦.មហាវិទ្យាល័យ  នីតិសាស្ត្រ,ច្បាប់ទូទៅ
,,,,,,,,,,៧.មហាវិទ្យាល័យវិទ្យាសាស្ត្រសង្គម​និងព័ត៌មាន,សុខភាពសាធារណៈ
,,,,,,,,,,៨.មហាវិទ្យាល័យពាណិជ្ជសាស្ត្រ និងវិទ្យាសាស្ត្រសេដ្ឋកិច្ច,គ្រប់គ្រង
,,,,,,,,,,,គណនេយ្យ
,,,,,,,,,,,ទីផ្សារ
,,,,,,,,,,,ទេសចរណ៍
,,,,,,,,,,,សេដ្ឋកិច្ច
,,,,,,,,,,,ធនាគារ និងហិរញ្ញវត្ថុ
,,,,,,,,,,៩.មហាវិទ្យាល័យបច្ចេកវិទ្យា និងវិទ្យាសាស្ត្រ,សំណង់ស៊ីវិល
,,,,,,,,,,,ស្ថាបត្យកម្ម
,,,,,,,,,,,ព័ត៌មានវិទ្យាសំណង់
,,,,,,,,,,,សុរិយោដី
,,,,,,,,,,,វិទ្យាសាស្ត្រកុំព្យូរទ័រ
,,,,,,,,,,,វិទ្យាសាស្ត្របរិស្ថាន
,,,,,,,,,,,មីក្រូជីវសាស្ត្រ
,,,,,,,,,,,គីមី/បច្ចេកវិទ្យាចំណីអាហារ
,,,,,,,,,,១០.មហាវិទ្យាល័យវិទ្យាសាស្ត្រកសិកម្ម និងអភិវឌ្ឍន៍ជនបទ,ក្សេត្យសាស្ត្រ
,,,,,,,,,,,អភិវឌ្ឍន៍ជនបទ
,,,,,,,,,,,បសុពេទ្យ(ពេទសត្វ)
,,,,,,,,,,,ជលផល
73,វិទ្យាស្ថាន សន្តប៉ូល,sonta_pol,ភូមិអង្គគគីរ ឃុំតាភេម ស្រុកត្រាំកក់ ខេត្តតាកែវ,តាកែវ,០៣២ ៦៣៦ ០០០៣;            ០៣២ ៦៣៩ ០០០២    ,spi.takeeo@gmail.com,,,,១.មហាវិទ្យាល័យព័ត៌មានវិទ្យា,វិស្វកម្ម Software
,,,,,,,,,,,ទូរគមនាគមន៍ និងបណ្ដាញ
,,,,,,,,,,២.ដេប៉ាតឺម៉ង់អក្សរសាស្ត្រ​      អង់គ្លេស,អប់រំភាសាអង់គ្លេស
,,,,,,,,,,,ភាសាអង្គគ្លេសសម្រាប់ទំនាក់ទំនង
,,,,,,,,,,៣.ដេប៉ាតឺម៉ង់គ្រប់គ្រងទេសចរណ៍,គ្រប់គ្រងទេសចរណ៍
,,,,,,,,,,៤.ដេប៉ាតឺម៉ង់ក្សេត្រសាស្ត្រ,ក្សេត្យសាស្ត្រ
,,,,,,,,,,៥. ដេប៉ាតឺម៉ង់សង្កមកិច្ច,សង្គម
74,វិទ្យាស្ថានពាណិជ្ជសាស្រ្តអេស៊ីលីដា,acleda,ផ្ទះលេខ ៥០ ផ្លូវ ៥១៦​. ៣៣៥ ភូមិទី៦ សង្កាត់បឹងកក់I ខណ្ឌទួលគោក ភ្នំពេញ,រាជធានីភ្នំពេញ," 85­5 (0)23 986 937; 85­5 (0)23 999 944;

85­5 (0)23 999 979; 85­5 (0)23 881 780",,info@acleda-aib.edu.kh,www.facebook.com/acledaatc/,,,ហិរញ្ញវត្ថុ និងធនាគារ
75,វិទ្យាស្ថានសហប្រតិបតិ្តការអន្តរជាតិ កម្ពុជា,cici," ផ្លូវ 182, សង្កាត់ទឹកល្អក់ 2, ខណ្ឌទួលគោក, រាជធានីភ្នំពេញ",រាជធានីភ្នំពេញ,"012 898 112;
016 926 444",,info@cici.edu.kh,www.cici.edu.kh,,មហាវិទ្យាល័យសិល្បៈ មនុស្សសាស្រ្ត និងភាសាបរទេស,អក្សរសាស្រ្តអង់គ្លេស
,,,,,,,,,,មហាវិទ្យាល័យគ្រប់គ្រងពាណិជ្ជកម្ម សណ្ឋាគារ-ទេសចរណ៏,គណនេយ្យ
,,,,,,,,,,,ធនាគារ និងហិរញ្ញវត្ថុ
,,,,,,,,,,,ទីផ្សារ
,,,,,,,,,,,គ្រប់គ្រង
,,,,,,,,,,មហាវិទ្យាល័យនីតិសាស្រ្ត និងវិទ្យាសាស្រ្តសេដ្ឋកិច្ច,គ្រប់គ្រងសណ្ឋាគារ-ទេសចរណ៍
,,,,,,,,,,,នីតិសាធារណៈ
,,,,,,,,,,,នីតិឯកជន
,,,,,,,,,,,អភិវឌ្ឃន៍សេដ្ឋកិច្ច
,,,,,,,,,,មហាវិទ្យាល័យវិទ្យាសាស្រ្ត និងបច្ចេកវិទ្យាព័ត៌មានវិទ្យា,វិទ្យាសាស្រ្តកុំព្យូទ័រ
,,,,,,,,,,,ព័ត៌មានវិទ្យា
,,,,,,,,,,មហាវិទ្យាល័យកសិកម្ម និងអភិវឌ្ឍជនបទ,កសិកម្ម
,,,,,,,,,,,អភិវឌ្ឃជនបទ
,,,,,,,,,,មហាវិទ្យាល័យវិស្វកម្ម និងអេឡិចត្រូនិច,វិស្វកម្មអគ្គីសនី
,,,,,,,,,,,វិស្វកម្មអេឡិចត្រូនិច
